{"type":"FeatureCollection","features":[{"type":"Feature","properties":{"gml_id":"vwRatingUnit.117084","RatingUnitID":117084,"ValuationVisitOrder":"83800","drvRatingUnitLocation":null,"StreetAddressID":22494,"OccupationLevelDescription":"Ground Floor and Above","StreetAddress":"15 Rempstone Drive","LocalityName":"Wentworth Park","ValuationRollNumber":"23441"},"geometry":{"type":"MultiPolygon","coordinates":[[[[172.551719583091,-43.5747340172479],[172.551794898464,-43.5748087914764],[172.551864346363,-43.57485990678239],[172.551684013875,-43.5750138395596],[172.551583563041,-43.5750995776336],[172.5514144438,-43.574994483865595],[172.551719583091,-43.5747340172479]]]]}}]}