{"type":"FeatureCollection","features":[{"type":"Feature","properties":{"gml_id":"vwRatingUnit.116777","RatingUnitID":116777,"ValuationVisitOrder":"65400","drvRatingUnitLocation":null,"StreetAddressID":15265,"OccupationLevelDescription":"Ground Floor and Above","StreetAddress":"170 Halswell Junction Road","LocalityName":"Oaklands","ValuationRollNumber":"23441"},"geometry":{"type":"MultiPolygon","coordinates":[[[[172.55547478424697,-43.577976383218],[172.555608928157,-43.5780954492376],[172.555219411704,-43.5783273922077],[172.55508529285999,-43.5782083168349],[172.55547478424697,-43.577976383218]]]]}}]}