{"type":"FeatureCollection","features":[{"type":"Feature","properties":{"gml_id":"vwRatingUnit.115016","RatingUnitID":115016,"ValuationVisitOrder":"100","drvRatingUnitLocation":null,"StreetAddressID":64127,"OccupationLevelDescription":"Ground Floor and Above","StreetAddress":"253 Main South Road","LocalityName":"Hornby","ValuationRollNumber":"23434"},"geometry":{"type":"MultiPolygon","coordinates":[[[[172.542866851991,-43.5434880181858],[172.544355170296,-43.543562656347795],[172.54476739092897,-43.5436467527093],[172.544871649751,-43.5436520072782],[172.54488323585596,-43.5436530881691],[172.544896469443,-43.5436555887081],[172.54490909937098,-43.543659391987795],[172.54492089115098,-43.543664416073895],[172.544931635108,-43.5436705701293],[172.544941109395,-43.543677736266],[172.544949141726,-43.54368578779139],[172.544955597268,-43.5436945531562],[172.544960328617,-43.5437038877641],[172.54496325063596,-43.5437135932595],[172.544964315039,-43.5437235074358],[172.544963510862,-43.5437334412314],[172.544936794953,-43.5438861256252],[172.544876772762,-43.5439653122044],[172.544268243376,-43.544569547055794],[172.543253829253,-43.5437866818886],[172.542866851991,-43.5434880181858]]]]}}]}