{"type":"FeatureCollection","features":[{"type":"Feature","properties":{"gml_id":"vwRatingUnit.108635","RatingUnitID":108635,"ValuationVisitOrder":"24600","drvRatingUnitLocation":null,"StreetAddressID":73809,"OccupationLevelDescription":"Ground Floor and Above","StreetAddress":"3/39 Sonter Road","LocalityName":"Sockburn","ValuationRollNumber":"23411"},"geometry":{"type":"MultiPolygon","coordinates":[[[[172.569207901324,-43.5480372560509],[172.569208197926,-43.54803725716009],[172.56920813435,-43.5480462577508],[172.569214321466,-43.5480462808894],[172.569214289679,-43.54805078118469],[172.569220476795,-43.5480508043229],[172.569220445008,-43.5480553046183],[172.569226632124,-43.5480553277562],[172.569226600338,-43.54805982805149],[172.569232787455,-43.5480598511891],[172.569232755669,-43.5480643514843],[172.569238942786,-43.5480643746216],[172.569238911001,-43.5480688749169],[172.56924509811898,-43.5480688980538],[172.569245066333,-43.5480733983491],[172.569251253452,-43.5480734214857],[172.569251221667,-43.548077921780894],[172.569257408786,-43.548077944917196],[172.56925737700197,-43.5480824452124],[172.56926356412097,-43.54808246834829],[172.569263532337,-43.5480869686436],[172.569269719457,-43.5480869917792],[172.569269687674,-43.5480914920744],[172.569275874794,-43.5480915152097],[172.569275843011,-43.5480960155049],[172.56928203013197,-43.5480960386398],[172.56928199834897,-43.548100538935],[172.56928818546996,-43.5481005620696],[172.569288153688,-43.5481050623648],[172.56929434081,-43.5481050854991],[172.569294309029,-43.5481095857943],[172.569300496151,-43.5481096089282],[172.56930046437,-43.5481141092234],[172.569306651492,-43.54811413235699],[172.569306619712,-43.5481186326521],[172.56931280683497,-43.5481186557854],[172.569312775054,-43.5481231560806],[172.569318962178,-43.5481231792135],[172.569318930398,-43.5481276795087],[172.569325117522,-43.5481277026412],[172.569325085743,-43.5481322029364],[172.569331272867,-43.5481322260687],[172.56933124108798,-43.5481367263638],[172.569337428213,-43.54813674949569],[172.569337396435,-43.548141249790895],[172.56934358356,-43.5481412729225],[172.569343551782,-43.5481457732176],[172.56934973890796,-43.5481457963488],[172.569349707131,-43.5481502966439],[172.569355894257,-43.5481503197749],[172.56935586248,-43.54815482007],[172.56936204960698,-43.5481548432005],[172.56936201783,-43.5481593434957],[172.569368204957,-43.5481593666259],[172.569368173181,-43.548163866921],[172.569374360309,-43.5481638900509],[172.569374328533,-43.548168390346],[172.56938051566098,-43.5481684134756],[172.56938045211098,-43.5481774140658],[172.56938663923998,-43.548177437195],[172.56938654391598,-43.5481909380802],[172.569392731046,-43.5481909612091],[172.569392667498,-43.54819996179919],[172.569398854629,-43.54819998492779],[172.569398791081,-43.548208985517896],[172.569404978214,-43.5482090086461],[172.56940494644,-43.548213508941096],[172.569411133573,-43.548213532069],[172.5694111018,-43.5482180323641],[172.569417288933,-43.5482180554916],[172.569417257161,-43.5482225557866],[172.569423444294,-43.5482225789138],[172.569423412522,-43.5482270792088],[172.569429599656,-43.548227102335694],[172.569429567885,-43.5482316026307],[172.569435755019,-43.5482316257573],[172.569435659706,-43.5482451266422],[172.569441846842,-43.5482451497684],[172.569441815071,-43.5482496500634],[172.569448002208,-43.5482496731893],[172.569447970438,-43.5482541734842],[172.569454157574,-43.54825419660979],[172.569454125805,-43.5482586969047],[172.569460312942,-43.5482587200299],[172.569460281173,-43.5482632203249],[172.56946646831,-43.5482632434497],[172.569466436542,-43.5482677437447],[172.56947262368,-43.548267766869294],[172.569472560143,-43.5482767674591],[172.569478747282,-43.5482767905833],[172.569478683747,-43.54828579117319],[172.569484870886,-43.548285814296996],[172.569484775584,-43.5482993151817],[172.569490962726,-43.54829933830519],[172.569490899192,-43.548308338895],[172.569497086334,-43.54830836201819],[172.569497054568,-43.5483128623131],[172.56950324171,-43.54831288543599],[172.569503209944,-43.5483173857308],[172.56950710062,-43.548317400271],[172.56940999721397,-43.5483744854545],[172.569410053296,-43.5483665420966],[172.569403866148,-43.5483665189688],[172.569403897921,-43.548362018674],[172.569397710773,-43.5483619955458],[172.56939774254698,-43.548357495251],[172.5693915554,-43.5483574721225],[172.569391587174,-43.5483529718276],[172.569385400027,-43.5483529486988],[172.569385431802,-43.548348448404],[172.569379244656,-43.5483484252748],[172.569379276431,-43.5483439249799],[172.569373089285,-43.5483439018504],[172.569373152836,-43.5483349012607],[172.569366965691,-43.5483348781308],[172.569367029243,-43.5483258775411],[172.569360842099,-43.5483258544109],[172.569360873876,-43.548321354116],[172.569354686732,-43.5483213309855],[172.569354718509,-43.5483168306906],[172.569348531366,-43.5483168075598],[172.569348563144,-43.5483123072648],[172.569342376001,-43.5483122841337],[172.569342407779,-43.5483077838387],[172.569336220637,-43.5483077607072],[172.569336252415,-43.5483032604123],[172.569330065273,-43.54830323728049],[172.56933012883098,-43.5482942366906],[172.56932394169,-43.5482942135584],[172.56932397346898,-43.5482897132635],[172.569317786329,-43.5482896901309],[172.569317818109,-43.548285189836],[172.56931163096897,-43.5482851667031],[172.569311662749,-43.5482806664082],[172.569305475609,-43.548280643275],[172.56930550738997,-43.548276142979994],[172.569299320251,-43.5482761198465],[172.569299352032,-43.5482716195515],[172.569293164893,-43.54827159641769],[172.569293228457,-43.5482625958277],[172.56928704131897,-43.5482625726935],[172.569287104883,-43.5482535721035],[172.569280917746,-43.548253548969],[172.569280949529,-43.548249048673895],[172.569274762392,-43.5482490255391],[172.569274794175,-43.5482445252441],[172.56926860703996,-43.5482445021089],[172.56926863882296,-43.5482400018138],[172.569262451688,-43.5482399786783],[172.569262483471,-43.5482354783832],[172.569256296337,-43.5482354552474],[172.569256328121,-43.548230954952395],[172.56925014098596,-43.5482309318162],[172.569250172771,-43.5482264315211],[172.569243985637,-43.5482264083846],[172.569244017422,-43.5482219080895],[172.569237830289,-43.5482218849526],[172.569237862074,-43.5482173846576],[172.56923167494097,-43.5482173615204],[172.569231706728,-43.548212861225295],[172.569225519595,-43.5482128380878],[172.569225551382,-43.5482083377927],[172.569219364249,-43.5482083146548],[172.569219396036,-43.5482038143597],[172.569213208905,-43.5482037912215],[172.569213240692,-43.5481992909264],[172.569207053561,-43.5481992677879],[172.569207085349,-43.548194767492795],[172.569200898218,-43.5481947443539],[172.569200930007,-43.548190244058794],[172.569194742876,-43.5481902209195],[172.569194774665,-43.5481857206244],[172.569188587535,-43.54818569748489],[172.569188619325,-43.54818119718969],[172.569182432195,-43.5481811740499],[172.569182463985,-43.5481766737547],[172.56917627685598,-43.5481766506145],[172.569176308646,-43.5481721503194],[172.569170121518,-43.5481721271788],[172.569170153308,-43.5481676268837],[172.56916396618,-43.5481676037428],[172.569163997972,-43.54816310344759],[172.569157810844,-43.5481630803064],[172.569157842636,-43.5481585800112],[172.56915165550896,-43.5481585568697],[172.56915168730097,-43.5481540565745],[172.569145500174,-43.5481540334326],[172.569145531966,-43.5481495331374],[172.56913934484,-43.5481495099952],[172.569139376633,-43.5481450097],[172.56913318950697,-43.5481449865575],[172.569133221301,-43.5481404862622],[172.569127034176,-43.548140463119395],[172.56912706596998,-43.54813596282419],[172.569120878845,-43.5481359396809],[172.569120910639,-43.54813143938569],[172.569114723515,-43.5481314162422],[172.569114755309,-43.5481269159469],[172.569108568186,-43.5481268928031],[172.569108599981,-43.5481223925078],[172.569102412857,-43.5481223693636],[172.569102444653,-43.5481178690683],[172.56909625753,-43.5481178459238],[172.569096289326,-43.5481133456285],[172.569090102204,-43.5481133224836],[172.56909013399996,-43.5481088221884],[172.569083946878,-43.5481087990432],[172.569083978675,-43.548104298747894],[172.569077791554,-43.5481042756023],[172.569077868111,-43.5480934404907],[172.569155400102,-43.5480608317474],[172.569207901324,-43.5480372560509]]]]}}]}