{"type":"FeatureCollection","features":[{"type":"Feature","properties":{"gml_id":"vwRatingUnit.103025","RatingUnitID":103025,"ValuationVisitOrder":"15100","drvRatingUnitLocation":null,"StreetAddressID":75427,"OccupationLevelDescription":"Ground Floor and Above","StreetAddress":"30 Revelation Drive","LocalityName":"Clifton","ValuationRollNumber":"22911"},"geometry":{"type":"MultiPolygon","coordinates":[[[[172.743723729713,-43.5728338347898],[172.743925256878,-43.5730509860558],[172.743672827327,-43.573199456654],[172.743632723616,-43.5731510171215],[172.743523400655,-43.573086502168],[172.743421651218,-43.5730314994289],[172.743490384027,-43.5729865235241],[172.743723729713,-43.5728338347898]]]]}}]}