{"type":"FeatureCollection","features":[{"type":"Feature","properties":{"gml_id":"vwRatingUnit.106338","RatingUnitID":106338,"ValuationVisitOrder":"17700","drvRatingUnitLocation":null,"StreetAddressID":5040,"OccupationLevelDescription":"Ground Floor and Above","StreetAddress":"2/172 Cashmere Road","LocalityName":"Hoon Hay","ValuationRollNumber":"22960"},"geometry":{"type":"MultiPolygon","coordinates":[[[[172.613273396051,-43.5739308185358],[172.61327279519,-43.5739277038143],[172.613271973851,-43.573923446299894],[172.613266802128,-43.5738966421616],[172.61326587660497,-43.5738918452402],[172.613260809071,-43.5738655807683],[172.61325977972098,-43.5738602444409],[172.613254816379,-43.5738345191155],[172.61325368248697,-43.5738286433799],[172.613248823337,-43.573803457461],[172.613247585618,-43.57379704231939],[172.61324283029796,-43.5737723960656],[172.613241488396,-43.5737654415169],[172.613236837268,-43.5737413344098],[172.61323539154,-43.5737338404551],[172.613235247205,-43.5737330929838],[172.613367198478,-43.5737196164295],[172.61337054385896,-43.5737192749329],[172.613409863193,-43.5737152591937],[172.613414018451,-43.5737148346369],[172.613452527904,-43.5737109016821],[172.61348193556898,-43.5737078980962],[172.613483715326,-43.573717124961],[172.61348455639998,-43.5737214857253],[172.613488795022,-43.573743457820996],[172.613490549508,-43.5737525546449],[172.613494890231,-43.5737750575628],[172.613496542621,-43.5737836238237],[172.613500985805,-43.5738066573051],[172.613502535742,-43.57381469274209],[172.61350708102697,-43.573838257045594],[172.61350852886696,-43.5738457619196],[172.613509906711,-43.573852904866],[172.613428910647,-43.5738601470732],[172.61343459285996,-43.5739042314435],[172.613325215214,-43.5739174910115],[172.613364472184,-43.5741510514831],[172.613384201863,-43.5741750052681],[172.613349035066,-43.5741785907073],[172.613321738469,-43.5741813736494],[172.613321183638,-43.57417849742199],[172.61332073955796,-43.5741761964914],[172.613319734415,-43.5741709873433],[172.613314746446,-43.5741451348439],[172.613314653691,-43.57414465317579],[172.613308753338,-43.5741140734556],[172.613308556398,-43.5741130521207],[172.61330276023799,-43.5740830118068],[172.613302459468,-43.574081451326094],[172.613296767502,-43.5740519501586],[172.613296362189,-43.5740498502697],[172.613290774415,-43.5740208885085],[172.613290265274,-43.5740182492139],[172.613284781333,-43.57398982711769],[172.613284168008,-43.5739866481562],[172.613278788258,-43.5739587654663],[172.613278070747,-43.5739550473577],[172.613273396051,-43.5739308185358]]]]}}]}