{"type":"FeatureCollection","features":[{"type":"Feature","properties":{"gml_id":"vwRatingUnit.108405","RatingUnitID":108405,"ValuationVisitOrder":"61500","drvRatingUnitLocation":null,"StreetAddressID":20199,"OccupationLevelDescription":"Ground Floor and Above","StreetAddress":"152 Warren Crescent","LocalityName":"Hillmorton","ValuationRollNumber":"22980"},"geometry":{"type":"MultiPolygon","coordinates":[[[[172.581924205016,-43.5595509666054],[172.582063812802,-43.5596760976412],[172.581677190713,-43.5599042329409],[172.581663364,-43.5598918426961],[172.581537570871,-43.5597790923967],[172.581924205016,-43.5595509666054]]]]}}]}