{"type":"FeatureCollection","features":[{"type":"Feature","properties":{"gml_id":"vwRatingUnit.109596","RatingUnitID":109596,"ValuationVisitOrder":"10500","drvRatingUnitLocation":null,"StreetAddressID":48208,"OccupationLevelDescription":"Ground Floor and Above","StreetAddress":"12 English Street","LocalityName":"Upper Riccarton","ValuationRollNumber":"23413"},"geometry":{"type":"MultiPolygon","coordinates":[[[[172.564424865702,-43.5322242419229],[172.564473181839,-43.5322580430385],[172.56456834932,-43.5323246315664],[172.56413707654,-43.5326509461347],[172.563993592916,-43.5325505469627],[172.564249506236,-43.5323569171496],[172.564424865702,-43.5322242419229]]]]}}]}