{"type":"FeatureCollection","features":[{"type":"Feature","properties":{"gml_id":"vwRatingUnit.115441","RatingUnitID":115441,"ValuationVisitOrder":"45200","drvRatingUnitLocation":null,"StreetAddressID":59267,"OccupationLevelDescription":"Ground Floor and Above","StreetAddress":"23 Avro Crescent","LocalityName":"Hornby","ValuationRollNumber":"23434"},"geometry":{"type":"MultiPolygon","coordinates":[[[[172.538789147165,-43.54693740711449],[172.539182609627,-43.547241168658],[172.53906288596397,-43.547323128677895],[172.539042225019,-43.5473372763879],[172.538651587739,-43.5470313834779],[172.538789147165,-43.54693740711449]]]]}}]}