{"type":"FeatureCollection","features":[{"type":"Feature","properties":{"gml_id":"vwRatingUnit.108048","RatingUnitID":108048,"ValuationVisitOrder":"36000","drvRatingUnitLocation":null,"StreetAddressID":65405,"OccupationLevelDescription":"Ground Floor and Above","StreetAddress":"26 Warren Crescent","LocalityName":"Hillmorton","ValuationRollNumber":"22980"},"geometry":{"type":"MultiPolygon","coordinates":[[[[172.58635947057098,-43.5551737353933],[172.586414861546,-43.5551688307603],[172.586464339349,-43.5551690263251],[172.586508128779,-43.5551721987178],[172.586585229522,-43.5551833842862],[172.58664284409,-43.5551955169958],[172.586727753127,-43.555217810435394],[172.586809365537,-43.55524262121039],[172.586511545585,-43.555756280539896],[172.586476566118,-43.555746011150596],[172.586492732586,-43.5557181397441],[172.586620198649,-43.5554982849862],[172.586299464906,-43.5554302312365],[172.58635947057098,-43.5551737353933]]]]}}]}