{"type":"FeatureCollection","features":[{"type":"Feature","properties":{"gml_id":"vwRatingUnit.100871","RatingUnitID":100871,"ValuationVisitOrder":"43116","drvRatingUnitLocation":null,"StreetAddressID":108574,"OccupationLevelDescription":"Ground Floor and Above","StreetAddress":"6 Avery Place","LocalityName":"Moncks Spur","ValuationRollNumber":"22900"},"geometry":{"type":"MultiPolygon","coordinates":[[[[172.727542662143,-43.56735506029409],[172.727509782111,-43.56760001303739],[172.72741231812,-43.567599594120594],[172.727314872736,-43.5676005522454],[172.727217458412,-43.5676028694404],[172.727189181857,-43.567603936742294],[172.727214998893,-43.5673720271644],[172.727255645717,-43.5673699269983],[172.727542662143,-43.56735506029409]]]]}}]}