{"type":"FeatureCollection","features":[{"type":"Feature","properties":{"gml_id":"vwRatingUnit.115000","RatingUnitID":115000,"ValuationVisitOrder":"84100","drvRatingUnitLocation":null,"StreetAddressID":41549,"OccupationLevelDescription":"Ground Floor and Above","StreetAddress":"100 Blankney Street","LocalityName":"Hornby","ValuationRollNumber":"23433"},"geometry":{"type":"MultiPolygon","coordinates":[[[[172.52890506889997,-43.5491105619143],[172.528947608394,-43.549144885284896],[172.52903343799,-43.5492141021016],[172.52867293692,-43.5494505482229],[172.528544567936,-43.5493470076395],[172.52890506889997,-43.5491105619143]]]]}}]}