{"type":"FeatureCollection","features":[{"type":"Feature","properties":{"gml_id":"vwRatingUnit.110354","RatingUnitID":110354,"ValuationVisitOrder":"5100","drvRatingUnitLocation":null,"StreetAddressID":53574,"OccupationLevelDescription":"Ground Floor and Above","StreetAddress":"20 Doncaster Street","LocalityName":"Upper Riccarton","ValuationRollNumber":"23414"},"geometry":{"type":"MultiPolygon","coordinates":[[[[172.555457950006,-43.5304616779115],[172.555640661644,-43.53052222148939],[172.555405679632,-43.5307980015263],[172.555370426628,-43.53078210476539],[172.555348565518,-43.5308077448674],[172.555214582374,-43.530747281161],[172.555457950006,-43.5304616779115]]]]}}]}