{"type":"FeatureCollection","features":[{"type":"Feature","properties":{"gml_id":"vwRatingUnit.114477","RatingUnitID":114477,"ValuationVisitOrder":"27000","drvRatingUnitLocation":null,"StreetAddressID":38796,"OccupationLevelDescription":"Ground Floor and Above","StreetAddress":"1/80 Brynley Street","LocalityName":"Hornby","ValuationRollNumber":"23433"},"geometry":{"type":"MultiPolygon","coordinates":[[[[172.533721743585,-43.5488146525703],[172.53374661196096,-43.5488347081844],[172.533249097217,-43.5491610994642],[172.533123894777,-43.5492255149472],[172.532953399159,-43.5490831259024],[172.53303928285,-43.5490267931157],[172.53311830929496,-43.5489749621964],[172.533279388377,-43.5491048587136],[172.533721743585,-43.5488146525703]]]]}}]}