{"type":"FeatureCollection","features":[{"type":"Feature","properties":{"gml_id":"vwRatingUnit.105661","RatingUnitID":105661,"ValuationVisitOrder":"19200","drvRatingUnitLocation":null,"StreetAddressID":80219,"OccupationLevelDescription":"Ground Floor and Above","StreetAddress":"33A Downing Street","LocalityName":"Hoon Hay","ValuationRollNumber":"22952"},"geometry":{"type":"MultiPolygon","coordinates":[[[[172.598476299622,-43.5617649153437],[172.598897965239,-43.5621457734181],[172.598733119886,-43.5622422997622],[172.598525042734,-43.562054359933],[172.598641640692,-43.5619861172663],[172.59864540909498,-43.5619607932994],[172.598447373816,-43.5617818529987],[172.598476299622,-43.5617649153437]]]]}}]}