{"type":"FeatureCollection","features":[{"type":"Feature","properties":{"gml_id":"vwRatingUnit.112810","RatingUnitID":112810,"ValuationVisitOrder":"110","drvRatingUnitLocation":null,"StreetAddressID":121956,"OccupationLevelDescription":"Ground Floor and Above","StreetAddress":"2/7C Buchanans Road","LocalityName":"Hornby","ValuationRollNumber":"23422"},"geometry":{"type":"MultiPolygon","coordinates":[[[[172.544699692223,-43.5354908933407],[172.54492240166698,-43.5355587485496],[172.544866907188,-43.5356617833381],[172.544887700321,-43.5357055496097],[172.544893524625,-43.53573450475529],[172.544879247482,-43.5357369182478],[172.544890207611,-43.53576901008719],[172.544808859582,-43.53578141515379],[172.544699692223,-43.5354908933407]]]]}}]}