{"type":"FeatureCollection","features":[{"type":"Feature","properties":{"gml_id":"vwRatingUnit.107927","RatingUnitID":107927,"ValuationVisitOrder":"23900","drvRatingUnitLocation":null,"StreetAddressID":121719,"OccupationLevelDescription":"Ground Floor and Above","StreetAddress":"79 Tankerville Road","LocalityName":"Hoon Hay","ValuationRollNumber":"22980"},"geometry":{"type":"MultiPolygon","coordinates":[[[[172.594642853686,-43.5600420233354],[172.59495335206,-43.55986261161969],[172.594872252293,-43.5597883090444],[172.59481161258,-43.5597899330174],[172.594542573414,-43.5599502756165],[172.594642853686,-43.5600420233354]]]]}}]}