{"type":"FeatureCollection","features":[{"type":"Feature","properties":{"gml_id":"vwRatingUnit.100457","RatingUnitID":100457,"ValuationVisitOrder":"18300","drvRatingUnitLocation":null,"StreetAddressID":131421,"OccupationLevelDescription":"Ground Floor and Above","StreetAddress":"95 Main Road","LocalityName":"Redcliffs","ValuationRollNumber":"22900"},"geometry":{"type":"MultiPolygon","coordinates":[[[[172.739566147279,-43.5616567583122],[172.739698872411,-43.5617596364617],[172.739736522562,-43.5617888199943],[172.739282598641,-43.5620985303047],[172.73911221107997,-43.56196646793509],[172.739566147279,-43.5616567583122]]]]}}]}