{"type":"FeatureCollection","features":[{"type":"Feature","properties":{"gml_id":"vwRatingUnit.102689","RatingUnitID":102689,"ValuationVisitOrder":"62500","drvRatingUnitLocation":null,"StreetAddressID":56962,"OccupationLevelDescription":"Ground Floor and Above","StreetAddress":"215 Mt Pleasant Road","LocalityName":"Mt Pleasant","ValuationRollNumber":"22902"},"geometry":{"type":"MultiPolygon","coordinates":[[[[172.721329066819,-43.5673825152809],[172.721410767315,-43.5675144441396],[172.720927256674,-43.5676729376638],[172.720800147594,-43.5675559026216],[172.721329066819,-43.5673825152809]]]]}}]}