{"type":"FeatureCollection","features":[{"type":"Feature","properties":{"gml_id":"vwRatingUnit.102871","RatingUnitID":102871,"ValuationVisitOrder":"87400","drvRatingUnitLocation":null,"StreetAddressID":98390,"OccupationLevelDescription":"Ground Floor and Above","StreetAddress":"48 Rockview Place","LocalityName":"Mt Pleasant","ValuationRollNumber":"22902"},"geometry":{"type":"MultiPolygon","coordinates":[[[[172.717704268923,-43.5717076607815],[172.717501971091,-43.5714934578703],[172.717745284385,-43.5713720502681],[172.71783165516698,-43.5713821887853],[172.717833649642,-43.5713765143219],[172.71801068770898,-43.5715547699098],[172.717704268923,-43.5717076607815]]]]}}]}