{"type":"FeatureCollection","features":[{"type":"Feature","properties":{"gml_id":"vwRatingUnit.112294","RatingUnitID":112294,"ValuationVisitOrder":"33000","drvRatingUnitLocation":null,"StreetAddressID":50315,"OccupationLevelDescription":"Ground Floor and Above","StreetAddress":"124 Gilberthorpes Road","LocalityName":"Hei Hei","ValuationRollNumber":"23421"},"geometry":{"type":"MultiPolygon","coordinates":[[[[172.521542934606,-43.53080677249209],[172.521566951922,-43.530814094664294],[172.521757721663,-43.53087225448239],[172.521625440373,-43.5311063995104],[172.521229084539,-43.5309884938102],[172.521246993623,-43.5309574017107],[172.52138823122797,-43.5309993396757],[172.521432715479,-43.5309912376643],[172.521542934606,-43.53080677249209]]]]}}]}