{"type":"FeatureCollection","features":[{"type":"Feature","properties":{"gml_id":"vwRatingUnit.107495","RatingUnitID":107495,"ValuationVisitOrder":"55200","drvRatingUnitLocation":null,"StreetAddressID":84064,"OccupationLevelDescription":"Ground Floor and Above","StreetAddress":"37 Haslam Crescent","LocalityName":"Hoon Hay","ValuationRollNumber":"22970"},"geometry":{"type":"MultiPolygon","coordinates":[[[[172.59034090892,-43.565690079927],[172.59064970549198,-43.5659667884203],[172.590502341593,-43.5660537524108],[172.590193532862,-43.5657770434833],[172.59034090892,-43.565690079927]]]]}}]}