{"type":"FeatureCollection","features":[{"type":"Feature","properties":{"gml_id":"vwRatingUnit.102036","RatingUnitID":102036,"ValuationVisitOrder":"84300","drvRatingUnitLocation":null,"StreetAddressID":109506,"OccupationLevelDescription":"Ground Floor and Above","StreetAddress":"6 Muritai Terrace","LocalityName":"Mt Pleasant","ValuationRollNumber":"22901"},"geometry":{"type":"MultiPolygon","coordinates":[[[[172.71644128895997,-43.567894444109],[172.71670059857698,-43.567614893469],[172.716950563362,-43.567716555241],[172.716728906654,-43.5680046682646],[172.716477418758,-43.5679082856081],[172.71630235754,-43.568013846209496],[172.716278268439,-43.567992734789],[172.71644128895997,-43.567894444109]]]]}}]}