{"type":"FeatureCollection","features":[{"type":"Feature","properties":{"gml_id":"vwRatingUnit.114778","RatingUnitID":114778,"ValuationVisitOrder":"58900","drvRatingUnitLocation":null,"StreetAddressID":108975,"OccupationLevelDescription":"Ground Floor and Above","StreetAddress":"6 Fairmont Place","LocalityName":"Hornby","ValuationRollNumber":"23433"},"geometry":{"type":"MultiPolygon","coordinates":[[[[172.53012483912,-43.5539634491136],[172.530233202949,-43.5540516855962],[172.530211905537,-43.5540788084202],[172.53002041562,-43.5543226533957],[172.529964726665,-43.554298222851],[172.529907466984,-43.554270455544],[172.529852016446,-43.5542407964041],[172.52981939078597,-43.5542218964294],[172.53012483912,-43.5539634491136]]]]}}]}