{"type":"FeatureCollection","features":[{"type":"Feature","properties":{"gml_id":"vwRatingUnit.101096","RatingUnitID":101096,"ValuationVisitOrder":"53300","drvRatingUnitLocation":null,"StreetAddressID":88897,"OccupationLevelDescription":"Ground Floor and Above","StreetAddress":"4 Taupata Street","LocalityName":"Redcliffs","ValuationRollNumber":"22900"},"geometry":{"type":"MultiPolygon","coordinates":[[[[172.736107757437,-43.5606617843201],[172.735886361406,-43.5604902231215],[172.735887262753,-43.560464969691196],[172.73602531134696,-43.5603708157384],[172.736058308906,-43.5603962906582],[172.736271701956,-43.5605610468546],[172.736130289138,-43.56065753354899],[172.73612265347597,-43.5606516207552],[172.736107757437,-43.5606617843201]]]]}}]}