{"type":"FeatureCollection","features":[{"type":"Feature","properties":{"gml_id":"vwRatingUnit.115316","RatingUnitID":115316,"ValuationVisitOrder":"32700","drvRatingUnitLocation":null,"StreetAddressID":66364,"OccupationLevelDescription":"Ground Floor and Above","StreetAddress":"27 Florida Street","LocalityName":"Hornby","ValuationRollNumber":"23434"},"geometry":{"type":"MultiPolygon","coordinates":[[[[172.537354473162,-43.5436655179796],[172.537587298429,-43.5439737706421],[172.53746306645496,-43.5440584741947],[172.537142727008,-43.5438098695375],[172.537354473162,-43.5436655179796]]]]}}]}