{"type":"FeatureCollection","features":[{"type":"Feature","properties":{"gml_id":"vwRatingUnit.102742","RatingUnitID":102742,"ValuationVisitOrder":"69900","drvRatingUnitLocation":null,"StreetAddressID":70086,"OccupationLevelDescription":"Ground Floor and Above","StreetAddress":"291 Mt Pleasant Road","LocalityName":"Mt Pleasant","ValuationRollNumber":"22902"},"geometry":{"type":"MultiPolygon","coordinates":[[[[172.72208187255296,-43.572645334087],[172.722134330194,-43.5727499472394],[172.721555481922,-43.5729035610282],[172.72146101992897,-43.5727153215632],[172.721464137908,-43.5726613799642],[172.72208187255296,-43.572645334087]]]]}}]}