{"type":"FeatureCollection","features":[{"type":"Feature","properties":{"gml_id":"vwRatingUnit.112308","RatingUnitID":112308,"ValuationVisitOrder":"34500","drvRatingUnitLocation":null,"StreetAddressID":129359,"OccupationLevelDescription":"Ground Floor and Above","StreetAddress":"90 Gilberthorpes Road","LocalityName":"Hei Hei","ValuationRollNumber":"23421"},"geometry":{"type":"MultiPolygon","coordinates":[[[[172.519962967751,-43.5331864401888],[172.520536687378,-43.53336142478239],[172.520501120686,-43.5334366955796],[172.520475228908,-43.5334914755061],[172.519890054839,-43.5333129954812],[172.519962967751,-43.5331864401888]]]]}}]}