{"type":"FeatureCollection","features":[{"type":"Feature","properties":{"gml_id":"vwRatingUnit.106890","RatingUnitID":106890,"ValuationVisitOrder":"66300","drvRatingUnitLocation":null,"StreetAddressID":41030,"OccupationLevelDescription":"Ground Floor and Above","StreetAddress":"10 Waiau Street","LocalityName":"Hoon Hay Valley","ValuationRollNumber":"22960"},"geometry":{"type":"MultiPolygon","coordinates":[[[[172.614456401076,-43.5756243687036],[172.61475775444399,-43.57587767267209],[172.614603305989,-43.5759747785755],[172.614301952772,-43.5757214742088],[172.614456401076,-43.5756243687036]]]]}}]}