{"type":"FeatureCollection","features":[{"type":"Feature","properties":{"gml_id":"vwRatingUnit.105000","RatingUnitID":105000,"ValuationVisitOrder":"67700","drvRatingUnitLocation":null,"StreetAddressID":191266,"OccupationLevelDescription":"Ground Floor and Above","StreetAddress":"224 Taylors Mistake Road","LocalityName":"Scarborough","ValuationRollNumber":"22931"},"geometry":{"type":"MultiPolygon","coordinates":[[[[172.775356005671,-43.5853716640374],[172.773847084389,-43.5845179178642],[172.774603224181,-43.5841048787955],[172.775594626571,-43.5848046243331],[172.775581164147,-43.58497093471179],[172.77564061024,-43.5850547806891],[172.775924432539,-43.5851229143972],[172.77642245623997,-43.5850798472566],[172.775356005671,-43.5853716640374]]]]}}]}