{"type":"FeatureCollection","features":[{"type":"Feature","properties":{"gml_id":"vwRatingUnit.116696","RatingUnitID":116696,"ValuationVisitOrder":"57000","drvRatingUnitLocation":null,"StreetAddressID":51867,"OccupationLevelDescription":"Ground Floor and Above","StreetAddress":"2/72 Patterson Terrace","LocalityName":"Wentworth Park","ValuationRollNumber":"23441"},"geometry":{"type":"MultiPolygon","coordinates":[[[[172.554065385572,-43.5744433836454],[172.554070446806,-43.5744465181678],[172.554065330735,-43.5744508851769],[172.55390656865697,-43.5745864019197],[172.553851083489,-43.57454563039659],[172.553844893674,-43.5745456064536],[172.553838736774,-43.5745410822444],[172.55383254696,-43.5745410583008],[172.553752507349,-43.5744822435449],[172.55374012773296,-43.574482195648],[172.553733970847,-43.5744776714329],[172.55372778104,-43.5744776474836],[172.553721624155,-43.5744731232679],[172.553709244541,-43.5744730753677],[172.553496832621,-43.5743169896918],[172.5534968985,-43.574307989159],[172.553499766498,-43.5743059260726],[172.55375628329497,-43.5744647808991],[172.553898587403,-43.5743432964332],[172.553900767968,-43.574341434888495],[172.553903806546,-43.5743433166192],[172.553958334203,-43.5743770844749],[172.554065385572,-43.5744433836454]]]]}}]}