{"type":"FeatureCollection","features":[{"type":"Feature","properties":{"gml_id":"vwRatingUnit.115033","RatingUnitID":115033,"ValuationVisitOrder":"4000","drvRatingUnitLocation":null,"StreetAddressID":4106,"OccupationLevelDescription":"Ground Floor and Above","StreetAddress":"2/287 Main South Road","LocalityName":"Hornby","ValuationRollNumber":"23434"},"geometry":{"type":"MultiPolygon","coordinates":[[[[172.540241740264,-43.5434750467236],[172.540639119526,-43.54349663096689],[172.540633688631,-43.5435539980716],[172.540236044338,-43.5435352445205],[172.540241740264,-43.5434750467236]]]]}}]}