{"type":"FeatureCollection","features":[{"type":"Feature","properties":{"gml_id":"vwRatingUnit.100059","RatingUnitID":100059,"ValuationVisitOrder":"42600","drvRatingUnitLocation":null,"StreetAddressID":97651,"OccupationLevelDescription":"Ground Floor and Above","StreetAddress":"472A Pages Road","LocalityName":"Aranui","ValuationRollNumber":"22852"},"geometry":{"type":"MultiPolygon","coordinates":[[[[172.709649351954,-43.5140983976359],[172.710085921255,-43.5144466007626],[172.710252813549,-43.5143776615978],[172.710521745711,-43.5145880813539],[172.710233550504,-43.5147069665097],[172.710215820901,-43.5146928267947],[172.710069598261,-43.5145761966548],[172.710102989862,-43.5145008909331],[172.709615757929,-43.5141122729771],[172.709649351954,-43.5140983976359]]]]}}]}