{"type":"FeatureCollection","features":[{"type":"Feature","properties":{"gml_id":"vwRatingUnit.111470","RatingUnitID":111470,"ValuationVisitOrder":"59400","drvRatingUnitLocation":null,"StreetAddressID":77840,"OccupationLevelDescription":"Ground Floor and Above","StreetAddress":"32 Ben Nevis Drive","LocalityName":"Masham","ValuationRollNumber":"23415"},"geometry":{"type":"MultiPolygon","coordinates":[[[[172.53345875564497,-43.5233150677497],[172.533743447676,-43.523456681766],[172.533711965728,-43.5236315146798],[172.53334135317297,-43.52352548392079],[172.53345875564497,-43.5233150677497]]]]}}]}