{"type":"FeatureCollection","features":[{"type":"Feature","properties":{"gml_id":"vwRatingUnit.116611","RatingUnitID":116611,"ValuationVisitOrder":"48600","drvRatingUnitLocation":null,"StreetAddressID":70720,"OccupationLevelDescription":"Ground Floor and Above","StreetAddress":"3 Arkwright Place","LocalityName":"Oaklands","ValuationRollNumber":"23441"},"geometry":{"type":"MultiPolygon","coordinates":[[[[172.55649006669,-43.5731872139585],[172.556913893771,-43.5732372221926],[172.556876209295,-43.5734060311378],[172.556452517173,-43.5733560323008],[172.556488799712,-43.5731929065836],[172.55649006669,-43.5731872139585]]]]}}]}