{"type":"FeatureCollection","features":[{"type":"Feature","properties":{"gml_id":"vwRatingUnit.115118","RatingUnitID":115118,"ValuationVisitOrder":"12300","drvRatingUnitLocation":null,"StreetAddressID":124070,"OccupationLevelDescription":"Ground Floor and Above","StreetAddress":"8/72 Springs Road","LocalityName":"Hornby","ValuationRollNumber":"23434"},"geometry":{"type":"MultiPolygon","coordinates":[[[[172.53930515822898,-43.5485051304786],[172.539296117258,-43.5485110186243],[172.539255377211,-43.5485375505276],[172.53919070254298,-43.548485019221594],[172.539045368397,-43.5483669717518],[172.539336984192,-43.5481842865697],[172.539393638626,-43.5482302690693],[172.539401165292,-43.5482363779701],[172.539303972107,-43.5484136479664],[172.53925362154598,-43.5484006833312],[172.53921614578996,-43.548425528101],[172.53928445687197,-43.5484805769272],[172.53929798971296,-43.5484920809592],[172.539293852913,-43.5484949731548],[172.53930515822898,-43.5485051304786]]]]}}]}