{"type":"FeatureCollection","features":[{"type":"Feature","properties":{"gml_id":"vwRatingUnit.102657","RatingUnitID":102657,"ValuationVisitOrder":"59700","drvRatingUnitLocation":null,"StreetAddressID":50774,"OccupationLevelDescription":"Ground Floor and Above","StreetAddress":"127 Soleares Avenue","LocalityName":"McCormacks Bay","ValuationRollNumber":"22902"},"geometry":{"type":"MultiPolygon","coordinates":[[[[172.721367094026,-43.5649706249549],[172.721440368335,-43.56522056668],[172.721841958476,-43.565270551363795],[172.721816167765,-43.565486925218394],[172.721486957389,-43.5654459535286],[172.72135006464,-43.5649782613366],[172.721367094026,-43.5649706249549]]]]}}]}