{"type":"FeatureCollection","features":[{"type":"Feature","properties":{"gml_id":"vwRatingUnit.117759","RatingUnitID":117759,"ValuationVisitOrder":"56200","drvRatingUnitLocation":null,"StreetAddressID":79350,"OccupationLevelDescription":"Ground Floor and Above","StreetAddress":"33 Hindess Street","LocalityName":"Oaklands","ValuationRollNumber":"23443"},"geometry":{"type":"MultiPolygon","coordinates":[[[[172.561308842054,-43.5700105100482],[172.561877872075,-43.57020145578179],[172.561794596522,-43.5703326318206],[172.561225763067,-43.5701417584483],[172.561308842054,-43.5700105100482]]]]}}]}