{"type":"FeatureCollection","features":[{"type":"Feature","properties":{"gml_id":"vwRatingUnit.114762","RatingUnitID":114762,"ValuationVisitOrder":"57300","drvRatingUnitLocation":null,"StreetAddressID":21911,"OccupationLevelDescription":"Ground Floor and Above","StreetAddress":"15 Fairmont Place","LocalityName":"Hornby","ValuationRollNumber":"23433"},"geometry":{"type":"MultiPolygon","coordinates":[[[[172.529411539054,-43.554116577143894],[172.529435412075,-43.554135828527194],[172.529002934623,-43.5544213515287],[172.52877844612496,-43.5546409462214],[172.528661568058,-43.5545768049058],[172.528595833496,-43.554540730463096],[172.528786486815,-43.554356335206],[172.52890993075,-43.5542369482524],[172.52892439549197,-43.554248510523195],[172.529055206027,-43.55435303248449],[172.529411539054,-43.554116577143894]]]]}}]}