{"type":"FeatureCollection","features":[{"type":"Feature","properties":{"gml_id":"vwRatingUnit.107601","RatingUnitID":107601,"ValuationVisitOrder":"400","drvRatingUnitLocation":null,"StreetAddressID":130794,"OccupationLevelDescription":"Ground Floor and Above","StreetAddress":"93 Halswell Road","LocalityName":"Hoon Hay","ValuationRollNumber":"22980"},"geometry":{"type":"MultiPolygon","coordinates":[[[[172.58861012970198,-43.5574562424127],[172.588570885862,-43.5574211073316],[172.588735131582,-43.55732408018349],[172.588774375453,-43.5573592152094],[172.58912743601698,-43.5576754563236],[172.589079384961,-43.5577038444557],[172.58905824843,-43.5577163341686],[172.588963202304,-43.5577724930689],[172.58861012970198,-43.5574562424127]]]]}}]}