{"type":"FeatureCollection","features":[{"type":"Feature","properties":{"gml_id":"vwRatingUnit.114260","RatingUnitID":114260,"ValuationVisitOrder":"6700","drvRatingUnitLocation":null,"StreetAddressID":99311,"OccupationLevelDescription":"Ground Floor and Above","StreetAddress":"49A Amyes Road","LocalityName":"Hornby","ValuationRollNumber":"23433"},"geometry":{"type":"MultiPolygon","coordinates":[[[[172.529789928929,-43.548621384457],[172.529798932427,-43.5486154799081],[172.529844489014,-43.5485856035909],[172.52984668078997,-43.548585612537195],[172.529865346419,-43.5485721873815],[172.529868440008,-43.5485722000082],[172.52986842266,-43.5485744501613],[172.529871498902,-43.5485767129411],[172.529877686081,-43.5485767381942],[172.529936134719,-43.5486197309904],[172.529936100028,-43.5486242312964],[172.529942252521,-43.5486287568521],[172.52994218313998,-43.5486377574641],[172.529948335635,-43.5486422830194],[172.529948300945,-43.5486467833254],[172.529954453442,-43.5486513088804],[172.529954418752,-43.5486558091864],[172.529975952499,-43.5486716486261],[172.529982139688,-43.5486716738736],[172.529988181253,-43.5486761178254],[172.529742528799,-43.5488372124341],[172.52974075087297,-43.5488383783622],[172.529739288939,-43.54883719920689],[172.529614422701,-43.5487364853211],[172.529670491933,-43.5486997117971],[172.529789928929,-43.548621384457]]]]}}]}