{"type":"FeatureCollection","features":[{"type":"Feature","properties":{"gml_id":"vwRatingUnit.105514","RatingUnitID":105514,"ValuationVisitOrder":"5600","drvRatingUnitLocation":null,"StreetAddressID":17198,"OccupationLevelDescription":"Ground Floor and Above","StreetAddress":"17 Bencard Place","LocalityName":"Hoon Hay","ValuationRollNumber":"22952"},"geometry":{"type":"MultiPolygon","coordinates":[[[[172.600351454861,-43.55943199375749],[172.600357316788,-43.5594327071251],[172.600375159062,-43.5594334800015],[172.600392997921,-43.55943288475],[172.600397072859,-43.5594324308286],[172.600454908494,-43.5597727693061],[172.600419783188,-43.5597935203575],[172.600284537374,-43.5598734374123],[172.600076903185,-43.5596883373414],[172.600057904322,-43.5596714040294],[172.60036164504697,-43.5594918300124],[172.600351454861,-43.55943199375749]]]]}}]}