{"type":"FeatureCollection","features":[{"type":"Feature","properties":{"gml_id":"vwRatingUnit.100214","RatingUnitID":100214,"ValuationVisitOrder":"59506","drvRatingUnitLocation":null,"StreetAddressID":8527,"OccupationLevelDescription":"Ground Floor and Above","StreetAddress":"2 Wetlands Grove","LocalityName":"Bexley","ValuationRollNumber":"22852"},"geometry":{"type":"MultiPolygon","coordinates":[[[[172.71961960639,-43.51761830176079],[172.719774800245,-43.5179978328636],[172.719520393962,-43.5180529185771],[172.719397065743,-43.5177128157266],[172.71944189822,-43.517656769783194],[172.71961960639,-43.51761830176079]]]]}}]}