{"type":"FeatureCollection","features":[{"type":"Feature","properties":{"gml_id":"vwRatingUnit.104199","RatingUnitID":104199,"ValuationVisitOrder":"43800","drvRatingUnitLocation":null,"StreetAddressID":113141,"OccupationLevelDescription":"Ground Floor and Above","StreetAddress":"64 Nayland Street","LocalityName":"Sumner","ValuationRollNumber":"22920"},"geometry":{"type":"MultiPolygon","coordinates":[[[[172.761439023054,-43.5710300713966],[172.761632526277,-43.5711449294217],[172.761237405294,-43.5714967432695],[172.761044112435,-43.5713818040279],[172.761439023054,-43.5710300713966]]]]}}]}