{"type":"FeatureCollection","features":[{"type":"Feature","properties":{"gml_id":"vwRatingUnit.102085","RatingUnitID":102085,"ValuationVisitOrder":"89601","drvRatingUnitLocation":null,"StreetAddressID":58726,"OccupationLevelDescription":"Ground Floor and Above","StreetAddress":"222A Mt Pleasant Road","LocalityName":"Mt Pleasant","ValuationRollNumber":"22901"},"geometry":{"type":"MultiPolygon","coordinates":[[[[172.721028435773,-43.5681309581483],[172.721033745605,-43.5681391884557],[172.720080450667,-43.56846410611409],[172.72006959032396,-43.5686676178521],[172.719978248382,-43.568694956139296],[172.719654999347,-43.568713568396],[172.719698657745,-43.5685841926513],[172.721028435773,-43.5681309581483]]]]}}]}