{"type":"FeatureCollection","features":[{"type":"Feature","properties":{"gml_id":"vwRatingUnit.100526","RatingUnitID":100526,"ValuationVisitOrder":"22700","drvRatingUnitLocation":null,"StreetAddressID":113006,"OccupationLevelDescription":"Ground Floor and Above","StreetAddress":"64 Celia Street","LocalityName":"Redcliffs","ValuationRollNumber":"22900"},"geometry":{"type":"MultiPolygon","coordinates":[[[[172.735653770312,-43.5567988497698],[172.735882284893,-43.5569179548787],[172.735634491538,-43.5570868139613],[172.735488991179,-43.55697432496879],[172.735653770312,-43.5567988497698]]]]}}]}