{"type":"FeatureCollection","features":[{"type":"Feature","properties":{"gml_id":"vwRatingUnit.109563","RatingUnitID":109563,"ValuationVisitOrder":"6207","drvRatingUnitLocation":null,"StreetAddressID":7399,"OccupationLevelDescription":"Ground Floor and Above","StreetAddress":"14 Octavius Lane","LocalityName":"Upper Riccarton","ValuationRollNumber":"23413"},"geometry":{"type":"MultiPolygon","coordinates":[[[[172.563809207182,-43.5295728517793],[172.56394173055597,-43.529613381111794],[172.56396154323198,-43.529648712493994],[172.563871318808,-43.5298048253036],[172.563677162711,-43.52974338828379],[172.56377015852897,-43.529582397667],[172.56379866041397,-43.5295911105479],[172.563809207182,-43.5295728517793]]]]}}]}