{"type":"FeatureCollection","features":[{"type":"Feature","properties":{"gml_id":"vwRatingUnit.116412","RatingUnitID":116412,"ValuationVisitOrder":"19100","drvRatingUnitLocation":null,"StreetAddressID":111787,"OccupationLevelDescription":"Ground Floor and Above","StreetAddress":"61 Westlake Drive","LocalityName":"Westlake","ValuationRollNumber":"23441"},"geometry":{"type":"MultiPolygon","coordinates":[[[[172.558482864863,-43.5699834783829],[172.558633269304,-43.5700469066611],[172.558686695193,-43.5700694420917],[172.558477885048,-43.5703311418273],[172.55827401640397,-43.5702452586226],[172.558482864863,-43.5699834783829]]]]}}]}