{"type":"FeatureCollection","features":[{"type":"Feature","properties":{"gml_id":"vwRatingUnit.106309","RatingUnitID":106309,"ValuationVisitOrder":"15200","drvRatingUnitLocation":null,"StreetAddressID":68906,"OccupationLevelDescription":"Ground Floor and Above","StreetAddress":"288 Hoon Hay Road","LocalityName":"Hoon Hay","ValuationRollNumber":"22960"},"geometry":{"type":"MultiPolygon","coordinates":[[[[172.611891533182,-43.5712960111475],[172.61194169657497,-43.571431811279695],[172.61137287796296,-43.571494999547795],[172.611322740426,-43.5713592172456],[172.611891533182,-43.5712960111475]]]]}}]}