{"type":"FeatureCollection","features":[{"type":"Feature","properties":{"gml_id":"vwRatingUnit.101000","RatingUnitID":101000,"ValuationVisitOrder":"49600","drvRatingUnitLocation":null,"StreetAddressID":91612,"OccupationLevelDescription":"Ground Floor and Above","StreetAddress":"41 Augusta Street","LocalityName":"Redcliffs","ValuationRollNumber":"22900"},"geometry":{"type":"MultiPolygon","coordinates":[[[[172.73522408011,-43.564067334391],[172.735644899802,-43.5643936130345],[172.73565996620198,-43.5644329617873],[172.735988367884,-43.5646875184539],[172.735959914026,-43.5647929305135],[172.73572287655,-43.5649545778637],[172.735493089622,-43.5647765077104],[172.735718232244,-43.5645605064717],[172.735716185035,-43.5645330411999],[172.735640181706,-43.5644741929028],[172.735587217046,-43.5643772710806],[172.735187479985,-43.5640673314989],[172.73522408011,-43.564067334391]]]]}}]}