{"type":"FeatureCollection","features":[{"type":"Feature","properties":{"gml_id":"vwRatingUnit.103751","RatingUnitID":103751,"ValuationVisitOrder":"9509","drvRatingUnitLocation":null,"StreetAddressID":82202,"OccupationLevelDescription":"Ground Floor and Above","StreetAddress":"35 van Asch Street","LocalityName":"Sumner","ValuationRollNumber":"22920"},"geometry":{"type":"MultiPolygon","coordinates":[[[[172.758866266126,-43.578637086706],[172.758858002667,-43.5786321784602],[172.75876815405897,-43.5785788113796],[172.758760613686,-43.5785727024344],[172.758754574917,-43.57856575946519],[172.758750197454,-43.57855818995],[172.758747604174,-43.5785502012896],[172.758746881493,-43.5785420002892],[172.75874802769698,-43.5785338393133],[172.758751018054,-43.57852591609829],[172.75875577656197,-43.5785184646602],[172.758762166874,-43.5785117006957],[172.758893115125,-43.5783950417817],[172.758894084872,-43.5783941777984],[172.758895548647,-43.57839504685399],[172.759035416266,-43.5784780665732],[172.758866266126,-43.578637086706]]]]}}]}