{"type":"FeatureCollection","features":[{"type":"Feature","properties":{"gml_id":"vwRatingUnit.113818","RatingUnitID":113818,"ValuationVisitOrder":"25900","drvRatingUnitLocation":null,"StreetAddressID":61808,"OccupationLevelDescription":"Ground Floor and Above","StreetAddress":"24 Springmead Place","LocalityName":"Islington","ValuationRollNumber":"23432"},"geometry":{"type":"MultiPolygon","coordinates":[[[[172.51285369464097,-43.5434384374994],[172.51291699444997,-43.5434172830377],[172.513183183005,-43.5434135841866],[172.513196551985,-43.54364383967799],[172.513151095688,-43.5436323693301],[172.513090493976,-43.5436193407689],[172.513027529006,-43.543623340956],[172.512970953367,-43.54364382184579],[172.512781809217,-43.5434624629035],[172.51285369464097,-43.5434384374994]]]]}}]}