{"type":"FeatureCollection","features":[{"type":"Feature","properties":{"gml_id":"vwRatingUnit.103601","RatingUnitID":103601,"ValuationVisitOrder":"600","drvRatingUnitLocation":null,"StreetAddressID":34168,"OccupationLevelDescription":"Ground Floor and Above","StreetAddress":"1/3 Richmond Hill Road","LocalityName":"Sumner","ValuationRollNumber":"22920"},"geometry":{"type":"MultiPolygon","coordinates":[[[[172.756448272423,-43.5684769042912],[172.756457518586,-43.5684823950228],[172.756476386475,-43.56849359983],[172.756489082275,-43.5685011391683],[172.756648929819,-43.5685960437479],[172.756649583832,-43.5685964321252],[172.756648925363,-43.5685971623749],[172.756575732921,-43.56867831887],[172.756572932446,-43.5686814243093],[172.7565664715,-43.5686782993646],[172.75636107192196,-43.5685789556292],[172.756448272423,-43.5684769042912]]]]}}]}