{"type":"FeatureCollection","features":[{"type":"Feature","properties":{"gml_id":"vwRatingUnit.11449","RatingUnitID":11449,"ValuationVisitOrder":"39300","drvRatingUnitLocation":null,"StreetAddressID":124334,"OccupationLevelDescription":"Ground Floor and Above","StreetAddress":"80 Yaldhurst Road","LocalityName":"Upper Riccarton","ValuationRollNumber":"21896"},"geometry":{"type":"MultiPolygon","coordinates":[[[[172.565465945237,-43.5293626032261],[172.565685802158,-43.5294298326926],[172.565478508277,-43.5297887074241],[172.56525865028,-43.5297214775768],[172.565465945237,-43.5293626032261]]]]}}]}