{"type":"FeatureCollection","features":[{"type":"Feature","properties":{"gml_id":"vwRatingUnit.103144","RatingUnitID":103144,"ValuationVisitOrder":"46200","drvRatingUnitLocation":null,"StreetAddressID":96604,"OccupationLevelDescription":"Ground Floor and Above","StreetAddress":"46 Tuawera Terrace","LocalityName":"Clifton","ValuationRollNumber":"22911"},"geometry":{"type":"MultiPolygon","coordinates":[[[[172.748890269282,-43.567079110230495],[172.748997886925,-43.5671235724606],[172.748978619145,-43.567170585189096],[172.749288376295,-43.5672137219613],[172.74931528469,-43.5671899650322],[172.749358447062,-43.5671959809806],[172.749092508831,-43.5674389752167],[172.748872715206,-43.5674288402639],[172.748704631948,-43.5672966716527],[172.748890269282,-43.567079110230495]]]]}}]}