{"type":"FeatureCollection","features":[{"type":"Feature","properties":{"gml_id":"vwRatingUnit.106850","RatingUnitID":106850,"ValuationVisitOrder":"62200","drvRatingUnitLocation":null,"StreetAddressID":123066,"OccupationLevelDescription":"Ground Floor and Above","StreetAddress":"8 Pahau Place","LocalityName":"Hoon Hay Valley","ValuationRollNumber":"22960"},"geometry":{"type":"MultiPolygon","coordinates":[[[[172.612655794542,-43.5757415970391],[172.613098630107,-43.5759075873549],[172.613011886991,-43.5760298949103],[172.612569063143,-43.5758639043134],[172.612655794542,-43.5757415970391]]]]}}]}