{"type":"FeatureCollection","features":[{"type":"Feature","properties":{"gml_id":"vwRatingUnit.107982","RatingUnitID":107982,"ValuationVisitOrder":"29800","drvRatingUnitLocation":null,"StreetAddressID":87975,"OccupationLevelDescription":"Ground Floor and Above","StreetAddress":"4 Kinnaird Place","LocalityName":"Hillmorton","ValuationRollNumber":"22980"},"geometry":{"type":"MultiPolygon","coordinates":[[[[172.589537222958,-43.5561228074621],[172.589656599505,-43.5562613674234],[172.589343238058,-43.5564465132208],[172.589202723832,-43.5563207396978],[172.589537222958,-43.5561228074621]]]]}}]}