{"type":"FeatureCollection","features":[{"type":"Feature","properties":{"gml_id":"vwRatingUnit.101493","RatingUnitID":101493,"ValuationVisitOrder":"22600","drvRatingUnitLocation":null,"StreetAddressID":106502,"OccupationLevelDescription":"Ground Floor and Above","StreetAddress":"56 St Andrews Hill Road","LocalityName":"St Andrews Hill","ValuationRollNumber":"22901"},"geometry":{"type":"MultiPolygon","coordinates":[[[[172.717255210725,-43.55823236606469],[172.717484366415,-43.558372291789894],[172.717439914296,-43.5586522535692],[172.717192222808,-43.558631476852],[172.71720476948997,-43.5585519695955],[172.717255210725,-43.55823236606469]]]]}}]}