{"type":"FeatureCollection","features":[{"type":"Feature","properties":{"gml_id":"vwRatingUnit.106648","RatingUnitID":106648,"ValuationVisitOrder":"44700","drvRatingUnitLocation":null,"StreetAddressID":41662,"OccupationLevelDescription":"Ground Floor and Above","StreetAddress":"100 Sparks Road","LocalityName":"Hoon Hay","ValuationRollNumber":"22960"},"geometry":{"type":"MultiPolygon","coordinates":[[[[172.60614413008096,-43.5654345131526],[172.606376885635,-43.5658816260548],[172.606208529383,-43.5659279363596],[172.606082035706,-43.5659627334102],[172.606061763481,-43.5658606410552],[172.605985769296,-43.565478076022],[172.60614413008096,-43.5654345131526]]]]}}]}