{"type":"FeatureCollection","features":[{"type":"Feature","properties":{"gml_id":"vwRatingUnit.117002","RatingUnitID":117002,"ValuationVisitOrder":"79311","drvRatingUnitLocation":null,"StreetAddressID":142412,"OccupationLevelDescription":"Ground Floor and Above","StreetAddress":"42 Rempstone Drive","LocalityName":"Oaklands","ValuationRollNumber":"23441"},"geometry":{"type":"MultiPolygon","coordinates":[[[[172.550355929827,-43.5716112992569],[172.550358918022,-43.5716087477325],[172.55036196985,-43.571611322807],[172.550431172001,-43.5716697141777],[172.550421307523,-43.5716768099496],[172.550421141681,-43.5716993113033],[172.550414918986,-43.5717037874443],[172.550414885817,-43.571708287715],[172.550408663121,-43.5717127638556],[172.550408596782,-43.57172176439699],[172.550402374085,-43.571726240537295],[172.550402340915,-43.571730740808],[172.550396118215,-43.571735216948],[172.550396085045,-43.5717397172186],[172.550389862344,-43.5717441933583],[172.550389796003,-43.5717531938996],[172.5503835733,-43.57175767003889],[172.550383540129,-43.5717621703095],[172.550377317425,-43.5717666464485],[172.55037725108198,-43.5717756469897],[172.550371028376,-43.5717801231283],[172.550370995204,-43.571784623399],[172.55036477249698,-43.5717890995372],[172.550364540289,-43.5718206014314],[172.550358317578,-43.5718250775693],[172.550358284405,-43.5718295778399],[172.550352061692,-43.5718340539774],[172.550352028519,-43.57183855424799],[172.550345805805,-43.571843030385196],[172.550345573587,-43.5718745322789],[172.550339350869,-43.5718790084158],[172.550339317695,-43.5718835086863],[172.550333094975,-43.5718879848228],[172.550333028625,-43.57189698536379],[172.550326805904,-43.5719014615],[172.550326772729,-43.5719059617705],[172.550320550006,-43.5719104379063],[172.55032051683,-43.5719149381768],[172.550311372748,-43.5719215157062],[172.550274593854,-43.5718818632956],[172.550126455339,-43.5719569351122],[172.55012232686596,-43.57195902728359],[172.550120298181,-43.5719569110932],[172.550044170216,-43.5718774992909],[172.550355929827,-43.5716112992569]]]]}}]}