{"type":"FeatureCollection","features":[{"type":"Feature","properties":{"gml_id":"vwRatingUnit.112689","RatingUnitID":112689,"ValuationVisitOrder":"72900","drvRatingUnitLocation":null,"StreetAddressID":87389,"OccupationLevelDescription":"Ground Floor and Above","StreetAddress":"4 Bella Rosa Drive","LocalityName":"Hornby","ValuationRollNumber":"23421"},"geometry":{"type":"MultiPolygon","coordinates":[[[[172.529879402183,-43.5335630428623],[172.530053045837,-43.533626353453],[172.52998464554096,-43.5337399269632],[172.529865752761,-43.5339373359161],[172.529771444511,-43.533906626537],[172.52970054906896,-43.533880036161094],[172.529659287421,-43.5338626307758],[172.529879402183,-43.5335630428623]]]]}}]}