{"type":"FeatureCollection","features":[{"type":"Feature","properties":{"gml_id":"vwRatingUnit.109323","RatingUnitID":109323,"ValuationVisitOrder":"46700","drvRatingUnitLocation":null,"StreetAddressID":66892,"OccupationLevelDescription":"Ground Floor and Above","StreetAddress":"27 Vicki Street","LocalityName":"Upper Riccarton","ValuationRollNumber":"23412"},"geometry":{"type":"MultiPolygon","coordinates":[[[[172.566140412024,-43.5362289616238],[172.566162351217,-43.5363763074388],[172.566650843931,-43.5363378054421],[172.566654906236,-43.5363650663457],[172.565492801749,-43.5364566622249],[172.565466802371,-43.536282055323],[172.566140412024,-43.5362289616238]]]]}}]}