{"type":"FeatureCollection","features":[{"type":"Feature","properties":{"gml_id":"vwRatingUnit.104076","RatingUnitID":104076,"ValuationVisitOrder":"32600","drvRatingUnitLocation":null,"StreetAddressID":107271,"OccupationLevelDescription":"Ground Floor and Above","StreetAddress":"57A Colenso Street","LocalityName":"Sumner","ValuationRollNumber":"22920"},"geometry":{"type":"MultiPolygon","coordinates":[[[[172.764064717482,-43.5755158226247],[172.76426311929998,-43.57563344001],[172.764104061839,-43.5757751967708],[172.763868169911,-43.5759854428843],[172.763833104013,-43.5759646342595],[172.764019045037,-43.5757989015291],[172.763855758493,-43.5757020654619],[172.764064717482,-43.5755158226247]]]]}}]}