{"type":"FeatureCollection","features":[{"type":"Feature","properties":{"gml_id":"vwRatingUnit.112644","RatingUnitID":112644,"ValuationVisitOrder":"68600","drvRatingUnitLocation":null,"StreetAddressID":18175,"OccupationLevelDescription":"Ground Floor and Above","StreetAddress":"17 Taurima Street","LocalityName":"Hei Hei","ValuationRollNumber":"23421"},"geometry":{"type":"MultiPolygon","coordinates":[[[[172.518611800233,-43.539068874182],[172.518790647289,-43.5393889841494],[172.518678932978,-43.5394249529648],[172.518600710512,-43.5394501435792],[172.51841949835,-43.5391256759656],[172.518611800233,-43.539068874182]]]]}}]}