{"type":"FeatureCollection","features":[{"type":"Feature","properties":{"gml_id":"vwRatingUnit.100861","RatingUnitID":100861,"ValuationVisitOrder":"43103","drvRatingUnitLocation":null,"StreetAddressID":23782,"OccupationLevelDescription":"Ground Floor and Above","StreetAddress":"142 Glenstrae Road","LocalityName":"Moncks Spur","ValuationRollNumber":"22900"},"geometry":{"type":"MultiPolygon","coordinates":[[[[172.727572671621,-43.567967202704],[172.727959458382,-43.5679942785595],[172.727872257812,-43.5680849784927],[172.727849261887,-43.5681343191972],[172.727628848662,-43.5682270902375],[172.727594419336,-43.568183860566],[172.727482952661,-43.5682032818588],[172.727536402065,-43.567973030524],[172.727572671621,-43.567967202704]]]]}}]}