{"type":"FeatureCollection","features":[{"type":"Feature","properties":{"gml_id":"vwRatingUnit.104974","RatingUnitID":104974,"ValuationVisitOrder":"40109","drvRatingUnitLocation":null,"StreetAddressID":45202,"OccupationLevelDescription":"Ground Floor and Above","StreetAddress":"11 Sunrise Lane","LocalityName":"Scarborough","ValuationRollNumber":"22931"},"geometry":{"type":"MultiPolygon","coordinates":[[[[172.772032309051,-43.5779705128957],[172.772040540501,-43.57800408271459],[172.772033795438,-43.578049980613],[172.77202270766998,-43.5781050953928],[172.772008365312,-43.5781598257395],[172.771990867834,-43.5782140548422],[172.771970178421,-43.578267692622894],[172.77195866471396,-43.578294257195594],[172.771933311843,-43.578346832727],[172.77190511605,-43.578398178589595],[172.77188113691196,-43.5784375891907],[172.771855265181,-43.5784765640342],[172.771827625465,-43.5785148873542],[172.771798255034,-43.5785525232215],[172.771767166436,-43.5785894266573],[172.772310396714,-43.5788171547049],[172.772222312255,-43.5790890912177],[172.771596355646,-43.578764858943494],[172.771742417475,-43.5786028694759],[172.771774297086,-43.578566327624195],[172.771804483357,-43.5785290353884],[172.771832951393,-43.57849102872229],[172.771859663856,-43.578452361556096],[172.771895198109,-43.5783952158965],[172.771909517465,-43.5783699169216],[172.771936254261,-43.57831806415769],[172.771959911235,-43.5782654312801],[172.771980475679,-43.5782121082699],[172.771997872917,-43.5781582029865],[172.772012127381,-43.5781038054837],[172.772023152049,-43.5780490145959],[172.77202984662497,-43.578003377611],[172.77202465651496,-43.5779775721542],[172.772032309051,-43.5779705128957]]]]}}]}