{"type":"FeatureCollection","features":[{"type":"Feature","properties":{"gml_id":"vwRatingUnit.10250","RatingUnitID":10250,"ValuationVisitOrder":"4600","drvRatingUnitLocation":null,"StreetAddressID":38773,"OccupationLevelDescription":"Ground Floor and Above","StreetAddress":"1/8 Gatonby Place","LocalityName":"Avonhead","ValuationRollNumber":"21895"},"geometry":{"type":"MultiPolygon","coordinates":[[[[172.556230155357,-43.526294950968996],[172.55623037101196,-43.5262945777171],[172.556231506608,-43.5262926121739],[172.556236635055,-43.526283735979696],[172.556240364176,-43.5262772815083],[172.556242899092,-43.5262728945019],[172.556244793316,-43.52626961617649],[172.55624916313,-43.52626205276379],[172.556253650878,-43.5262542855097],[172.556255427164,-43.5262512112852],[172.556258278267,-43.5262462765499],[172.556261691197,-43.5262403695464],[172.556262508435,-43.5262389548422],[172.556267954869,-43.5262295280658],[172.556271365988,-43.526223624174],[172.556274218898,-43.5262186863262],[172.556275794763,-43.5262159588397],[172.556286746947,-43.52619700310599],[172.556289081078,-43.5261929630954],[172.55629301096698,-43.5261861616253],[172.556293510206,-43.5261852977617],[172.556299274987,-43.5261753198843],[172.556302367743,-43.526169967091],[172.556305539003,-43.5261644784029],[172.55630679650997,-43.5261623017554],[172.556318066672,-43.5261427951778],[172.556320082804,-43.5261393057474],[172.556324330684,-43.5261319534354],[172.556324511567,-43.5261316404111],[172.556336858697,-43.5261102702094],[172.556338445772,-43.5261075232713],[172.556349387752,-43.5261116142137],[172.55636084913297,-43.52611589949739],[172.55637276758,-43.5261218770528],[172.55638844663898,-43.5261312085397],[172.55639661726798,-43.5261371804802],[172.556411180504,-43.5261502790806],[172.556428797989,-43.5261720572184],[172.55644209456298,-43.5261858438745],[172.556457850726,-43.526198181867],[172.556475771995,-43.52620884497029],[172.556495524756,-43.5262176338396],[172.55650597608098,-43.5262212656786],[172.556521573293,-43.526225403918],[172.55652449536296,-43.5262261793411],[172.556521530238,-43.5262313233975],[172.556450007176,-43.5263553963893],[172.556445467067,-43.5263632722841],[172.556230155357,-43.526294950968996]]]]}}]}