{"type":"FeatureCollection","features":[{"type":"Feature","properties":{"gml_id":"vwRatingUnit.105947","RatingUnitID":105947,"ValuationVisitOrder":"47400","drvRatingUnitLocation":null,"StreetAddressID":86381,"OccupationLevelDescription":"Ground Floor and Above","StreetAddress":"39 Marion Street","LocalityName":"Hoon Hay","ValuationRollNumber":"22952"},"geometry":{"type":"MultiPolygon","coordinates":[[[[172.599085190388,-43.5645634915042],[172.599201166599,-43.5647393729976],[172.598751995604,-43.5648959086701],[172.598685545585,-43.5647951032144],[172.59888535596,-43.5646793019887],[172.599085190388,-43.5645634915042]]]]}}]}