{"type":"FeatureCollection","features":[{"type":"Feature","properties":{"gml_id":"vwRatingUnit.109309","RatingUnitID":109309,"ValuationVisitOrder":"45000","drvRatingUnitLocation":null,"StreetAddressID":49043,"OccupationLevelDescription":"Ground Floor and Above","StreetAddress":"12 Tensing Place","LocalityName":"Upper Riccarton","ValuationRollNumber":"23412"},"geometry":{"type":"MultiPolygon","coordinates":[[[[172.566387871743,-43.5375142089723],[172.566412294346,-43.5376778555831],[172.566439716911,-43.5378615853935],[172.566442385867,-43.5378794801518],[172.566309009855,-43.5378899858551],[172.566285888785,-43.5378912848886],[172.566259397858,-43.5378914821177],[172.566232953778,-43.5378903113867],[172.566206680206,-43.5378877821622],[172.566180737917,-43.537883904051],[172.566155225762,-43.5378786954275],[172.566130292016,-43.5378721838534],[172.56611704652497,-43.5378679395358],[172.566335878422,-43.537518306545],[172.566387871743,-43.5375142089723]]]]}}]}