{"type":"FeatureCollection","features":[{"type":"Feature","properties":{"gml_id":"vwRatingUnit.116151","RatingUnitID":116151,"ValuationVisitOrder":"27600","drvRatingUnitLocation":null,"StreetAddressID":123032,"OccupationLevelDescription":"Ground Floor and Above","StreetAddress":"8 Oakley Crescent","LocalityName":"Hornby","ValuationRollNumber":"23435"},"geometry":{"type":"MultiPolygon","coordinates":[[[[172.537024510586,-43.5546259874129],[172.537033200084,-43.554651863819295],[172.537038889948,-43.5546718326039],[172.537047952853,-43.5547121028958],[172.537051301551,-43.5547323503002],[172.53705563371,-43.5547730336242],[172.537056617578,-43.5547934155403],[172.537056809202,-43.5548138212757],[172.537055330938,-43.5548471545473],[172.536614554019,-43.5547990012334],[172.53661350052,-43.5546917066511],[172.537024510586,-43.5546259874129]]]]}}]}