{"type":"FeatureCollection","features":[{"type":"Feature","properties":{"gml_id":"vwRatingUnit.109342","RatingUnitID":109342,"ValuationVisitOrder":"49100","drvRatingUnitLocation":null,"StreetAddressID":81850,"OccupationLevelDescription":"Ground Floor and Above","StreetAddress":"35 Main South Road","LocalityName":"Upper Riccarton","ValuationRollNumber":"23412"},"geometry":{"type":"MultiPolygon","coordinates":[[[[172.567214048143,-43.5328552927123],[172.566938095368,-43.5325758218103],[172.566953170184,-43.5325679487606],[172.566938737647,-43.5325533220467],[172.567027075637,-43.5325071648834],[172.567114389093,-43.53248506313089],[172.567123484091,-43.5324830361374],[172.567138481302,-43.5324808603238],[172.567153728722,-43.53248003558],[172.567169003543,-43.5324805790698],[172.56718407077997,-43.5324824809086],[172.567198695576,-43.5324857132107],[172.567212667942,-43.5324902301825],[172.567225778083,-43.5324959590281],[172.567237816329,-43.5325028089509],[172.56724862249598,-43.5325106893403],[172.567258011975,-43.5325194644893],[172.567265849514,-43.5325290168785],[172.567272012489,-43.5325391930325],[172.567276415323,-43.5325498486157],[172.56727899737297,-43.5325608123838],[172.567314977759,-43.5328025490325],[172.567214048143,-43.5328552927123]]]]}}]}