{"type":"FeatureCollection","features":[{"type":"Feature","properties":{"gml_id":"vwRatingUnit.102746","RatingUnitID":102746,"ValuationVisitOrder":"71400","drvRatingUnitLocation":null,"StreetAddressID":15810,"OccupationLevelDescription":"Ground Floor and Above","StreetAddress":"176 Moncks Spur Road","LocalityName":"Moncks Spur","ValuationRollNumber":"22902"},"geometry":{"type":"MultiPolygon","coordinates":[[[[172.726081453765,-43.5708172833665],[172.726578949994,-43.5711484744532],[172.72655633679,-43.571501709187],[172.725829103111,-43.5710175854971],[172.726081453765,-43.5708172833665]]]]}}]}