{"type":"FeatureCollection","features":[{"type":"Feature","properties":{"gml_id":"vwRatingUnit.112291","RatingUnitID":112291,"ValuationVisitOrder":"32800","drvRatingUnitLocation":null,"StreetAddressID":50862,"OccupationLevelDescription":"Ground Floor and Above","StreetAddress":"128 Gilberthorpes Road","LocalityName":"Hei Hei","ValuationRollNumber":"23421"},"geometry":{"type":"MultiPolygon","coordinates":[[[[172.52153120864497,-43.5304639893957],[172.522010975354,-43.5306102683657],[172.52194855458197,-43.530718641612],[172.52192789817596,-43.5307544966163],[172.521448130522,-43.530608217313],[172.52153120864497,-43.5304639893957]]]]}}]}