{"type":"FeatureCollection","features":[{"type":"Feature","properties":{"gml_id":"vwRatingUnit.102313","RatingUnitID":102313,"ValuationVisitOrder":"18800","drvRatingUnitLocation":null,"StreetAddressID":132518,"OccupationLevelDescription":"Ground Floor and Above","StreetAddress":"9A Aratoro Place","LocalityName":"McCormacks Bay","ValuationRollNumber":"22902"},"geometry":{"type":"MultiPolygon","coordinates":[[[[172.72157644156,-43.5582150509856],[172.72156980070096,-43.5582122358857],[172.721566068551,-43.5582106539188],[172.721540496752,-43.5581998133194],[172.721534038348,-43.5581970757204],[172.72152584460198,-43.5581936022929],[172.721523361617,-43.55819254965229],[172.721496540671,-43.5581811797152],[172.721491331789,-43.5581789717026],[172.721481888531,-43.5581749684231],[172.721480655064,-43.5581744456304],[172.721452584616,-43.5581625460939],[172.721448624899,-43.5581608674079],[172.721409854207,-43.5581444318512],[172.721536646766,-43.5579855689445],[172.72153720354297,-43.5579848711333],[172.72153880215,-43.55798557414299],[172.721679921224,-43.558047621149],[172.72157644156,-43.5582150509856]]]]}}]}