{"type":"FeatureCollection","features":[{"type":"Feature","properties":{"gml_id":"vwRatingUnit.107414","RatingUnitID":107414,"ValuationVisitOrder":"51600","drvRatingUnitLocation":null,"StreetAddressID":99712,"OccupationLevelDescription":"Ground Floor and Above","StreetAddress":"5 Callan Place","LocalityName":"Hoon Hay","ValuationRollNumber":"22970"},"geometry":{"type":"MultiPolygon","coordinates":[[[[172.588256058107,-43.5669584469486],[172.588279065481,-43.5671204525163],[172.58844405008898,-43.5672682936583],[172.588121719491,-43.5674584446537],[172.587979165358,-43.56733069185919],[172.58794345931,-43.56729868363409],[172.588234433342,-43.5671271427184],[172.588211089234,-43.5669618596665],[172.58821537083,-43.5669620549712],[172.588232914802,-43.5669614875678],[172.588250282275,-43.5669595604188],[172.588256058107,-43.5669584469486]]]]}}]}