{"type":"FeatureCollection","features":[{"type":"Feature","properties":{"gml_id":"vwRatingUnit.101168","RatingUnitID":101168,"ValuationVisitOrder":"54602","drvRatingUnitLocation":null,"StreetAddressID":132437,"OccupationLevelDescription":"Ground Floor and Above","StreetAddress":"9A Balmoral Lane","LocalityName":"Redcliffs","ValuationRollNumber":"22900"},"geometry":{"type":"MultiPolygon","coordinates":[[[[172.730292487885,-43.55764622742169],[172.730667680356,-43.5580032368744],[172.730637040366,-43.5580360893958],[172.730448603265,-43.55784748420789],[172.730217748549,-43.5579934379329],[172.729883219,-43.5576969338053],[172.729885518485,-43.5576946980484],[172.73001651422,-43.5578108054843],[172.730292487885,-43.55764622742169]]]]}}]}