{"type":"FeatureCollection","features":[{"type":"Feature","properties":{"gml_id":"vwRatingUnit.109271","RatingUnitID":109271,"ValuationVisitOrder":"41200","drvRatingUnitLocation":null,"StreetAddressID":13996,"OccupationLevelDescription":"Ground Floor and Above","StreetAddress":"18 Vicki Street","LocalityName":"Upper Riccarton","ValuationRollNumber":"23412"},"geometry":{"type":"MultiPolygon","coordinates":[[[[172.567334190259,-43.5362951284077],[172.567356322075,-43.5364436357935],[172.566862060309,-43.5364825961281],[172.566839929681,-43.5363340886396],[172.567334190259,-43.5362951284077]]]]}}]}