{"type":"FeatureCollection","features":[{"type":"Feature","properties":{"gml_id":"vwRatingUnit.101541","RatingUnitID":101541,"ValuationVisitOrder":"27500","drvRatingUnitLocation":null,"StreetAddressID":67223,"OccupationLevelDescription":"Ground Floor and Above","StreetAddress":"272 Cannon Hill Crescent","LocalityName":"St Andrews Hill","ValuationRollNumber":"22901"},"geometry":{"type":"MultiPolygon","coordinates":[[[[172.71479685191798,-43.5626811749479],[172.715245798367,-43.562718303023],[172.71522245418896,-43.562867060653495],[172.714773506656,-43.562829932497294],[172.71479685191798,-43.5626811749479]]]]}}]}