{"type":"FeatureCollection","features":[{"type":"Feature","properties":{"gml_id":"vwRatingUnit.101310","RatingUnitID":101310,"ValuationVisitOrder":"900","drvRatingUnitLocation":null,"StreetAddressID":5998,"OccupationLevelDescription":"Ground Floor and Above","StreetAddress":"2/20A Main Road","LocalityName":"St Andrews Hill","ValuationRollNumber":"22901"},"geometry":{"type":"MultiPolygon","coordinates":[[[[172.711845467048,-43.55799262999739],[172.711924420441,-43.5579394826344],[172.711926480897,-43.5579380957034],[172.71192825838898,-43.5579394922113],[172.712086876745,-43.5580641168552],[172.712137617062,-43.5581039808673],[172.712195976309,-43.5581498261612],[172.71219977594,-43.558152811071196],[172.712195955096,-43.5581543253923],[172.71201568058498,-43.5582257695154],[172.711936365784,-43.5582170423799],[172.711845467048,-43.55799262999739]]]]}}]}