{"type":"FeatureCollection","features":[{"type":"Feature","properties":{"gml_id":"vwRatingUnit.117443","RatingUnitID":117443,"ValuationVisitOrder":"25500","drvRatingUnitLocation":null,"StreetAddressID":21649,"OccupationLevelDescription":"Ground Floor and Above","StreetAddress":"15 Brenda Place","LocalityName":"Oaklands","ValuationRollNumber":"23443"},"geometry":{"type":"MultiPolygon","coordinates":[[[[172.564589104926,-43.5727070094366],[172.564808478153,-43.572780644641],[172.564651335049,-43.5730282208776],[172.564648176864,-43.5730266788257],[172.564632361678,-43.57302063361579],[172.564615757734,-43.5730158275327],[172.564598562714,-43.5730123153269],[172.564580949672,-43.5730101336547],[172.564563116481,-43.5730093102652],[172.564545261147,-43.5730098549066],[172.5645275818,-43.5730117593263],[172.564510289017,-43.573015006317796],[172.564500973841,-43.5730175363653],[172.56442453696596,-43.5729662133473],[172.564589104926,-43.5727070094366]]]]}}]}