{"type":"FeatureCollection","features":[{"type":"Feature","properties":{"gml_id":"vwRatingUnit.101882","RatingUnitID":101882,"ValuationVisitOrder":"69200","drvRatingUnitLocation":null,"StreetAddressID":28846,"OccupationLevelDescription":"Ground Floor and Above","StreetAddress":"1 Valley View","LocalityName":"St Andrews Hill","ValuationRollNumber":"22901"},"geometry":{"type":"MultiPolygon","coordinates":[[[[172.711868938661,-43.5643561654167],[172.711864538469,-43.5643627158451],[172.711597974805,-43.5644440455925],[172.71133115281,-43.5644987054321],[172.711394936317,-43.5646632960069],[172.711096884976,-43.5648250829032],[172.710910855048,-43.5647505608407],[172.71097333371998,-43.564602298019395],[172.711034449858,-43.5645431012696],[172.711868938661,-43.5643561654167]]]]}}]}