{"type":"FeatureCollection","features":[{"type":"Feature","properties":{"gml_id":"vwRatingUnit.111682","RatingUnitID":111682,"ValuationVisitOrder":"77300","drvRatingUnitLocation":null,"StreetAddressID":114842,"OccupationLevelDescription":"Ground Floor and Above","StreetAddress":"68 Buchanans Road","LocalityName":"Riccarton Park","ValuationRollNumber":"23415"},"geometry":{"type":"MultiPolygon","coordinates":[[[[172.53851139177,-43.532930035396994],[172.538539966053,-43.53293873684],[172.538688972044,-43.5329841227236],[172.538502468453,-43.5333080652475],[172.538324912339,-43.5332539507412],[172.53851139177,-43.532930035396994]]]]}}]}