{"type":"FeatureCollection","features":[{"type":"Feature","properties":{"gml_id":"vwRatingUnit.109400","RatingUnitID":109400,"ValuationVisitOrder":"56700","drvRatingUnitLocation":null,"StreetAddressID":14656,"OccupationLevelDescription":"Ground Floor and Above","StreetAddress":"183 Main South Road","LocalityName":"Sockburn","ValuationRollNumber":"23412"},"geometry":{"type":"MultiPolygon","coordinates":[[[[172.552153981812,-43.5402205319324],[172.55259227744497,-43.5406648179702],[172.552406401864,-43.5407618540917],[172.552309584847,-43.5407362212412],[172.55192090792497,-43.54034226211319],[172.552153981812,-43.5402205319324]]]]}}]}