{"type":"FeatureCollection","features":[{"type":"Feature","properties":{"gml_id":"vwRatingUnit.113216","RatingUnitID":113216,"ValuationVisitOrder":"16600","drvRatingUnitLocation":null,"StreetAddressID":3283,"OccupationLevelDescription":"Ground Floor and Above","StreetAddress":"2/46A Mortlake Street","LocalityName":"Islington","ValuationRollNumber":"23431"},"geometry":{"type":"MultiPolygon","coordinates":[[[[172.506205602533,-43.5365816919113],[172.50639246283797,-43.53651906444029],[172.506400565679,-43.5365163487081],[172.506402316152,-43.5365191066909],[172.506504258313,-43.536679724337],[172.506507509157,-43.5366848462272],[172.50650420789998,-43.5366859525912],[172.50632197853,-43.5367470299793],[172.506237296286,-43.5366066827972],[172.505967559185,-43.5366955567437],[172.50594975487996,-43.536667440284695],[172.506205602533,-43.5365816919113]]]]}}]}