{"type":"FeatureCollection","features":[{"type":"Feature","properties":{"gml_id":"vwRatingUnit.114077","RatingUnitID":114077,"ValuationVisitOrder":"52500","drvRatingUnitLocation":null,"StreetAddressID":102524,"OccupationLevelDescription":"Ground Floor and Above","StreetAddress":"50 Shands Road","LocalityName":"Hornby","ValuationRollNumber":"23432"},"geometry":{"type":"MultiPolygon","coordinates":[[[[172.521490345631,-43.5465875733032],[172.521650824568,-43.5467174480782],[172.521878540701,-43.5469017512595],[172.52177439562,-43.5469698428254],[172.52176550879497,-43.5469748284346],[172.521755081496,-43.5469790065651],[172.521743896678,-43.5469819484239],[172.521732202526,-43.54698356503229],[172.521720308675,-43.5469838216722],[172.521708499729,-43.5469827195254],[172.521697084898,-43.5469802778781],[172.521686335918,-43.5469765608651],[172.521676524311,-43.5469716596235],[172.521667933481,-43.5469657283461],[172.521330104415,-43.54669232614249],[172.521490345631,-43.5465875733032]]]]}}]}