{"type":"FeatureCollection","features":[{"type":"Feature","properties":{"gml_id":"vwRatingUnit.107814","RatingUnitID":107814,"ValuationVisitOrder":"15500","drvRatingUnitLocation":null,"StreetAddressID":89943,"OccupationLevelDescription":"Ground Floor and Above","StreetAddress":"4/44 Hoon Hay Road","LocalityName":"Hoon Hay","ValuationRollNumber":"22980"},"geometry":{"type":"MultiPolygon","coordinates":[[[[172.597697474772,-43.5565695045028],[172.597833718971,-43.5566434629593],[172.597683534568,-43.5567952407509],[172.597486850091,-43.5566901181054],[172.597697474772,-43.5565695045028]]]]}}]}