{"type":"FeatureCollection","features":[{"type":"Feature","properties":{"gml_id":"vwRatingUnit.102243","RatingUnitID":102243,"ValuationVisitOrder":"10000","drvRatingUnitLocation":null,"StreetAddressID":30029,"OccupationLevelDescription":"Ground Floor and Above","StreetAddress":"1/110 Soleares Avenue","LocalityName":"McCormacks Bay","ValuationRollNumber":"22902"},"geometry":{"type":"MultiPolygon","coordinates":[[[[172.72048887334,-43.5640432382415],[172.720518844949,-43.564017659395],[172.720550223467,-43.5639929925835],[172.720582946574,-43.5639692654654],[172.72058994722298,-43.5639649351775],[172.720600006678,-43.5639602970201],[172.720610926955,-43.5639568762744],[172.720622460034,-43.5639547440751],[172.720634309011,-43.5639539537647],[172.720646188544,-43.5639545314236],[172.72065778986098,-43.5639564677278],[172.720668828035,-43.56395969857089],[172.720679031397,-43.5639641515614],[172.720697271164,-43.5639733491147],[172.72073137232798,-43.5639892636164],[172.720766444649,-43.56400400125239],[172.72080243817098,-43.5640175439675],[172.720813967108,-43.5640213995023],[172.720816996644,-43.5640224126696],[172.72081394066296,-43.5640271831739],[172.720773349247,-43.5640905460368],[172.720751426649,-43.5641247671278],[172.72048887334,-43.5640432382415]]]]}}]}