{"type":"FeatureCollection","features":[{"type":"Feature","properties":{"gml_id":"vwRatingUnit.108908","RatingUnitID":108908,"ValuationVisitOrder":"55600","drvRatingUnitLocation":null,"StreetAddressID":67004,"OccupationLevelDescription":"Ground Floor and Above","StreetAddress":"27 Symes Road","LocalityName":"Sockburn","ValuationRollNumber":"23411"},"geometry":{"type":"MultiPolygon","coordinates":[[[[172.550911686213,-43.5430917009003],[172.550911607361,-43.543102408081],[172.550917793979,-43.5431024322072],[172.550917694554,-43.54311593312859],[172.550923881173,-43.5431159572546],[172.550923814891,-43.5431249578688],[172.550930001511,-43.5431249819943],[172.550929902089,-43.5431384829156],[172.550936088711,-43.5431385070409],[172.550936055571,-43.543143007347894],[172.550942242193,-43.5431430314728],[172.55094217591298,-43.543152032087],[172.550948362536,-43.5431520562115],[172.55094826311796,-43.5431655571327],[172.55095444974197,-43.5431655812569],[172.550954383464,-43.543174581871],[172.55096057009,-43.5431746059949],[172.550960536951,-43.54317910630189],[172.550966723577,-43.5431791304255],[172.550966624163,-43.5431926313466],[172.55097281079,-43.5431926554698],[172.55097274451498,-43.5432016560838],[172.550978931143,-43.5432016802066],[172.550978831732,-43.5432151811276],[172.55098501836096,-43.5432152052501],[172.550984952088,-43.5432242058641],[172.550991138718,-43.5432242299863],[172.550991072446,-43.5432332306002],[172.550997259077,-43.5432332547221],[172.55099715966998,-43.54324675564289],[172.55100334630296,-43.543246779764395],[172.551003313167,-43.5432512800713],[172.55100949980098,-43.5432513041925],[172.551009466666,-43.5432558044995],[172.55102183993296,-43.5432558527408],[172.551021773665,-43.5432648533546],[172.551027858859,-43.5432648770793],[172.550829871463,-43.543279926514295],[172.550829987996,-43.5432641054637],[172.550823801362,-43.543264081332794],[172.550823900808,-43.543250580412],[172.550817714174,-43.543250556280796],[172.550817780472,-43.5432415556668],[172.55081159383997,-43.5432415315353],[172.550812024783,-43.5431830275439],[172.550805838157,-43.543183003412096],[172.55080626910598,-43.54312449941969],[172.550800082485,-43.5431244752875],[172.550800148786,-43.5431154746732],[172.550793962167,-43.5431154505406],[172.550794071316,-43.5431006332143],[172.550911686213,-43.5430917009003]]]]}}]}