{"type":"FeatureCollection","features":[{"type":"Feature","properties":{"gml_id":"vwRatingUnit.108784","RatingUnitID":108784,"ValuationVisitOrder":"37889","drvRatingUnitLocation":null,"StreetAddressID":127309,"OccupationLevelDescription":"Ground Floor and Above","StreetAddress":"8E Dakota Crescent","LocalityName":"Sockburn","ValuationRollNumber":"23411"},"geometry":{"type":"MultiPolygon","coordinates":[[[[172.556919475507,-43.5425830015131],[172.55695408554,-43.5425640708465],[172.556979372489,-43.5425885244689],[172.556944762386,-43.5426074641436],[172.556919475507,-43.5425830015131]]]]}}]}