{"type":"FeatureCollection","features":[{"type":"Feature","properties":{"gml_id":"vwRatingUnit.105566","RatingUnitID":105566,"ValuationVisitOrder":"10300","drvRatingUnitLocation":null,"StreetAddressID":69185,"OccupationLevelDescription":"Ground Floor and Above","StreetAddress":"29 Cedars Street","LocalityName":"Hoon Hay","ValuationRollNumber":"22952"},"geometry":{"type":"MultiPolygon","coordinates":[[[[172.598345509351,-43.560405626417996],[172.598604768536,-43.560637317568194],[172.59845171091,-43.56072802506879],[172.598192502309,-43.5604961987428],[172.598345509351,-43.560405626417996]]]]}}]}