{"type":"FeatureCollection","features":[{"type":"Feature","properties":{"gml_id":"vwRatingUnit.114351","RatingUnitID":114351,"ValuationVisitOrder":"14101","drvRatingUnitLocation":null,"StreetAddressID":97923,"OccupationLevelDescription":"Ground Floor and Above","StreetAddress":"48 Brynley Street","LocalityName":"Hornby","ValuationRollNumber":"23433"},"geometry":{"type":"MultiPolygon","coordinates":[[[[172.530785029947,-43.5464460943651],[172.530901602764,-43.5465401155704],[172.530607577219,-43.5467328960034],[172.530491103125,-43.5466389199113],[172.530785029947,-43.5464460943651]]]]}}]}