{"type":"FeatureCollection","features":[{"type":"Feature","properties":{"gml_id":"vwRatingUnit.116079","RatingUnitID":116079,"ValuationVisitOrder":"22100","drvRatingUnitLocation":null,"StreetAddressID":1834,"OccupationLevelDescription":"Ground Floor and Above","StreetAddress":"2/35 Oakley Crescent","LocalityName":"Hornby","ValuationRollNumber":"23435"},"geometry":{"type":"MultiPolygon","coordinates":[[[[172.53308000125196,-43.5553949300982],[172.533182065864,-43.55554909939159],[172.533177742222,-43.55555054573039],[172.533173097182,-43.5555520994125],[172.533165334544,-43.5555546965084],[172.533159805212,-43.5555565460323],[172.533152926507,-43.5555588472836],[172.533146513239,-43.5555609926505],[172.533140518468,-43.5555629980575],[172.533133220907,-43.5555654392657],[172.53312811078496,-43.5555671488315],[172.53311992893,-43.5555698858809],[172.53311570274298,-43.5555712996028],[172.53310663695197,-43.5555743324945],[172.533097090676,-43.555577525887],[172.533093344614,-43.55557877910519],[172.533084682987,-43.5555816766564],[172.53308005263298,-43.5555832254559],[172.533072274939,-43.555585827423],[172.533066760292,-43.5555876720635],[172.53305986689,-43.5555899781882],[172.53305346830498,-43.555592118671],[172.533047458838,-43.555594128952194],[172.533040176317,-43.555596565277],[172.533035051143,-43.5555982797162],[172.533026883969,-43.5556010118801],[172.533016439059,-43.5556045059875],[172.53301359197698,-43.555605458482994],[172.533004031001,-43.5556086567468],[172.533000299983,-43.5556099050844],[172.5329916233,-43.5556128075062],[172.532987007631,-43.555614351422996],[172.532979215239,-43.5556169582628],[172.532973715633,-43.55561879802139],[172.532966807177,-43.55562110901809],[172.532960423276,-43.5556232446168],[172.53295439947,-43.5556252597734],[172.532947131274,-43.5556276912121],[172.532935787369,-43.5556314860318],[172.53293383926996,-43.5556321378059],[172.532929583334,-43.5556335615373],[172.532928811548,-43.5556338196259],[172.532924521594,-43.55562759956269],[172.532923452726,-43.5556260500198],[172.532921409019,-43.5556230864723],[172.532917332553,-43.5556171763162],[172.53291518387,-43.5556140602912],[172.532911212739,-43.5556083026137],[172.532908958365,-43.5556050343682],[172.53290509257,-43.5555994289093],[172.53290273322,-43.5555960081864],[172.532898972402,-43.5555905552046],[172.532896508077,-43.5555869820042],[172.532892852236,-43.5555816814996],[172.532890282934,-43.55557795608159],[172.532886732072,-43.5555728077941],[172.532884057438,-43.5555689298972],[172.532880611909,-43.5555639340883],[172.532877832301,-43.55555990371389],[172.532874491749,-43.5555550603822],[172.53287160716596,-43.5555508775302],[172.532868371947,-43.5555461866771],[172.532865381673,-43.5555418516046],[172.53286225179,-43.5555373129703],[172.532859156541,-43.5555328254201],[172.532856131635,-43.555528439263],[172.532852931411,-43.5555237992353],[172.532850011482,-43.55551956555549],[172.532846706282,-43.55551477331],[172.532843891328,-43.5555106921074],[172.532843593361,-43.5555102602159],[172.53284003331999,-43.555505098114],[172.532842966668,-43.5554967562551],[172.532843677267,-43.5554947348979],[172.532844018346,-43.555494110919],[172.532845027811,-43.55549226413849],[172.532849112059,-43.555484792991095],[172.532850289663,-43.5554832507359],[172.53285368926697,-43.5554787980948],[172.532856250615,-43.5554754430661],[172.532856539786,-43.5554751570295],[172.532861923852,-43.5554698305333],[172.53286277516096,-43.5554689884727],[172.532864967535,-43.5554668195114],[172.532866896875,-43.5554653502216],[172.532869003438,-43.555463746233194],[172.532872775484,-43.55546087358109],[172.53287512577498,-43.5554590839598],[172.532875227374,-43.5554590240708],[172.532879679039,-43.5554564010955],[172.532881443549,-43.555455361560696],[172.532886550755,-43.5554523526659],[172.532887486748,-43.5554519325348],[172.532887658527,-43.5554518552559],[172.532897421904,-43.555447472338194],[172.532899069037,-43.5554467327921],[172.532900076548,-43.5554464005431],[172.532910315041,-43.5554430241319],[172.532912469081,-43.5554423136719],[172.532912484122,-43.5554423095742],[172.532925649397,-43.5554385858201],[172.532931088425,-43.5554370475826],[172.532941336836,-43.5554341489375],[172.53294349152998,-43.5554335395875],[172.532957023915,-43.5554297120513],[172.532962095827,-43.555428277591],[172.532972710991,-43.555425275163],[172.532974498928,-43.5554247695925],[172.532988398064,-43.5554208385325],[172.532993103577,-43.5554195075924],[172.533004085493,-43.5554164016414],[172.533005506318,-43.5554159995893],[172.533019772563,-43.5554119647467],[172.533024110961,-43.5554107375842],[172.53303545963098,-43.5554075278499],[172.533036514055,-43.555407229579096],[172.533051146696,-43.55540309095089],[172.53305511833597,-43.55540196756759],[172.533066834116,-43.5553986540514],[172.53306752142697,-43.5553984595592],[172.533079924514,-43.55539495180939],[172.53308000125196,-43.5553949300982]]]]}}]}