{"type":"FeatureCollection","features":[{"type":"Feature","properties":{"gml_id":"vwRatingUnit.113228","RatingUnitID":113228,"ValuationVisitOrder":"17800","drvRatingUnitLocation":null,"StreetAddressID":113133,"OccupationLevelDescription":"Ground Floor and Above","StreetAddress":"64 Moffett Street","LocalityName":"Islington","ValuationRollNumber":"23431"},"geometry":{"type":"MultiPolygon","coordinates":[[[[172.508389083527,-43.5379835359407],[172.508618826359,-43.5380532031141],[172.508379424313,-43.5384710136414],[172.508149680167,-43.538401346007895],[172.508389083527,-43.5379835359407]]]]}}]}