{"type":"FeatureCollection","features":[{"type":"Feature","properties":{"gml_id":"vwRatingUnit.114756","RatingUnitID":114756,"ValuationVisitOrder":"56700","drvRatingUnitLocation":null,"StreetAddressID":71111,"OccupationLevelDescription":"Ground Floor and Above","StreetAddress":"3 Fairmont Place","LocalityName":"Hornby","ValuationRollNumber":"23433"},"geometry":{"type":"MultiPolygon","coordinates":[[[[172.52977219552497,-43.554368724211194],[172.529836941262,-43.5544014906193],[172.529898677168,-43.5544297712716],[172.529941901571,-43.5544480483972],[172.529921439229,-43.55447437349609],[172.529847602092,-43.55456937354],[172.529753289794,-43.5546907075544],[172.52973326480796,-43.5547164673495],[172.529513829654,-43.5546197481282],[172.52977219552497,-43.554368724211194]]]]}}]}