{"type":"FeatureCollection","features":[{"type":"Feature","properties":{"gml_id":"vwRatingUnit.113610","RatingUnitID":113610,"ValuationVisitOrder":"1000","drvRatingUnitLocation":null,"StreetAddressID":26262,"OccupationLevelDescription":"Ground Floor and Above","StreetAddress":"14 Smarts Road","LocalityName":"Hornby","ValuationRollNumber":"23432"},"geometry":{"type":"MultiPolygon","coordinates":[[[[172.526610976256,-43.5398347810974],[172.526615107745,-43.5398715758567],[172.526630384044,-43.5399916659735],[172.526636098019,-43.5400365950696],[172.526080271285,-43.5400739756022],[172.526053604073,-43.5398722451368],[172.526610976256,-43.5398347810974]]]]}}]}