{"type":"FeatureCollection","features":[{"type":"Feature","properties":{"gml_id":"vwRatingUnit.100753","RatingUnitID":100753,"ValuationVisitOrder":"36200","drvRatingUnitLocation":null,"StreetAddressID":60076,"OccupationLevelDescription":"Ground Floor and Above","StreetAddress":"23 Taupata Street","LocalityName":"Redcliffs","ValuationRollNumber":"22900"},"geometry":{"type":"MultiPolygon","coordinates":[[[[172.735717217223,-43.5618493842194],[172.735774269618,-43.56189358133629],[172.73583077934097,-43.5619373541576],[172.73537700714198,-43.5622471396326],[172.735263445129,-43.5621591602544],[172.735717217223,-43.5618493842194]]]]}}]}