{"type":"FeatureCollection","features":[{"type":"Feature","properties":{"gml_id":"vwRatingUnit.106083","RatingUnitID":106083,"ValuationVisitOrder":"61600","drvRatingUnitLocation":null,"StreetAddressID":104683,"OccupationLevelDescription":"Ground Floor and Above","StreetAddress":"53 Victors Road","LocalityName":"Hoon Hay","ValuationRollNumber":"22952"},"geometry":{"type":"MultiPolygon","coordinates":[[[[172.595535613142,-43.5638452385324],[172.595661350522,-43.56396221215379],[172.595170901782,-43.56424099024779],[172.595045164755,-43.564124016097196],[172.595535613142,-43.5638452385324]]]]}}]}