{"type":"FeatureCollection","features":[{"type":"Feature","properties":{"gml_id":"vwRatingUnit.114545","RatingUnitID":114545,"ValuationVisitOrder":"34200","drvRatingUnitLocation":null,"StreetAddressID":39543,"OccupationLevelDescription":"Ground Floor and Above","StreetAddress":"1/98 Amyes Road","LocalityName":"Hornby","ValuationRollNumber":"23433"},"geometry":{"type":"MultiPolygon","coordinates":[[[[172.53247375523,-43.5513129678288],[172.53259388356196,-43.5514098476511],[172.532597479262,-43.5514127473289],[172.532593843054,-43.5514151326576],[172.532329539412,-43.5515885163735],[172.532299921688,-43.5516079456399],[172.53217642761996,-43.5515069795292],[172.53247375523,-43.5513129678288]]]]}}]}