{"type":"FeatureCollection","features":[{"type":"Feature","properties":{"gml_id":"vwRatingUnit.110791","RatingUnitID":110791,"ValuationVisitOrder":"44600","drvRatingUnitLocation":null,"StreetAddressID":30515,"OccupationLevelDescription":"Ground Floor and Above","StreetAddress":"1/126A Middlepark Road","LocalityName":"Upper Riccarton","ValuationRollNumber":"23414"},"geometry":{"type":"MultiPolygon","coordinates":[[[[172.552165890872,-43.5355497288312],[172.55216992135,-43.5355476253238],[172.552361840939,-43.5354474622261],[172.55236376110096,-43.5354464599111],[172.55236476043598,-43.5354474735789],[172.552491865394,-43.5355763875821],[172.55249565494498,-43.5355802309073],[172.55249182251,-43.5355822308938],[172.55229508045696,-43.53568490523429],[172.55229348773,-43.5356857362361],[172.552551006884,-43.5359469188521],[172.552569250476,-43.5359654218506],[172.552548726048,-43.5359761305095],[172.55224161899798,-43.5356584046865],[172.552259014294,-43.5356493353381],[172.552165890872,-43.5355497288312]]]]}}]}