{"type":"FeatureCollection","features":[{"type":"Feature","properties":{"gml_id":"vwRatingUnit.105505","RatingUnitID":105505,"ValuationVisitOrder":"4900","drvRatingUnitLocation":null,"StreetAddressID":28238,"OccupationLevelDescription":"Ground Floor and Above","StreetAddress":"1 Bencard Place","LocalityName":"Hoon Hay","ValuationRollNumber":"22952"},"geometry":{"type":"MultiPolygon","coordinates":[[[[172.60105804869,-43.5586726257553],[172.601165421137,-43.55881572190399],[172.601237988234,-43.5588550720426],[172.6011668465,-43.5589138529556],[172.601104803009,-43.5589667247986],[172.60089797972,-43.558782646161895],[172.60105804869,-43.5586726257553]]]]}}]}