{"type":"FeatureCollection","features":[{"type":"Feature","properties":{"gml_id":"vwRatingUnit.117481","RatingUnitID":117481,"ValuationVisitOrder":"29800","drvRatingUnitLocation":null,"StreetAddressID":77000,"OccupationLevelDescription":"Ground Floor and Above","StreetAddress":"31 Rosamund Place","LocalityName":"Oaklands","ValuationRollNumber":"23443"},"geometry":{"type":"MultiPolygon","coordinates":[[[[172.565348591982,-43.5730319666954],[172.56535843721298,-43.5730436507934],[172.56536938196,-43.5730539169122],[172.565381769124,-43.57306328838809],[172.565395426165,-43.5730716565614],[172.565410229865,-43.5730789399604],[172.565425995176,-43.5730850478797],[172.56544256161496,-43.5730899167089],[172.565459731432,-43.5730935006989],[172.565477331701,-43.5730957451932],[172.565488630309,-43.5730963098033],[172.565323286676,-43.57335705114609],[172.565016434799,-43.5732540416036],[172.56509369707396,-43.5731323995239],[172.565348591982,-43.5730319666954]]]]}}]}