{"type":"FeatureCollection","features":[{"type":"Feature","properties":{"gml_id":"vwRatingUnit.114062","RatingUnitID":114062,"ValuationVisitOrder":"50700","drvRatingUnitLocation":null,"StreetAddressID":63887,"OccupationLevelDescription":"Ground Floor and Above","StreetAddress":"25 Seymour Street","LocalityName":"Hornby","ValuationRollNumber":"23432"},"geometry":{"type":"MultiPolygon","coordinates":[[[[172.518754004761,-43.5464508880259],[172.518614812756,-43.54633715574],[172.518789515005,-43.5462240511906],[172.518928694699,-43.5463377832164],[172.518754004761,-43.5464508880259]]]]}}]}