{"type":"FeatureCollection","features":[{"type":"Feature","properties":{"gml_id":"vwRatingUnit.10440","RatingUnitID":10440,"ValuationVisitOrder":"20000","drvRatingUnitLocation":null,"StreetAddressID":87477,"OccupationLevelDescription":"Ground Floor and Above","StreetAddress":"4 Camberwell Place","LocalityName":"Avonhead","ValuationRollNumber":"21895"},"geometry":{"type":"MultiPolygon","coordinates":[[[[172.55098171955,-43.5217104146327],[172.551418705935,-43.52184413606899],[172.55140471501,-43.5218762508206],[172.55139445669698,-43.52189531078199],[172.551336423446,-43.5219956968072],[172.55089488195998,-43.5218606071525],[172.55098171955,-43.5217104146327]]]]}}]}