{"type":"FeatureCollection","features":[{"type":"Feature","properties":{"gml_id":"vwRatingUnit.114942","RatingUnitID":114942,"ValuationVisitOrder":"77600","drvRatingUnitLocation":null,"StreetAddressID":69277,"OccupationLevelDescription":"Ground Floor and Above","StreetAddress":"29 Dunstan Crescent","LocalityName":"Hornby","ValuationRollNumber":"23433"},"geometry":{"type":"MultiPolygon","coordinates":[[[[172.528179111193,-43.5515463107684],[172.528181903645,-43.5515500755769],[172.528268997142,-43.5516674078227],[172.527830876077,-43.5518394381396],[172.527740990808,-43.5517183317435],[172.528179111193,-43.5515463107684]]]]}}]}