{"type":"FeatureCollection","features":[{"type":"Feature","properties":{"gml_id":"vwRatingUnit.105952","RatingUnitID":105952,"ValuationVisitOrder":"48100","drvRatingUnitLocation":null,"StreetAddressID":108110,"OccupationLevelDescription":"Ground Floor and Above","StreetAddress":"59 Samuel Street","LocalityName":"Hoon Hay","ValuationRollNumber":"22952"},"geometry":{"type":"MultiPolygon","coordinates":[[[[172.598219845101,-43.56471529201819],[172.598193551945,-43.5648434788639],[172.59850410660897,-43.5651323501085],[172.59820701232,-43.5653012400838],[172.598081254906,-43.5651842693082],[172.597955497978,-43.5650672983874],[172.598112504982,-43.5649782254223],[172.598159246794,-43.5647504177281],[172.598219845101,-43.56471529201819]]]]}}]}