{"type":"FeatureCollection","features":[{"type":"Feature","properties":{"gml_id":"vwRatingUnit.104169","RatingUnitID":104169,"ValuationVisitOrder":"41300","drvRatingUnitLocation":null,"StreetAddressID":77070,"OccupationLevelDescription":"Ground Floor and Above","StreetAddress":"31 Stoke Street","LocalityName":"Sumner","ValuationRollNumber":"22920"},"geometry":{"type":"MultiPolygon","coordinates":[[[[172.759694138623,-43.571723291753],[172.759921863032,-43.5718585018053],[172.7598647321,-43.57190937979],[172.759813178769,-43.5719552920769],[172.759585454233,-43.5718200818149],[172.759694138623,-43.571723291753]]]]}}]}