{"type":"FeatureCollection","features":[{"type":"Feature","properties":{"gml_id":"vwRatingUnit.114439","RatingUnitID":114439,"ValuationVisitOrder":"22900","drvRatingUnitLocation":null,"StreetAddressID":30642,"OccupationLevelDescription":"Ground Floor and Above","StreetAddress":"1/130 Springs Road","LocalityName":"Hornby","ValuationRollNumber":"23433"},"geometry":{"type":"MultiPolygon","coordinates":[[[[172.53426953193198,-43.5514901204046],[172.534300871343,-43.55151538820749],[172.534398226677,-43.5515938823493],[172.53439926805297,-43.551594721934],[172.53446213706698,-43.5516454104608],[172.534473066201,-43.551654222173],[172.53452604720496,-43.5516969387937],[172.534540714243,-43.5517087640138],[172.534542231916,-43.5517099876007],[172.534543301353,-43.551710849910194],[172.534540685123,-43.5517125792295],[172.534409255927,-43.5517994590081],[172.534403310124,-43.5518033893674],[172.53439838062098,-43.5517994150551],[172.534361614122,-43.5517697735814],[172.534158974496,-43.5516063676988],[172.53412961316198,-43.5515826910224],[172.53426953193198,-43.5514901204046]]]]}}]}