{"type":"FeatureCollection","features":[{"type":"Feature","properties":{"gml_id":"vwRatingUnit.108390","RatingUnitID":108390,"ValuationVisitOrder":"60503","drvRatingUnitLocation":null,"StreetAddressID":142624,"OccupationLevelDescription":"Ground Floor and Above","StreetAddress":"3 Fountainhead Lane","LocalityName":"Hillmorton","ValuationRollNumber":"22980"},"geometry":{"type":"MultiPolygon","coordinates":[[[[172.580655533855,-43.5584138078168],[172.580659580795,-43.5584174408552],[172.580240451919,-43.558664750783],[172.580199883292,-43.5592722997581],[172.58003619024896,-43.5593114508921],[172.57983281334398,-43.5593600969774],[172.579671372889,-43.559262668957295],[172.57970319397398,-43.5592015526821],[172.580197582269,-43.5590833109908],[172.580225344853,-43.5586676390189],[172.580655533855,-43.5584138078168]]]]}}]}