{"type":"FeatureCollection","features":[{"type":"Feature","properties":{"gml_id":"vwRatingUnit.101260","RatingUnitID":101260,"ValuationVisitOrder":"55166","drvRatingUnitLocation":null,"StreetAddressID":57682,"OccupationLevelDescription":"Ground Floor and Above","StreetAddress":"22 Glendevere Terrace","LocalityName":"Redcliffs","ValuationRollNumber":"22900"},"geometry":{"type":"MultiPolygon","coordinates":[[[[172.73242368468297,-43.5612587373558],[172.732737285863,-43.5613134847064],[172.73282081463796,-43.5613905245299],[172.732824175715,-43.5614624825703],[172.732793892618,-43.56155789916869],[172.732406988245,-43.5614903184202],[172.732414417571,-43.5614359364059],[172.732419470612,-43.5613843570515],[172.73242264269,-43.561332701333896],[172.732423933691,-43.5612809962546],[172.73242368468297,-43.5612587373558]]]]}}]}