{"type":"FeatureCollection","features":[{"type":"Feature","properties":{"gml_id":"vwRatingUnit.113463","RatingUnitID":113463,"ValuationVisitOrder":"41700","drvRatingUnitLocation":null,"StreetAddressID":21394,"OccupationLevelDescription":"Ground Floor and Above","StreetAddress":"16 Davidson Crescent","LocalityName":"Hornby","ValuationRollNumber":"23431"},"geometry":{"type":"MultiPolygon","coordinates":[[[[172.514236530358,-43.5459752784764],[172.514329551006,-43.546327508101],[172.514143766511,-43.5463534572402],[172.514050746895,-43.54600122746],[172.51414887261797,-43.5459875190083],[172.514236530358,-43.5459752784764]]]]}}]}