{"type":"FeatureCollection","features":[{"type":"Feature","properties":{"gml_id":"vwRatingUnit.109530","RatingUnitID":109530,"ValuationVisitOrder":"4709","drvRatingUnitLocation":null,"StreetAddressID":101088,"OccupationLevelDescription":"Ground Floor and Above","StreetAddress":"5 Haineswood Lane","LocalityName":"Upper Riccarton","ValuationRollNumber":"23413"},"geometry":{"type":"MultiPolygon","coordinates":[[[[172.565030741516,-43.5311540336581],[172.565037208509,-43.5314388909026],[172.564535353315,-43.5316769655909],[172.564447301254,-43.5317799804917],[172.564619559474,-43.5319721979282],[172.564392096738,-43.5320801218673],[172.564344754958,-43.5319463336481],[172.564276821167,-43.5318705771181],[172.5644051879,-43.5318096410232],[172.564514897513,-43.53168128962239],[172.565030121825,-43.5314368749258],[172.565023749809,-43.531156050433],[172.565030741516,-43.5311540336581]]]]}}]}