{"type":"FeatureCollection","features":[{"type":"Feature","properties":{"gml_id":"vwRatingUnit.107407","RatingUnitID":107407,"ValuationVisitOrder":"50900","drvRatingUnitLocation":null,"StreetAddressID":39793,"OccupationLevelDescription":"Ground Floor and Above","StreetAddress":"10 Callan Place","LocalityName":"Hoon Hay","ValuationRollNumber":"22970"},"geometry":{"type":"MultiPolygon","coordinates":[[[[172.588273619868,-43.5662527520806],[172.588328839281,-43.5663022553337],[172.58845191458,-43.5664125667913],[172.588594528867,-43.566540400269595],[172.588424579447,-43.566640674165],[172.58810365857596,-43.566352989462096],[172.588273619868,-43.5662527520806]]]]}}]}