{"type":"FeatureCollection","features":[{"type":"Feature","properties":{"gml_id":"vwRatingUnit.114794","RatingUnitID":114794,"ValuationVisitOrder":"60500","drvRatingUnitLocation":null,"StreetAddressID":93568,"OccupationLevelDescription":"Ground Floor and Above","StreetAddress":"43 Blankney Street","LocalityName":"Hornby","ValuationRollNumber":"23433"},"geometry":{"type":"MultiPolygon","coordinates":[[[[172.531589850582,-43.5524493908327],[172.531963495342,-43.5525748065538],[172.531842842151,-43.5527284564228],[172.531412591956,-43.5525497498992],[172.53148497944,-43.552457560235695],[172.531589850582,-43.5524493908327]]]]}}]}