{"type":"FeatureCollection","features":[{"type":"Feature","properties":{"gml_id":"vwRatingUnit.100475","RatingUnitID":100475,"ValuationVisitOrder":"19600","drvRatingUnitLocation":null,"StreetAddressID":125895,"OccupationLevelDescription":"Ground Floor and Above","StreetAddress":"85 Main Road","LocalityName":"Redcliffs","ValuationRollNumber":"22900"},"geometry":{"type":"MultiPolygon","coordinates":[[[[172.738686776358,-43.5612635193277],[172.738857160981,-43.5613955913776],[172.738601089807,-43.5615703153341],[172.738430717539,-43.5614382609409],[172.738686776358,-43.5612635193277]]]]}}]}