{"type":"FeatureCollection","features":[{"type":"Feature","properties":{"gml_id":"vwRatingUnit.113866","RatingUnitID":113866,"ValuationVisitOrder":"30800","drvRatingUnitLocation":null,"StreetAddressID":34307,"OccupationLevelDescription":"Ground Floor and Above","StreetAddress":"1/30 Steele Street","LocalityName":"Islington","ValuationRollNumber":"23432"},"geometry":{"type":"MultiPolygon","coordinates":[[[[172.512294927754,-43.5427291294572],[172.512339860098,-43.5428941899885],[172.51215213269998,-43.5429569324409],[172.512101313794,-43.5427702453542],[172.512294927754,-43.5427291294572]]]]}}]}