{"type":"FeatureCollection","features":[{"type":"Feature","properties":{"gml_id":"vwRatingUnit.10752","RatingUnitID":10752,"ValuationVisitOrder":"47300","drvRatingUnitLocation":null,"StreetAddressID":44083,"OccupationLevelDescription":"Ground Floor and Above","StreetAddress":"11 Bevington Street","LocalityName":"Avonhead","ValuationRollNumber":"21895"},"geometry":{"type":"MultiPolygon","coordinates":[[[[172.555419491868,-43.5210729329868],[172.555607388834,-43.5211207428409],[172.555402099331,-43.521548087369],[172.55538295022097,-43.5215432158678],[172.555214188766,-43.5215002861472],[172.555419491868,-43.5210729329868]]]]}}]}