{"type":"FeatureCollection","features":[{"type":"Feature","properties":{"gml_id":"vwRatingUnit.111540","RatingUnitID":111540,"ValuationVisitOrder":"64400","drvRatingUnitLocation":null,"StreetAddressID":108914,"OccupationLevelDescription":"Ground Floor and Above","StreetAddress":"6 Dumfries Drive","LocalityName":"Riccarton Park","ValuationRollNumber":"23415"},"geometry":{"type":"MultiPolygon","coordinates":[[[[172.533980006286,-43.5311666141709],[172.534047593014,-43.531392874225894],[172.533571654217,-43.5312770305501],[172.533576007374,-43.5311656436447],[172.533980006286,-43.5311666141709]]]]}}]}