{"type":"FeatureCollection","features":[{"type":"Feature","properties":{"gml_id":"vwRatingUnit.116572","RatingUnitID":116572,"ValuationVisitOrder":"31004","drvRatingUnitLocation":null,"StreetAddressID":38767,"OccupationLevelDescription":"Ground Floor and Above","StreetAddress":"1/8 Campion Place","LocalityName":"Westlake","ValuationRollNumber":"23441"},"geometry":{"type":"MultiPolygon","coordinates":[[[[172.55431974778,-43.5684347300561],[172.554360589052,-43.568440419847995],[172.554314246634,-43.5686347750426],[172.554289858076,-43.5686317013608],[172.554332050778,-43.568454719786],[172.55431807025,-43.5684527721744],[172.554052279007,-43.5684157447471],[172.554092170374,-43.5682483051053],[172.554095182485,-43.5682505186863],[172.554200398443,-43.5682509255301],[172.554206554727,-43.568255449733],[172.554305581519,-43.56825583255159],[172.554311737812,-43.5682603567489],[172.55435476663,-43.56826052306109],[172.554313474103,-43.568433856039],[172.55431974778,-43.5684347300561]]]]}}]}