{"type":"FeatureCollection","features":[{"type":"Feature","properties":{"gml_id":"vwRatingUnit.105756","RatingUnitID":105756,"ValuationVisitOrder":"27200","drvRatingUnitLocation":null,"StreetAddressID":142548,"OccupationLevelDescription":"Ground Floor and Above","StreetAddress":"74 Samuel Street","LocalityName":"Hoon Hay","ValuationRollNumber":"22952"},"geometry":{"type":"MultiPolygon","coordinates":[[[[172.59782604901596,-43.5637022363312],[172.59797720565498,-43.5638355423748],[172.598011466091,-43.563865760296096],[172.597661412998,-43.5640645536812],[172.597481996993,-43.56389764782969],[172.59782604901596,-43.5637022363312]]]]}}]}