{"type":"FeatureCollection","features":[{"type":"Feature","properties":{"gml_id":"vwRatingUnit.10980","RatingUnitID":10980,"ValuationVisitOrder":"68000","drvRatingUnitLocation":null,"StreetAddressID":121147,"OccupationLevelDescription":"Ground Floor and Above","StreetAddress":"78 Balrudry Street","LocalityName":"Avonhead","ValuationRollNumber":"21895"},"geometry":{"type":"MultiPolygon","coordinates":[[[[172.559578957324,-43.5195684447331],[172.56015078046,-43.51974311737429],[172.560068262791,-43.5198861143901],[172.559496450908,-43.5197114414018],[172.559578957324,-43.5195684447331]]]]}}]}