{"type":"FeatureCollection","features":[{"type":"Feature","properties":{"gml_id":"vwRatingUnit.117348","RatingUnitID":117348,"ValuationVisitOrder":"16900","drvRatingUnitLocation":null,"StreetAddressID":127636,"OccupationLevelDescription":"Ground Floor and Above","StreetAddress":"9 Cobra Street","LocalityName":"Oaklands","ValuationRollNumber":"23443"},"geometry":{"type":"MultiPolygon","coordinates":[[[[172.568150520753,-43.5718260829968],[172.56833792071998,-43.5718889708498],[172.568086050786,-43.57228567281649],[172.567898637532,-43.5722227755215],[172.568150520753,-43.5718260829968]]]]}}]}