{"type":"FeatureCollection","features":[{"type":"Feature","properties":{"gml_id":"vwRatingUnit.11820","RatingUnitID":11820,"ValuationVisitOrder":"84800","drvRatingUnitLocation":null,"StreetAddressID":18763,"OccupationLevelDescription":"Ground Floor and Above","StreetAddress":"16 Sayers Crescent","LocalityName":"Upper Riccarton","ValuationRollNumber":"21896"},"geometry":{"type":"MultiPolygon","coordinates":[[[[172.565109558721,-43.5261622155421],[172.565337735379,-43.5262319885668],[172.565213126509,-43.5264477281719],[172.564984961677,-43.5263779369549],[172.565109558721,-43.5261622155421]]]]}}]}