{"type":"FeatureCollection","features":[{"type":"Feature","properties":{"gml_id":"vwRatingUnit.100943","RatingUnitID":100943,"ValuationVisitOrder":"44900","drvRatingUnitLocation":null,"StreetAddressID":119235,"OccupationLevelDescription":"Ground Floor and Above","StreetAddress":"72A Moncks Spur Road","LocalityName":"Moncks Spur","ValuationRollNumber":"22900"},"geometry":{"type":"MultiPolygon","coordinates":[[[[172.735336315775,-43.5654731848852],[172.735490643055,-43.565592840197695],[172.735719877572,-43.5657705669971],[172.736146017106,-43.5659518393516],[172.736133435572,-43.56596747151539],[172.735700908428,-43.5657834753477],[172.735460052812,-43.5658311128674],[172.735156294663,-43.5655957374227],[172.735289228035,-43.5655052448564],[172.735336315775,-43.5654731848852]]]]}}]}