{"type":"FeatureCollection","features":[{"type":"Feature","properties":{"gml_id":"vwRatingUnit.101094","RatingUnitID":101094,"ValuationVisitOrder":"53100","drvRatingUnitLocation":null,"StreetAddressID":123373,"OccupationLevelDescription":"Ground Floor and Above","StreetAddress":"8 Taupata Street","LocalityName":"Redcliffs","ValuationRollNumber":"22900"},"geometry":{"type":"MultiPolygon","coordinates":[[[[172.735561755424,-43.5604134168117],[172.735995343258,-43.5607496065939],[172.735904986002,-43.5608112606534],[172.735470728478,-43.560475393022294],[172.735561755424,-43.5604134168117]]]]}}]}