{"type":"FeatureCollection","features":[{"type":"Feature","properties":{"gml_id":"vwRatingUnit.105193","RatingUnitID":105193,"ValuationVisitOrder":"19201","drvRatingUnitLocation":null,"StreetAddressID":21000,"OccupationLevelDescription":"Ground Floor and Above","StreetAddress":"15A McBeath Avenue","LocalityName":"Hoon Hay","ValuationRollNumber":"22951"},"geometry":{"type":"MultiPolygon","coordinates":[[[[172.609681809517,-43.5627840590449],[172.609685040188,-43.5627879042819],[172.609436643436,-43.56288357839279],[172.609536582219,-43.5630223567581],[172.609464900675,-43.5630499623692],[172.60925844204,-43.5631294777497],[172.609154727136,-43.5629870590593],[172.609681809517,-43.5627840590449]]]]}}]}