{"type":"FeatureCollection","features":[{"type":"Feature","properties":{"gml_id":"vwRatingUnit.114890","RatingUnitID":114890,"ValuationVisitOrder":"72200","drvRatingUnitLocation":null,"StreetAddressID":17528,"OccupationLevelDescription":"Ground Floor and Above","StreetAddress":"17 Glenora Place","LocalityName":"Hornby","ValuationRollNumber":"23433"},"geometry":{"type":"MultiPolygon","coordinates":[[[[172.528497554711,-43.5510404323712],[172.528502941932,-43.5510687262213],[172.528513588413,-43.551114656341],[172.528526093161,-43.5511603330383],[172.52852881112196,-43.5511689310124],[172.528036122552,-43.5512477955351],[172.528026459928,-43.5512154967504],[172.527995505242,-43.551112102687],[172.527993969101,-43.5510899271951],[172.528497554711,-43.5510404323712]]]]}}]}