{"type":"FeatureCollection","features":[{"type":"Feature","properties":{"gml_id":"vwRatingUnit.103647","RatingUnitID":103647,"ValuationVisitOrder":"3900","drvRatingUnitLocation":null,"StreetAddressID":61722,"OccupationLevelDescription":"Ground Floor and Above","StreetAddress":"24 Richmond Hill Road","LocalityName":"Richmond Hill","ValuationRollNumber":"22920"},"geometry":{"type":"MultiPolygon","coordinates":[[[[172.756407775704,-43.569194886575],[172.756824015321,-43.5693934854759],[172.75672820438,-43.569499525487],[172.75668449229,-43.56947866038439],[172.756312162359,-43.5693009356678],[172.756407775704,-43.569194886575]]]]}}]}