{"type":"FeatureCollection","features":[{"type":"Feature","properties":{"gml_id":"vwRatingUnit.11339","RatingUnitID":11339,"ValuationVisitOrder":"29200","drvRatingUnitLocation":null,"StreetAddressID":66714,"OccupationLevelDescription":"Ground Floor and Above","StreetAddress":"27 Reading Street","LocalityName":"Upper Riccarton","ValuationRollNumber":"21896"},"geometry":{"type":"MultiPolygon","coordinates":[[[[172.571129475563,-43.5270098589494],[172.571132105413,-43.5270052963047],[172.57133067958998,-43.5270659641011],[172.571718805936,-43.5271845198017],[172.57170304251696,-43.5271956042154],[172.571688699028,-43.52720882712029],[172.571676956497,-43.5272233558317],[172.571668051917,-43.5272389122052],[172.571664577982,-43.5272474141038],[172.571352857093,-43.5272457942608],[172.571196349928,-43.5271979835256],[172.571047212248,-43.5271524232638],[172.571129475563,-43.5270098589494]]]]}}]}