{"type":"FeatureCollection","features":[{"type":"Feature","properties":{"gml_id":"vwRatingUnit.112116","RatingUnitID":112116,"ValuationVisitOrder":"17801","drvRatingUnitLocation":null,"StreetAddressID":39080,"OccupationLevelDescription":"Ground Floor and Above","StreetAddress":"1/89 Carmen Road","LocalityName":"Hornby","ValuationRollNumber":"23421"},"geometry":{"type":"MultiPolygon","coordinates":[[[[172.528745902672,-43.535648669820496],[172.52874671198597,-43.5356471132462],[172.528752465276,-43.53564869668669],[172.52900734908997,-43.5357188463215],[172.52900644963597,-43.5357194933726],[172.529006414872,-43.5357239936952],[172.529003304554,-43.5357262312014],[172.52899711868,-43.5357262058911],[172.528994008361,-43.53572844339699],[172.528993973597,-43.5357329437195],[172.528987752958,-43.5357374187312],[172.52898771819298,-43.5357419190537],[172.528981497552,-43.5357463940651],[172.528981428022,-43.5357553947101],[172.528968986736,-43.5357643447318],[172.528968917204,-43.5357733453767],[172.528962696559,-43.5357778203871],[172.528962661792,-43.5357823207095],[172.528956441145,-43.5357867957195],[172.528956371611,-43.5357957963644],[172.528950150963,-43.5358002713741],[172.528950116195,-43.5358047716965],[172.52894389554598,-43.5358092467059],[172.528943826009,-43.5358182473507],[172.528931384706,-43.53582719736829],[172.528931315168,-43.5358361980131],[172.528925094513,-43.5358406730214],[172.528925024974,-43.5358496736662],[172.52892351792798,-43.5358507578036],[172.528676219066,-43.5357826937938],[172.528745902672,-43.535648669820496]]]]}}]}