{"type":"FeatureCollection","features":[{"type":"Feature","properties":{"gml_id":"vwRatingUnit.106335","RatingUnitID":106335,"ValuationVisitOrder":"17600","drvRatingUnitLocation":null,"StreetAddressID":15655,"OccupationLevelDescription":"Ground Floor and Above","StreetAddress":"174 Cashmere Road","LocalityName":"Hoon Hay","ValuationRollNumber":"22960"},"geometry":{"type":"MultiPolygon","coordinates":[[[[172.613320739579,-43.5741761964858],[172.613321183519,-43.57417849738919],[172.613321738469,-43.5741813736494],[172.613320706108,-43.57418147894009],[172.613092692295,-43.5742047338858],[172.61307506050096,-43.5742065321188],[172.61307470194296,-43.57420467359],[172.613028656126,-43.5739660010737],[172.613139468196,-43.5739663724721],[172.613145686454,-43.57396189296699],[172.613151876184,-43.5739619137091],[172.61315809444,-43.5739574342034],[172.613164284169,-43.5739574549448],[172.613170502424,-43.573952975438395],[172.613272632942,-43.5739533176179],[172.613275727806,-43.57395332798559],[172.6132780709,-43.5739550473049],[172.613278788279,-43.57395876544749],[172.613284167995,-43.5739866482802],[172.613284781303,-43.5739898270264],[172.613290265096,-43.5740182492549],[172.613290774333,-43.5740208886045],[172.613296362203,-43.5740498502289],[172.61329676737,-43.574051950182],[172.613302459317,-43.5740814512022],[172.613302760413,-43.574083011759],[172.613308556438,-43.5741130521749],[172.61330875346198,-43.5741140733352],[172.613314653565,-43.5741446531469],[172.613314746518,-43.5741451349108],[172.61331973451,-43.5741709872897],[172.613320739579,-43.5741761964858]]]]}}]}