{"type":"FeatureCollection","features":[{"type":"Feature","properties":{"gml_id":"vwRatingUnit.112615","RatingUnitID":112615,"ValuationVisitOrder":"63800","drvRatingUnitLocation":null,"StreetAddressID":87305,"OccupationLevelDescription":"Ground Floor and Above","StreetAddress":"4 Amuri Street","LocalityName":"Hei Hei","ValuationRollNumber":"23421"},"geometry":{"type":"MultiPolygon","coordinates":[[[[172.518342953595,-43.5384075667657],[172.518714612264,-43.5385210567866],[172.518540086441,-43.5386459171732],[172.518286501934,-43.5386684658746],[172.518285149942,-43.5386547967896],[172.518284235471,-43.5386264670025],[172.51828521404,-43.5385981361351],[172.518288060403,-43.5385698670884],[172.51829277391698,-43.538541740868],[172.518299354154,-43.5385138114776],[172.518307775869,-43.5384861418179],[172.518318026189,-43.5384587948411],[172.518330079798,-43.5384318424486],[172.518342953595,-43.5384075667657]]]]}}]}