{"type":"FeatureCollection","features":[{"type":"Feature","properties":{"gml_id":"vwRatingUnit.111217","RatingUnitID":111217,"ValuationVisitOrder":"37601","drvRatingUnitLocation":null,"StreetAddressID":117474,"OccupationLevelDescription":"Ground Floor and Above","StreetAddress":"7 Mull Place","LocalityName":"Broomfield","ValuationRollNumber":"23415"},"geometry":{"type":"MultiPolygon","coordinates":[[[[172.5332437025,-43.5263796777495],[172.533247997109,-43.5263787640326],[172.53325600814298,-43.5263770596121],[172.53325579823098,-43.5264044794166],[172.533261948705,-43.5264090048384],[172.533260880703,-43.5265485151615],[172.533267031192,-43.5265530405827],[172.533266910613,-43.5265687917479],[172.533316390152,-43.526568992442],[172.533320417084,-43.5265690087748],[172.533316388682,-43.5265691845274],[172.533246582806,-43.52657223002309],[172.533226036411,-43.5265731264145],[172.533160506373,-43.526575985313],[172.533131655725,-43.5265772439769],[172.533067808663,-43.5265800293996],[172.533059963417,-43.5265803716576],[172.533046970483,-43.5265647383027],[172.533039908913,-43.5265580398453],[172.533023995712,-43.5265457699537],[172.533005929546,-43.5265351836591],[172.532996192398,-43.5265305895664],[172.53298605531896,-43.5265264889966],[172.532967298328,-43.5265205171058],[172.53295259079798,-43.52651397682959],[172.532934362741,-43.5265035426991],[172.532918263222,-43.5264913980971],[172.532904574849,-43.5264777692621],[172.53289872984897,-43.5264704815576],[172.532889137057,-43.52645511410889],[172.532890830561,-43.526454753806796],[172.532894761336,-43.526453917512995],[172.532911587758,-43.526450337598],[172.532921254049,-43.5264482810394],[172.532932344952,-43.5264459213854],[172.532938915855,-43.526444523387],[172.532953102143,-43.526441505169096],[172.53295657766,-43.52644076573179],[172.532973859332,-43.5264370889491],[172.532983070362,-43.52643512924409],[172.532994616517,-43.5264326727253],[172.53300073216,-43.52643137158219],[172.533015373699,-43.5264282564978],[172.533018393957,-43.5264276139176],[172.533036130878,-43.5264238402666],[172.533044886647,-43.5264219774157],[172.533056888054,-43.5264194240317],[172.533062548438,-43.52641821974439],[172.533077645226,-43.526415007793],[172.533080210227,-43.5264144620704],[172.533119159563,-43.5264061753045],[172.533124364689,-43.5264050678735],[172.533139916727,-43.5264017590546],[172.53314202646897,-43.5264013101901],[172.533181431045,-43.52639292654379],[172.533186180912,-43.5263919159696],[172.5332021882,-43.5263885102827],[172.533203842685,-43.5263881582767],[172.5332437025,-43.5263796777495]]]]}}]}