{"type":"FeatureCollection","features":[{"type":"Feature","properties":{"gml_id":"vwRatingUnit.114685","RatingUnitID":114685,"ValuationVisitOrder":"49700","drvRatingUnitLocation":null,"StreetAddressID":13681,"OccupationLevelDescription":"Ground Floor and Above","StreetAddress":"18 Oriana Crescent","LocalityName":"Hornby","ValuationRollNumber":"23433"},"geometry":{"type":"MultiPolygon","coordinates":[[[[172.526044809555,-43.5496608985209],[172.52654452029697,-43.54985415963],[172.526525043147,-43.5498811092695],[172.526509067293,-43.5499049769891],[172.526480353785,-43.5499516366245],[172.526469487355,-43.5499709078815],[172.525992354198,-43.5498309616877],[172.525994588522,-43.5498237161574],[172.526038741368,-43.54968057652119],[172.526044809555,-43.5496608985209]]]]}}]}