{"type":"FeatureCollection","features":[{"type":"Feature","properties":{"gml_id":"vwRatingUnit.101748","RatingUnitID":101748,"ValuationVisitOrder":"55300","drvRatingUnitLocation":null,"StreetAddressID":20810,"OccupationLevelDescription":"Ground Floor and Above","StreetAddress":"158 Major Hornbrook Road","LocalityName":"Mt Pleasant","ValuationRollNumber":"22901"},"geometry":{"type":"MultiPolygon","coordinates":[[[[172.71591435424,-43.5662883167084],[172.71615625444,-43.5664884534393],[172.715974921906,-43.566604474777],[172.71570818826,-43.5663837913154],[172.715752311834,-43.5663633516537],[172.71591435424,-43.5662883167084]]]]}}]}