{"type":"FeatureCollection","features":[{"type":"Feature","properties":{"gml_id":"vwRatingUnit.106809","RatingUnitID":106809,"ValuationVisitOrder":"59702","drvRatingUnitLocation":null,"StreetAddressID":9014,"OccupationLevelDescription":"Ground Floor and Above","StreetAddress":"2/1 Hurunui Street","LocalityName":"Hoon Hay Valley","ValuationRollNumber":"22960"},"geometry":{"type":"MultiPolygon","coordinates":[[[[172.615824835935,-43.57538359879969],[172.615824318114,-43.5753794445004],[172.615823813724,-43.5753753979555],[172.615820271156,-43.5753469771372],[172.615819471912,-43.5753405650679],[172.615802986749,-43.5752083098024],[172.615982197422,-43.5751902357721],[172.615981923873,-43.5752337078172],[172.61598808541396,-43.5752382286507],[172.615987745604,-43.5752922315889],[172.61599390715097,-43.575296752422],[172.615993567348,-43.5753507553593],[172.615999728901,-43.5753552761919],[172.61599962319,-43.575372076349],[172.615828499826,-43.5753833572688],[172.615824835935,-43.57538359879969]]]]}}]}