{"type":"FeatureCollection","features":[{"type":"Feature","properties":{"gml_id":"vwRatingUnit.109759","RatingUnitID":109759,"ValuationVisitOrder":"26900","drvRatingUnitLocation":null,"StreetAddressID":5497,"OccupationLevelDescription":"Ground Floor and Above","StreetAddress":"2/19 English Street","LocalityName":"Upper Riccarton","ValuationRollNumber":"23413"},"geometry":{"type":"MultiPolygon","coordinates":[[[[172.56273281909,-43.5325733066817],[172.562730522657,-43.5325710314525],[172.56257302016,-43.532414982737],[172.562572695367,-43.532414660941],[172.56257302357798,-43.53241450635749],[172.562827496492,-43.5322946518108],[172.562827399905,-43.5323081237333],[172.562833553158,-43.5323126475449],[172.56283352089397,-43.5323171478623],[172.562839674149,-43.5323216716736],[172.562839641884,-43.532326171991],[172.562845795141,-43.5323306958019],[172.562845762877,-43.5323351961192],[172.562888835701,-43.5323668627865],[172.562888803441,-43.5323713631038],[172.562894956705,-43.532375886912],[172.562894892185,-43.5323848875465],[172.56290104545198,-43.532389411354394],[172.562901013192,-43.5323939116716],[172.56290716646,-43.5323984354791],[172.562907134201,-43.5324029357964],[172.56291328747,-43.5324074596035],[172.562913222952,-43.53241646023789],[172.562919376223,-43.5324209840447],[172.562919343965,-43.5324254843619],[172.562959340253,-43.5324548890979],[172.562965525786,-43.532454912585],[172.56297253347196,-43.5324600645371],[172.562737578639,-43.5325710582586],[172.56273281909,-43.5325733066817]]]]}}]}