{"type":"FeatureCollection","features":[{"type":"Feature","properties":{"gml_id":"vwRatingUnit.103529","RatingUnitID":103529,"ValuationVisitOrder":"90402","drvRatingUnitLocation":null,"StreetAddressID":8416,"OccupationLevelDescription":"Ground Floor and Above","StreetAddress":"2 Spinnaker Lane","LocalityName":"Clifton","ValuationRollNumber":"22911"},"geometry":{"type":"MultiPolygon","coordinates":[[[[172.755119301301,-43.5681791689509],[172.75530784948998,-43.5686018708484],[172.754551878775,-43.5686852684723],[172.754526284087,-43.568644288928],[172.754565041369,-43.5685424497848],[172.754551415453,-43.5684801825187],[172.754523330493,-43.5684551825375],[172.75452496641,-43.568319152727],[172.755119301301,-43.5681791689509]]]]}}]}