{"type":"FeatureCollection","features":[{"type":"Feature","properties":{"gml_id":"vwRatingUnit.112070","RatingUnitID":112070,"ValuationVisitOrder":"14600","drvRatingUnitLocation":null,"StreetAddressID":107838,"OccupationLevelDescription":"Ground Floor and Above","StreetAddress":"58C Hei Hei Road","LocalityName":"Hei Hei","ValuationRollNumber":"23421"},"geometry":{"type":"MultiPolygon","coordinates":[[[[172.524310330374,-43.5350186923092],[172.524811452772,-43.5351718068707],[172.524886023171,-43.5350315560325],[172.524955981136,-43.5350529339631],[172.525181826778,-43.535121939879794],[172.525408956635,-43.53519132868],[172.525417793992,-43.535194029393],[172.525364116551,-43.5353110182773],[172.525005240617,-43.5352458473233],[172.524303043809,-43.53503130851689],[172.524310330374,-43.5350186923092]]]]}}]}