{"type":"FeatureCollection","features":[{"type":"Feature","properties":{"gml_id":"vwRatingUnit.110778","RatingUnitID":110778,"ValuationVisitOrder":"43800","drvRatingUnitLocation":null,"StreetAddressID":73656,"OccupationLevelDescription":"Ground Floor and Above","StreetAddress":"3/34 Epsom Road","LocalityName":"Upper Riccarton","ValuationRollNumber":"23414"},"geometry":{"type":"MultiPolygon","coordinates":[[[[172.550983590647,-43.5365317660679],[172.550891433454,-43.53643832085099],[172.550904035425,-43.536431881938],[172.550907495764,-43.5364301142184],[172.550921518589,-43.5364229494368],[172.550928932733,-43.5364191612018],[172.550947743151,-43.5364095502896],[172.550950370052,-43.5364082081826],[172.550965226304,-43.536400617522],[172.550971807366,-43.5363972548996],[172.550991450844,-43.5363872186248],[172.550993244669,-43.53638630187239],[172.551008933985,-43.5363782858505],[172.551014681965,-43.53637534884129],[172.551035158508,-43.5363648866835],[172.551036119253,-43.5363643958063],[172.551052641634,-43.5363559541626],[172.551057556534,-43.5363534427673],[172.551070124399,-43.53634702137769],[172.551078993807,-43.5363424897243],[172.551096348895,-43.53633362219689],[172.551100431071,-43.5363315366773],[172.551113832003,-43.5363246896667],[172.551121868329,-43.5363205836264],[172.551131315108,-43.536315756874],[172.551131683412,-43.5363155685699],[172.55113843408,-43.5363121195268],[172.551161296592,-43.5363352727603],[172.55117331104,-43.5363474401035],[172.551227450348,-43.5364022712587],[172.550983590647,-43.5365317660679]]]]}}]}