{"type":"FeatureCollection","features":[{"type":"Feature","properties":{"gml_id":"vwRatingUnit.101411","RatingUnitID":101411,"ValuationVisitOrder":"11500","drvRatingUnitLocation":null,"StreetAddressID":112740,"OccupationLevelDescription":"Ground Floor and Above","StreetAddress":"63 St Andrews Hill Road","LocalityName":"St Andrews Hill","ValuationRollNumber":"22901"},"geometry":{"type":"MultiPolygon","coordinates":[[[[172.71716152916696,-43.5580331700902],[172.71772575587897,-43.5580802378556],[172.717940191203,-43.5580981240308],[172.71795699172,-43.5580995241601],[172.717759483503,-43.5583982922619],[172.71716152916696,-43.5580331700902]]]]}}]}