{"type":"FeatureCollection","features":[{"type":"Feature","properties":{"gml_id":"vwRatingUnit.115797","RatingUnitID":115797,"ValuationVisitOrder":"74700","drvRatingUnitLocation":null,"StreetAddressID":125085,"OccupationLevelDescription":"Ground Floor and Above","StreetAddress":"83 Brynley Street","LocalityName":"Hornby","ValuationRollNumber":"23434"},"geometry":{"type":"MultiPolygon","coordinates":[[[[172.533564298594,-43.547886086311],[172.533691615226,-43.5479887709288],[172.533328341565,-43.5482270293713],[172.533201025038,-43.5481243443575],[172.533564298594,-43.547886086311]]]]}}]}