{"type":"FeatureCollection","features":[{"type":"Feature","properties":{"gml_id":"vwRatingUnit.113847","RatingUnitID":113847,"ValuationVisitOrder":"28800","drvRatingUnitLocation":null,"StreetAddressID":45182,"OccupationLevelDescription":"Ground Floor and Above","StreetAddress":"11 Steele Street","LocalityName":"Islington","ValuationRollNumber":"23432"},"geometry":{"type":"MultiPolygon","coordinates":[[[[172.514559158391,-43.5423764455338],[172.514707373297,-43.5429370545817],[172.51466514867897,-43.5429455535225],[172.514637324619,-43.5429030508361],[172.514203011126,-43.5429712826452],[172.51416336529897,-43.5427912316467],[172.514402925297,-43.5427577235596],[172.51462608409898,-43.54272651308959],[172.514534578764,-43.5423802843177],[172.514559158391,-43.5423764455338]]]]}}]}