{"type":"FeatureCollection","features":[{"type":"Feature","properties":{"gml_id":"vwRatingUnit.107546","RatingUnitID":107546,"ValuationVisitOrder":"60800","drvRatingUnitLocation":null,"StreetAddressID":34747,"OccupationLevelDescription":"Ground Floor and Above","StreetAddress":"1/337 Hendersons Road","LocalityName":"Hoon Hay","ValuationRollNumber":"22970"},"geometry":{"type":"MultiPolygon","coordinates":[[[[172.580804808348,-43.5620662585549],[172.580833507311,-43.5620493071979],[172.580953905858,-43.56197819248259],[172.580963705417,-43.5619732775092],[172.58097446224096,-43.5619695455075],[172.580985878646,-43.5619670936428],[172.580997681911,-43.5619659755058],[172.581009587354,-43.561966216833],[172.581021297548,-43.5619678253803],[172.581032504057,-43.5619707464844],[172.581042946409,-43.5619749157797],[172.581052354069,-43.5619802244184],[172.581060147547,-43.5619862201227],[172.581149848649,-43.5620666439829],[172.58115525176,-43.5620714881505],[172.58114979328099,-43.5620747078946],[172.58097351317,-43.5621786860486],[172.580949233417,-43.5621930073081],[172.580804808348,-43.5620662585549]]]]}}]}