{"type":"FeatureCollection","features":[{"type":"Feature","properties":{"gml_id":"vwRatingUnit.116551","RatingUnitID":116551,"ValuationVisitOrder":"29600","drvRatingUnitLocation":null,"StreetAddressID":59947,"OccupationLevelDescription":"Ground Floor and Above","StreetAddress":"23 Riverton Terrace","LocalityName":"Westlake","ValuationRollNumber":"23441"},"geometry":{"type":"MultiPolygon","coordinates":[[[[172.553767193949,-43.5675667210161],[172.553803788348,-43.5675713360375],[172.55373160934397,-43.5678741407817],[172.553912146087,-43.5678968913659],[172.553874140867,-43.56805637357439],[172.553828715056,-43.5682470778396],[172.553611545517,-43.568219693923],[172.553767193949,-43.5675667210161]]]]}}]}