{"type":"FeatureCollection","features":[{"type":"Feature","properties":{"gml_id":"vwRatingUnit.117950","RatingUnitID":117950,"ValuationVisitOrder":"14800","drvRatingUnitLocation":null,"StreetAddressID":49134,"OccupationLevelDescription":"Ground Floor and Above","StreetAddress":"12 Wales Street","LocalityName":"Oaklands","ValuationRollNumber":"23444"},"geometry":{"type":"MultiPolygon","coordinates":[[[[172.565350245507,-43.5777261234779],[172.565634356902,-43.57782157547639],[172.5656447388,-43.5778258179182],[172.565654072681,-43.5778311905088],[172.56566213659698,-43.5778375664022],[172.565668708857,-43.5778447827504],[172.565673642177,-43.5778526589842],[172.56567680172097,-43.5778610055801],[172.565678127058,-43.5778696152934],[172.56567757027096,-43.5778782629248],[172.565675145274,-43.5778867325086],[172.565671228155,-43.5778943684053],[172.56562085582496,-43.57797372744649],[172.565613323344,-43.57798486902469],[172.565588855797,-43.5779766492128],[172.56557620958597,-43.5779965562718],[172.565248411774,-43.577886421301],[172.565350245507,-43.5777261234779]]]]}}]}