{"type":"FeatureCollection","features":[{"type":"Feature","properties":{"gml_id":"vwRatingUnit.108732","RatingUnitID":108732,"ValuationVisitOrder":"28702","drvRatingUnitLocation":null,"StreetAddressID":100861,"OccupationLevelDescription":"Ground Floor and Above","StreetAddress":"5 Tenahaun Place","LocalityName":"Sockburn","ValuationRollNumber":"23411"},"geometry":{"type":"MultiPolygon","coordinates":[[[[172.568751625746,-43.5426017899212],[172.568742192075,-43.5429892048687],[172.56837344652797,-43.5432167508085],[172.568085159456,-43.54296971290459],[172.568085329208,-43.5426015700259],[172.568751625746,-43.5426017899212]]]]}}]}