{"type":"FeatureCollection","features":[{"type":"Feature","properties":{"gml_id":"vwRatingUnit.101016","RatingUnitID":101016,"ValuationVisitOrder":"50701","drvRatingUnitLocation":null,"StreetAddressID":97879,"OccupationLevelDescription":"Ground Floor and Above","StreetAddress":"48 Augusta Street","LocalityName":"Redcliffs","ValuationRollNumber":"22900"},"geometry":{"type":"MultiPolygon","coordinates":[[[[172.734033807589,-43.5647509349414],[172.73421997234,-43.5648776047236],[172.733997153499,-43.5651582051733],[172.733889683913,-43.5649324765918],[172.734018424316,-43.5647703496525],[172.734033807589,-43.5647509349414]]]]}}]}