{"type":"FeatureCollection","features":[{"type":"Feature","properties":{"gml_id":"vwRatingUnit.105118","RatingUnitID":105118,"ValuationVisitOrder":"12700","drvRatingUnitLocation":null,"StreetAddressID":106983,"OccupationLevelDescription":"Ground Floor and Above","StreetAddress":"57 McBeath Avenue","LocalityName":"Hoon Hay","ValuationRollNumber":"22951"},"geometry":{"type":"MultiPolygon","coordinates":[[[[172.606317941328,-43.5604587398422],[172.606510477583,-43.5605662354578],[172.606196521015,-43.5608636463756],[172.606102796761,-43.56080691879689],[172.606009800004,-43.5607506436604],[172.606317941328,-43.5604587398422]]]]}}]}