{"type":"FeatureCollection","features":[{"type":"Feature","properties":{"gml_id":"vwRatingUnit.108943","RatingUnitID":108943,"ValuationVisitOrder":"3400","drvRatingUnitLocation":null,"StreetAddressID":87151,"OccupationLevelDescription":"Ground Floor and Above","StreetAddress":"3A Curletts Road","LocalityName":"Upper Riccarton","ValuationRollNumber":"23412"},"geometry":{"type":"MultiPolygon","coordinates":[[[[172.567834871651,-43.53272190580069],[172.567834972776,-43.53272258572239],[172.567834866773,-43.5327225940663],[172.567583488869,-43.5327423808178],[172.567561572172,-43.5327441059239],[172.567561519858,-43.5327422982804],[172.567557872632,-43.5326162723871],[172.56760365484098,-43.5326164443882],[172.567609872301,-43.5326119673101],[172.567616057849,-43.5326119905471],[172.567622275308,-43.5326075134682],[172.56781712006,-43.532608245254],[172.567816944629,-43.532632996989],[172.567822225707,-43.532636879101],[172.567823062933,-43.5326425083061],[172.567828268931,-43.5326775115583],[172.567828967288,-43.5326822070538],[172.567833556759,-43.5327130649578],[172.567834871651,-43.53272190580069]]]]}}]}