{"type":"FeatureCollection","features":[{"type":"Feature","properties":{"gml_id":"vwRatingUnit.107002","RatingUnitID":107002,"ValuationVisitOrder":"10400","drvRatingUnitLocation":null,"StreetAddressID":66748,"OccupationLevelDescription":"Ground Floor and Above","StreetAddress":"27 Rowley Avenue","LocalityName":"Hoon Hay","ValuationRollNumber":"22970"},"geometry":{"type":"MultiPolygon","coordinates":[[[[172.58820094919,-43.5601867030898],[172.588221894827,-43.5602283164408],[172.588261258045,-43.5603065206735],[172.588238498471,-43.560341101316],[172.587801443112,-43.560448889556],[172.58777419799,-43.5603925913563],[172.587733260579,-43.560311150047795],[172.58820094919,-43.5601867030898]]]]}}]}