{"type":"FeatureCollection","features":[{"type":"Feature","properties":{"gml_id":"vwRatingUnit.101182","RatingUnitID":101182,"ValuationVisitOrder":"54911","drvRatingUnitLocation":null,"StreetAddressID":44464,"OccupationLevelDescription":"Ground Floor and Above","StreetAddress":"11 Gazelle Lane","LocalityName":"Balmoral Hill","ValuationRollNumber":"22900"},"geometry":{"type":"MultiPolygon","coordinates":[[[[172.729857554727,-43.5645188591416],[172.729898993947,-43.5645330418721],[172.729892560945,-43.5645602714322],[172.730087687465,-43.5646175928697],[172.730065641093,-43.5646572246858],[172.729785978505,-43.5648482011004],[172.729752919657,-43.5648226252679],[172.72959084543,-43.5646972196386],[172.72979602946796,-43.56455721050689],[172.729798110218,-43.5645485208626],[172.729849844664,-43.564554969235495],[172.729857554727,-43.5645188591416]]]]}}]}