{"type":"FeatureCollection","features":[{"type":"Feature","properties":{"gml_id":"vwRatingUnit.104551","RatingUnitID":104551,"ValuationVisitOrder":"69500","drvRatingUnitLocation":null,"StreetAddressID":102128,"OccupationLevelDescription":"Ground Floor and Above","StreetAddress":"5/9 Burgess Street","LocalityName":"Sumner","ValuationRollNumber":"22920"},"geometry":{"type":"MultiPolygon","coordinates":[[[[172.759528596639,-43.5681220624087],[172.75960920254,-43.5681810090084],[172.759615391611,-43.5681810218804],[172.759658591173,-43.5682126133793],[172.759664780248,-43.5682126262486],[172.759803636299,-43.5683141702307],[172.759803627452,-43.5683164203309],[172.75980053290996,-43.5683164139001],[172.75979432613096,-43.5683209012386],[172.759788137046,-43.5683208883763],[172.759781930265,-43.568325375714196],[172.75977574117996,-43.5683253628513],[172.759769534398,-43.5683298501885],[172.75975096714097,-43.5683298115968],[172.759744760356,-43.5683342989326],[172.759741665813,-43.56833429250019],[172.759741674663,-43.5683320424],[172.759621332777,-43.568244037561],[172.7596151437,-43.5682440246894],[172.759578115501,-43.568216946249],[172.759571926426,-43.5682169333751],[172.759486009414,-43.5681541027688],[172.759528596639,-43.5681220624087]]]]}}]}