{"type":"FeatureCollection","features":[{"type":"Feature","properties":{"gml_id":"vwRatingUnit.111028","RatingUnitID":111028,"ValuationVisitOrder":"18900","drvRatingUnitLocation":null,"StreetAddressID":56328,"OccupationLevelDescription":"Ground Floor and Above","StreetAddress":"21 Vanguard Drive","LocalityName":"Broomfield","ValuationRollNumber":"23415"},"geometry":{"type":"MultiPolygon","coordinates":[[[[172.529895902691,-43.5289585627667],[172.530354245902,-43.5290942242912],[172.530284340084,-43.5292192771178],[172.529825983711,-43.5290836152749],[172.529876447311,-43.5289933619488],[172.529895902691,-43.5289585627667]]]]}}]}