{"type":"FeatureCollection","features":[{"type":"Feature","properties":{"gml_id":"vwRatingUnit.116099","RatingUnitID":116099,"ValuationVisitOrder":"24300","drvRatingUnitLocation":null,"StreetAddressID":115427,"OccupationLevelDescription":"Ground Floor and Above","StreetAddress":"69 Oakley Crescent","LocalityName":"Hornby","ValuationRollNumber":"23435"},"geometry":{"type":"MultiPolygon","coordinates":[[[[172.533675627378,-43.5537240238296],[172.534059201266,-43.5537743964482],[172.534050187046,-43.5538268350931],[172.534037707758,-43.5538792507221],[172.53402211313798,-43.553931221707494],[172.534008497091,-43.5539688172955],[172.533585157937,-43.5538392288633],[172.533675627378,-43.5537240238296]]]]}}]}