{"type":"FeatureCollection","features":[{"type":"Feature","properties":{"gml_id":"vwRatingUnit.117703","RatingUnitID":117703,"ValuationVisitOrder":"50900","drvRatingUnitLocation":null,"StreetAddressID":44991,"OccupationLevelDescription":"Ground Floor and Above","StreetAddress":"11 Pethig Place","LocalityName":"Oaklands","ValuationRollNumber":"23443"},"geometry":{"type":"MultiPolygon","coordinates":[[[[172.561477683096,-43.5730719128097],[172.561493107434,-43.5730737356061],[172.561516264753,-43.57307443570039],[172.56153933953297,-43.573072840277995],[172.56158300474297,-43.573065652631996],[172.561602841723,-43.573064989971],[172.561612741625,-43.5730655226431],[172.561632219656,-43.57306829690939],[172.561650839986,-43.57307328210369],[172.56168833418,-43.5730858726727],[172.561479663844,-43.5734146249086],[172.56143226451,-43.573398756332],[172.5612986128,-43.5733540182347],[172.561477683096,-43.5730719128097]]]]}}]}