{"type":"FeatureCollection","features":[{"type":"Feature","properties":{"gml_id":"vwRatingUnit.112202","RatingUnitID":112202,"ValuationVisitOrder":"24000","drvRatingUnitLocation":null,"StreetAddressID":103857,"OccupationLevelDescription":"Ground Floor and Above","StreetAddress":"52 Manurere Street","LocalityName":"Hei Hei","ValuationRollNumber":"23421"},"geometry":{"type":"MultiPolygon","coordinates":[[[[172.524268285986,-43.5326123145771],[172.524746435367,-43.5327897273604],[172.52473618936,-43.5328074889202],[172.524657934042,-43.5329430440115],[172.52417661799,-43.5327321612736],[172.524197563311,-43.5327067571851],[172.524232430724,-43.53266179758259],[172.524268285986,-43.5326123145771]]]]}}]}