{"type":"FeatureCollection","features":[{"type":"Feature","properties":{"gml_id":"vwRatingUnit.115864","RatingUnitID":115864,"ValuationVisitOrder":"3509","drvRatingUnitLocation":null,"StreetAddressID":42824,"OccupationLevelDescription":"Ground Floor and Above","StreetAddress":"105 Springs Road","LocalityName":"Hornby","ValuationRollNumber":"23435"},"geometry":{"type":"MultiPolygon","coordinates":[[[[172.536725399376,-43.5505740861635],[172.537071456718,-43.5508464667649],[172.536915424803,-43.5509482246164],[172.536900649882,-43.5509578591667],[172.536560103275,-43.5506833670205],[172.536725399376,-43.5505740861635]]]]}}]}