{"type":"FeatureCollection","features":[{"type":"Feature","properties":{"gml_id":"vwRatingUnit.100989","RatingUnitID":100989,"ValuationVisitOrder":"48804","drvRatingUnitLocation":null,"StreetAddressID":10742,"OccupationLevelDescription":"Ground Floor and Above","StreetAddress":"19A Augusta Street","LocalityName":"Redcliffs","ValuationRollNumber":"22900"},"geometry":{"type":"MultiPolygon","coordinates":[[[[172.737293100582,-43.5635123022175],[172.737286322272,-43.5635070497483],[172.737284687879,-43.56350578340079],[172.737174469503,-43.563420375556696],[172.737319649472,-43.5633213520036],[172.737323310169,-43.56331885534],[172.73732647717,-43.5633213675298],[172.73743590319796,-43.56340816956799],[172.737293100582,-43.5635123022175]]]]}}]}