{"type":"FeatureCollection","features":[{"type":"Feature","properties":{"gml_id":"vwRatingUnit.107255","RatingUnitID":107255,"ValuationVisitOrder":"35500","drvRatingUnitLocation":null,"StreetAddressID":128220,"OccupationLevelDescription":"Ground Floor and Above","StreetAddress":"9 McCarthy Street","LocalityName":"Hoon Hay","ValuationRollNumber":"22970"},"geometry":{"type":"MultiPolygon","coordinates":[[[[172.58944160669697,-43.5631034408685],[172.589662615941,-43.5631556760073],[172.5896851117,-43.5631897969219],[172.589539491478,-43.5634691029898],[172.589473755211,-43.5634523345527],[172.589411851495,-43.5634380819358],[172.589349406676,-43.5634251504688],[172.589330677839,-43.5634216904735],[172.58944160669697,-43.5631034408685]]]]}}]}