{"type":"FeatureCollection","features":[{"type":"Feature","properties":{"gml_id":"vwRatingUnit.109460","RatingUnitID":109460,"ValuationVisitOrder":"65901","drvRatingUnitLocation":null,"StreetAddressID":10769,"OccupationLevelDescription":"Ground Floor and Above","StreetAddress":"15/19A Watts Road","LocalityName":"Sockburn","ValuationRollNumber":"23412"},"geometry":{"type":"MultiPolygon","coordinates":[[[[172.562482439037,-43.5371788651022],[172.562563813011,-43.5371343924968],[172.562522240376,-43.5370913527119],[172.56243899011199,-43.5371346327353],[172.562482439037,-43.5371788651022]]]]}}]}