{"type":"FeatureCollection","features":[{"type":"Feature","properties":{"gml_id":"vwRatingUnit.112784","RatingUnitID":112784,"ValuationVisitOrder":"81400","drvRatingUnitLocation":null,"StreetAddressID":70912,"OccupationLevelDescription":"Ground Floor and Above","StreetAddress":"3 Cataluna Place","LocalityName":"Hornby","ValuationRollNumber":"23421"},"geometry":{"type":"MultiPolygon","coordinates":[[[[172.52929696200496,-43.5342496389266],[172.529567659191,-43.5343793418982],[172.52959623161897,-43.5343930230735],[172.529510560663,-43.5345415843452],[172.529491553613,-43.5345741440319],[172.52913613736996,-43.5343477663861],[172.52915936188296,-43.5343362231827],[172.529211861426,-43.5343066358329],[172.529261854237,-43.5342748239785],[172.52929696200496,-43.5342496389266]]]]}}]}