{"type":"FeatureCollection","features":[{"type":"Feature","properties":{"gml_id":"vwRatingUnit.104874","RatingUnitID":104874,"ValuationVisitOrder":"27800","drvRatingUnitLocation":null,"StreetAddressID":139209,"OccupationLevelDescription":"Ground Floor and Above","StreetAddress":"165 Taylors Mistake Road","LocalityName":"Scarborough","ValuationRollNumber":"22931"},"geometry":{"type":"MultiPolygon","coordinates":[[[[172.774949161314,-43.5805797752296],[172.775296535322,-43.5806483853826],[172.77524200667398,-43.58079424825209],[172.774873599827,-43.58072150184249],[172.774884296178,-43.5806611478504],[172.774949161314,-43.5805797752296]]]]}}]}