{"type":"FeatureCollection","features":[{"type":"Feature","properties":{"gml_id":"vwRatingUnit.115345","RatingUnitID":115345,"ValuationVisitOrder":"35400","drvRatingUnitLocation":null,"StreetAddressID":44033,"OccupationLevelDescription":"Ground Floor and Above","StreetAddress":"11 Bahama Place","LocalityName":"Hornby","ValuationRollNumber":"23434"},"geometry":{"type":"MultiPolygon","coordinates":[[[[172.534297124611,-43.5447570197406],[172.534763541211,-43.544801794182],[172.534762309341,-43.5448091789415],[172.534762154012,-43.5448214285341],[172.534763892393,-43.5448336137696],[172.534767476225,-43.544845572437],[172.53477286935197,-43.5448571783773],[172.534780011141,-43.5448682693292],[172.53478767542697,-43.5448773731932],[172.534444091698,-43.54504530962279],[172.534336732494,-43.5449580979268],[172.53420988182296,-43.5448550467207],[172.53418173246897,-43.5448321785963],[172.534264990418,-43.5447779518906],[172.534297124611,-43.5447570197406]]]]}}]}