{"type":"FeatureCollection","features":[{"type":"Feature","properties":{"gml_id":"vwRatingUnit.110176","RatingUnitID":110176,"ValuationVisitOrder":"63900","drvRatingUnitLocation":null,"StreetAddressID":50604,"OccupationLevelDescription":"Ground Floor and Above","StreetAddress":"126 Racecourse Road","LocalityName":"Sockburn","ValuationRollNumber":"23413"},"geometry":{"type":"MultiPolygon","coordinates":[[[[172.548821586368,-43.5328178878919],[172.549091508482,-43.5328981085829],[172.548920414607,-43.5331935318526],[172.548651607561,-43.5331112719474],[172.548821586368,-43.5328178878919]]]]}}]}