{"type":"FeatureCollection","features":[{"type":"Feature","properties":{"gml_id":"vwRatingUnit.105084","RatingUnitID":105084,"ValuationVisitOrder":"9200","drvRatingUnitLocation":null,"StreetAddressID":46806,"OccupationLevelDescription":"Ground Floor and Above","StreetAddress":"115 Hoon Hay Road","LocalityName":"Hoon Hay","ValuationRollNumber":"22951"},"geometry":{"type":"MultiPolygon","coordinates":[[[[172.604929429159,-43.5600496257336],[172.605068773902,-43.5601405512861],[172.604709690077,-43.56043158422239],[172.604505849321,-43.5602985747121],[172.604929429159,-43.5600496257336]]]]}}]}