{"type":"FeatureCollection","features":[{"type":"Feature","properties":{"gml_id":"vwRatingUnit.106526","RatingUnitID":106526,"ValuationVisitOrder":"33100","drvRatingUnitLocation":null,"StreetAddressID":128134,"OccupationLevelDescription":"Ground Floor and Above","StreetAddress":"9 Leistrella Road","LocalityName":"Hoon Hay","ValuationRollNumber":"22960"},"geometry":{"type":"MultiPolygon","coordinates":[[[[172.609533320353,-43.5691375559612],[172.609642923763,-43.5694197567783],[172.60963290848798,-43.5694218200671],[172.6096733163,-43.5695257888513],[172.609639744468,-43.5695839098565],[172.609431203585,-43.5696043379708],[172.609348216264,-43.5691556870171],[172.609533320353,-43.5691375559612]]]]}}]}