{"type":"FeatureCollection","features":[{"type":"Feature","properties":{"gml_id":"vwRatingUnit.109171","RatingUnitID":109171,"ValuationVisitOrder":"31600","drvRatingUnitLocation":null,"StreetAddressID":48410,"OccupationLevelDescription":"Ground Floor and Above","StreetAddress":"12 Homer Place","LocalityName":"Upper Riccarton","ValuationRollNumber":"23412"},"geometry":{"type":"MultiPolygon","coordinates":[[[[172.57327198588698,-43.5371690961902],[172.573470717239,-43.537435222663895],[172.573059395332,-43.5374672712143],[172.573162187514,-43.537178824113994],[172.573183670558,-43.5371816940252],[172.573194566529,-43.5371822744711],[172.57321639531,-43.5371817073335],[172.57323786886698,-43.53717886166],[172.573248351784,-43.5371765873004],[172.573258566232,-43.5371737808947],[172.57327198588698,-43.5371690961902]]]]}}]}