{"type":"FeatureCollection","features":[{"type":"Feature","properties":{"gml_id":"vwRatingUnit.115036","RatingUnitID":115036,"ValuationVisitOrder":"4000","drvRatingUnitLocation":null,"StreetAddressID":101740,"OccupationLevelDescription":"Ground Floor and Above","StreetAddress":"5/287 Main South Road","LocalityName":"Hornby","ValuationRollNumber":"23434"},"geometry":{"type":"MultiPolygon","coordinates":[[[[172.540224655484,-43.543655603485],[172.540622132518,-43.5436760683211],[172.540621973834,-43.5436777436103],[172.540616247149,-43.543738211714],[172.54021877830496,-43.5437177119442],[172.54021891262798,-43.5437162924062],[172.540224329147,-43.5436590491358],[172.540224655484,-43.543655603485]]]]}}]}