{"type":"FeatureCollection","features":[{"type":"Feature","properties":{"gml_id":"vwRatingUnit.11399","RatingUnitID":11399,"ValuationVisitOrder":"35200","drvRatingUnitLocation":null,"StreetAddressID":58393,"OccupationLevelDescription":"Ground Floor and Above","StreetAddress":"22 Villa Grove","LocalityName":"Upper Riccarton","ValuationRollNumber":"21896"},"geometry":{"type":"MultiPolygon","coordinates":[[[[172.56894909647596,-43.5277755436023],[172.568950650106,-43.527776018394],[172.568949073813,-43.5277787494014],[172.568865938776,-43.527922784606496],[172.56886347129,-43.5279270596261],[172.56884927186496,-43.5279227221598],[172.56860154829,-43.5278470502193],[172.568613867968,-43.5278257146458],[172.56861475042098,-43.5278241863873],[172.568618293693,-43.5278180500442],[172.56862101236996,-43.5278133417565],[172.568627145138,-43.5278027208405],[172.56862727431698,-43.527802497125194],[172.56863157086,-43.5277950562384],[172.568633536261,-43.5277916524937],[172.56863599658,-43.5277873916361],[172.56863979820398,-43.5277808078617],[172.568644848017,-43.5277720624309],[172.568646060144,-43.5277699632294],[172.568649273734,-43.5277643978281],[172.56865232208196,-43.5277591185967],[172.568653699449,-43.5277567332251],[172.568658584017,-43.527748273963695],[172.568662550877,-43.5277414040185],[172.568664845951,-43.5277374293304],[172.56866697659,-43.527733739415],[172.56867110788198,-43.5277265846966],[172.568671402301,-43.5277260748112],[172.568677369811,-43.5277157400625],[172.568680253721,-43.5277107456033],[172.568683631738,-43.5277048954281],[172.568684679429,-43.527703080999],[172.56868674771596,-43.5277015915054],[172.56868984023998,-43.527701603097],[172.568705302863,-43.5277016610537],[172.568711456081,-43.5277061845572],[172.56872382618,-43.5277062309204],[172.568729979399,-43.5277107544229],[172.56877327474996,-43.5277109166812],[172.568779427973,-43.5277154401811],[172.568785613023,-43.5277154633592],[172.568791766248,-43.5277199868584],[172.56880413635,-43.5277200332129],[172.568810289576,-43.52772455671099],[172.56881647462797,-43.5277245798875],[172.568822627856,-43.5277291033849],[172.568834997959,-43.5277291497361],[172.56884115118896,-43.527733673232596],[172.568847336241,-43.5277336964074],[172.568853489472,-43.5277382199031],[172.568896784842,-43.5277383821149],[172.568902938077,-43.527742905608],[172.568915308184,-43.5277429519505],[172.568921461421,-43.5277474754426],[172.568933831529,-43.52774752178309],[172.568938347542,-43.52775084168469],[172.568927838714,-43.5277690471975],[172.56894909647596,-43.5277755436023]]]]}}]}