{"type":"FeatureCollection","features":[{"type":"Feature","properties":{"gml_id":"vwRatingUnit.115570","RatingUnitID":115570,"ValuationVisitOrder":"54900","drvRatingUnitLocation":null,"StreetAddressID":1928,"OccupationLevelDescription":"Ground Floor and Above","StreetAddress":"2/359 Main South Road","LocalityName":"Hornby","ValuationRollNumber":"23434"},"geometry":{"type":"MultiPolygon","coordinates":[[[[172.530799525034,-43.543300159123],[172.530819537906,-43.5434454140662],[172.530571439494,-43.5434605720229],[172.530551465076,-43.5433151642504],[172.530799525034,-43.543300159123]]]]}}]}