{"type":"FeatureCollection","features":[{"type":"Feature","properties":{"gml_id":"vwRatingUnit.117636","RatingUnitID":117636,"ValuationVisitOrder":"44700","drvRatingUnitLocation":null,"StreetAddressID":31487,"OccupationLevelDescription":"Ground Floor and Above","StreetAddress":"1/160 Wales Street","LocalityName":"Oaklands","ValuationRollNumber":"23443"},"geometry":{"type":"MultiPolygon","coordinates":[[[[172.558688680013,-43.5735291513514],[172.558689003765,-43.573528641619795],[172.558690543331,-43.573529158481],[172.558986118789,-43.57362838812859],[172.558986095947,-43.57363154773349],[172.558973651437,-43.5736405009293],[172.558973618902,-43.5736450011949],[172.558967396645,-43.573649477792294],[172.558967331574,-43.5736584783233],[172.558929998007,-43.5736853379005],[172.558929932931,-43.5736943384316],[172.558923710665,-43.5736988150266],[172.558923678127,-43.5737033152921],[172.55891745586,-43.5737077918867],[172.55891739078197,-43.5737167924177],[172.558911168513,-43.5737212690121],[172.55891113597397,-43.573725769277594],[172.558904913704,-43.5737302458716],[172.558904848624,-43.5737392464025],[172.558873737256,-43.5737616293674],[172.558873675912,-43.5737701126227],[172.55859504794,-43.5736765700593],[172.558688680013,-43.5735291513514]]]]}}]}