{"type":"FeatureCollection","features":[{"type":"Feature","properties":{"gml_id":"vwRatingUnit.116653","RatingUnitID":116653,"ValuationVisitOrder":"53100","drvRatingUnitLocation":null,"StreetAddressID":127327,"OccupationLevelDescription":"Ground Floor and Above","StreetAddress":"9 Addison Place","LocalityName":"Oaklands","ValuationRollNumber":"23441"},"geometry":{"type":"MultiPolygon","coordinates":[[[[172.556080455485,-43.5743565051768],[172.556512920342,-43.5743774124893],[172.556515381715,-43.5743504736107],[172.556831355222,-43.57436574731],[172.55680736806096,-43.5746291620235],[172.556491281838,-43.574613878841596],[172.556495115034,-43.5745719409366],[172.556510446588,-43.5744043513201],[172.55607799392,-43.5743834440476],[172.556080455485,-43.5743565051768]]]]}}]}