{"type":"FeatureCollection","features":[{"type":"Feature","properties":{"gml_id":"vwRatingUnit.102361","RatingUnitID":102361,"ValuationVisitOrder":"25600","drvRatingUnitLocation":null,"StreetAddressID":82028,"OccupationLevelDescription":"Ground Floor and Above","StreetAddress":"35 Soleares Avenue","LocalityName":"McCormacks Bay","ValuationRollNumber":"22902"},"geometry":{"type":"MultiPolygon","coordinates":[[[[172.722550562118,-43.5599774776185],[172.722521992129,-43.5600819863895],[172.722503478112,-43.56014973406],[172.722079790047,-43.5602496652975],[172.722126899957,-43.5600774360855],[172.722550562118,-43.5599774776185]]]]}}]}