{"type":"FeatureCollection","features":[{"type":"Feature","properties":{"gml_id":"vwRatingUnit.109911","RatingUnitID":109911,"ValuationVisitOrder":"43100","drvRatingUnitLocation":null,"StreetAddressID":56556,"OccupationLevelDescription":"Ground Floor and Above","StreetAddress":"21 Craven Street","LocalityName":"Sockburn","ValuationRollNumber":"23413"},"geometry":{"type":"MultiPolygon","coordinates":[[[[172.5581124652,-43.53412095253049],[172.558269002817,-43.5342583339386],[172.558341771411,-43.5342686123653],[172.558442786122,-43.534363992274],[172.558545419461,-43.5344304149711],[172.558343372379,-43.5345359407661],[172.558051832915,-43.534240249836],[172.558077040621,-43.5341710577008],[172.5581124652,-43.53412095253049]]]]}}]}