{"type":"FeatureCollection","features":[{"type":"Feature","properties":{"gml_id":"vwRatingUnit.116302","RatingUnitID":116302,"ValuationVisitOrder":"9000","drvRatingUnitLocation":null,"StreetAddressID":106388,"OccupationLevelDescription":"Ground Floor and Above","StreetAddress":"56 Lancewood Drive","LocalityName":"Westlake","ValuationRollNumber":"23441"},"geometry":{"type":"MultiPolygon","coordinates":[[[[172.559505916874,-43.5704876726306],[172.55979428628,-43.5705841101016],[172.55966485988898,-43.5707885008792],[172.559349889402,-43.5706831406859],[172.559505916874,-43.5704876726306]]]]}}]}