{"type":"FeatureCollection","features":[{"type":"Feature","properties":{"gml_id":"vwRatingUnit.102615","RatingUnitID":102615,"ValuationVisitOrder":"53702","drvRatingUnitLocation":null,"StreetAddressID":12835,"OccupationLevelDescription":"Ground Floor and Above","StreetAddress":"19 Selleck Street","LocalityName":"Mt Pleasant","ValuationRollNumber":"22902"},"geometry":{"type":"MultiPolygon","coordinates":[[[[172.725131458426,-43.5645317502212],[172.725357728022,-43.5647447100774],[172.725247734471,-43.5648450924914],[172.725146643913,-43.5647851334444],[172.725124207231,-43.5648035041522],[172.725067051284,-43.56476964312049],[172.724886877027,-43.5649055092576],[172.724857859096,-43.5648763414104],[172.725030565995,-43.5646588226798],[172.725131458426,-43.5645317502212]]]]}}]}