{"type":"FeatureCollection","features":[{"type":"Feature","properties":{"gml_id":"vwRatingUnit.104356","RatingUnitID":104356,"ValuationVisitOrder":"55900","drvRatingUnitLocation":null,"StreetAddressID":46589,"OccupationLevelDescription":"Ground Floor and Above","StreetAddress":"114 Esplanade","LocalityName":"Sumner","ValuationRollNumber":"22920"},"geometry":{"type":"MultiPolygon","coordinates":[[[[172.76585584557,-43.5725419878297],[172.7660116733,-43.5724031292461],[172.766264474474,-43.5724917009638],[172.766067147364,-43.572667404792696],[172.76585584557,-43.5725419878297]]]]}}]}