{"type":"FeatureCollection","features":[{"type":"Feature","properties":{"gml_id":"vwRatingUnit.108049","RatingUnitID":108049,"ValuationVisitOrder":"36100","drvRatingUnitLocation":null,"StreetAddressID":66092,"OccupationLevelDescription":"Ground Floor and Above","StreetAddress":"26E Warren Crescent","LocalityName":"Hillmorton","ValuationRollNumber":"22980"},"geometry":{"type":"MultiPolygon","coordinates":[[[[172.58645536807697,-43.5557402105883],[172.586471872726,-43.5557117463467],[172.586492732586,-43.5557181397441],[172.586476566118,-43.555746011150596],[172.58645536807697,-43.5557402105883]]]]}}]}