{"type":"FeatureCollection","features":[{"type":"Feature","properties":{"gml_id":"vwRatingUnit.115697","RatingUnitID":115697,"ValuationVisitOrder":"66100","drvRatingUnitLocation":null,"StreetAddressID":9783,"OccupationLevelDescription":"Ground Floor and Above","StreetAddress":"98A Oakhampton Street","LocalityName":"Hornby","ValuationRollNumber":"23434"},"geometry":{"type":"MultiPolygon","coordinates":[[[[172.535552152925,-43.5494776080703],[172.535679726894,-43.5495811165268],[172.53552917891,-43.5496798973624],[172.535402024694,-43.5495760710367],[172.535551165677,-43.549478255567394],[172.535552152925,-43.5494776080703]]]]}}]}