{"type":"FeatureCollection","features":[{"type":"Feature","properties":{"gml_id":"vwRatingUnit.107734","RatingUnitID":107734,"ValuationVisitOrder":"10308","drvRatingUnitLocation":null,"StreetAddressID":82885,"OccupationLevelDescription":"Ground Floor and Above","StreetAddress":"36 Fusilier Street","LocalityName":"Hoon Hay","ValuationRollNumber":"22980"},"geometry":{"type":"MultiPolygon","coordinates":[[[[172.592019797954,-43.5590237392889],[172.592192674737,-43.559181342314],[172.59194816709,-43.5593226349896],[172.591889267411,-43.5592687549334],[172.591877413754,-43.5592590101443],[172.591864216936,-43.5592502326801],[172.591849837309,-43.559242504115],[172.591834410413,-43.5592359149362],[172.591818121351,-43.5592305468054],[172.591801143093,-43.5592264453388],[172.591783673301,-43.5592236652406],[172.591776820219,-43.5592231189259],[172.591787939291,-43.5591576777733],[172.592019797954,-43.5590237392889]]]]}}]}