{"type":"FeatureCollection","features":[{"type":"Feature","properties":{"gml_id":"vwRatingUnit.117431","RatingUnitID":117431,"ValuationVisitOrder":"24300","drvRatingUnitLocation":null,"StreetAddressID":96175,"OccupationLevelDescription":"Ground Floor and Above","StreetAddress":"46 Balcairn Street","LocalityName":"Oaklands","ValuationRollNumber":"23443"},"geometry":{"type":"MultiPolygon","coordinates":[[[[172.563392676284,-43.5731140199031],[172.563564909507,-43.5731718356688],[172.563359292436,-43.5734956883182],[172.563187058483,-43.5734378722562],[172.563392676284,-43.5731140199031]]]]}}]}