{"type":"FeatureCollection","features":[{"type":"Feature","properties":{"gml_id":"vwRatingUnit.102448","RatingUnitID":102448,"ValuationVisitOrder":"34300","drvRatingUnitLocation":null,"StreetAddressID":13570,"OccupationLevelDescription":"Ground Floor and Above","StreetAddress":"18 Maffeys Road","LocalityName":"McCormacks Bay","ValuationRollNumber":"22902"},"geometry":{"type":"MultiPolygon","coordinates":[[[[172.722633943145,-43.5596724691789],[172.72279427784997,-43.5596733492366],[172.722787912775,-43.5597504416947],[172.72287884857,-43.5597548182278],[172.722882882525,-43.5597059189043],[172.72319178541,-43.559747864364],[172.723054972425,-43.55975103752429],[172.722936473496,-43.55978766451929],[172.722831582681,-43.5597956302962],[172.722801110976,-43.5599074970237],[172.722746334462,-43.560108626866196],[172.723175764865,-43.5601666396388],[172.72322147467,-43.55998859229379],[172.723838036497,-43.5600719555171],[172.72383712934598,-43.5600754995645],[172.72322542855798,-43.5599927870275],[172.723179731139,-43.5601708344034],[172.722875513025,-43.56012973723279],[172.722521992129,-43.5600819863895],[172.722550562118,-43.5599774776185],[172.722597658242,-43.5598052211805],[172.722631652479,-43.5596808611928],[172.722633943145,-43.5596724691789]]]]}}]}