{"type":"FeatureCollection","features":[{"type":"Feature","properties":{"gml_id":"vwRatingUnit.11400","RatingUnitID":11400,"ValuationVisitOrder":"35300","drvRatingUnitLocation":null,"StreetAddressID":62023,"OccupationLevelDescription":"Ground Floor and Above","StreetAddress":"24 Villa Grove","LocalityName":"Upper Riccarton","ValuationRollNumber":"21896"},"geometry":{"type":"MultiPolygon","coordinates":[[[[172.569031873875,-43.5275888161938],[172.56904360145697,-43.52759575479149],[172.569052293099,-43.5275999277484],[172.568982172391,-43.5277214200361],[172.568998738207,-43.5277509149661],[172.569397295321,-43.5278726228466],[172.569421555281,-43.527865404912],[172.56930766441997,-43.5280627460237],[172.56886347142597,-43.5279270595262],[172.56895065004397,-43.5277760183139],[172.568927838753,-43.5277690471874],[172.569031873875,-43.5275888161938]]]]}}]}