{"type":"FeatureCollection","features":[{"type":"Feature","properties":{"gml_id":"vwRatingUnit.117600","RatingUnitID":117600,"ValuationVisitOrder":"41800","drvRatingUnitLocation":null,"StreetAddressID":149251,"OccupationLevelDescription":"Ground Floor and Above","StreetAddress":"19 Checketts Avenue","LocalityName":"Oaklands","ValuationRollNumber":"23443"},"geometry":{"type":"MultiPolygon","coordinates":[[[[172.564597678332,-43.5755105872239],[172.564786533528,-43.575212963339496],[172.564786708885,-43.5752126871921],[172.564787543078,-43.5752129671484],[172.564960613665,-43.575271058929694],[172.564771646603,-43.5755734507139],[172.564597678332,-43.5755105872239]]]]}}]}