{"type":"FeatureCollection","features":[{"type":"Feature","properties":{"gml_id":"vwRatingUnit.104138","RatingUnitID":104138,"ValuationVisitOrder":"38300","drvRatingUnitLocation":null,"StreetAddressID":65098,"OccupationLevelDescription":"Ground Floor and Above","StreetAddress":"26 Menzies Street","LocalityName":"Sumner","ValuationRollNumber":"22920"},"geometry":{"type":"MultiPolygon","coordinates":[[[[172.763385622531,-43.5740751641939],[172.763642908349,-43.5742277439753],[172.76353443684997,-43.574324403095794],[172.763277150922,-43.5741718140775],[172.763385622531,-43.5740751641939]]]]}}]}