{"type":"FeatureCollection","features":[{"type":"Feature","properties":{"gml_id":"vwRatingUnit.114798","RatingUnitID":114798,"ValuationVisitOrder":"60900","drvRatingUnitLocation":null,"StreetAddressID":102952,"OccupationLevelDescription":"Ground Floor and Above","StreetAddress":"51 Blankney Street","LocalityName":"Hornby","ValuationRollNumber":"23433"},"geometry":{"type":"MultiPolygon","coordinates":[[[[172.53152113325,-43.5519527127015],[172.531641801062,-43.5520500438483],[172.531276654254,-43.5522895214273],[172.531155974166,-43.5521921898529],[172.53152113325,-43.5519527127015]]]]}}]}