{"type":"FeatureCollection","features":[{"type":"Feature","properties":{"gml_id":"vwRatingUnit.118086","RatingUnitID":118086,"ValuationVisitOrder":"28400","drvRatingUnitLocation":null,"StreetAddressID":121350,"OccupationLevelDescription":"Ground Floor and Above","StreetAddress":"78 Wales Street","LocalityName":"Oaklands","ValuationRollNumber":"23444"},"geometry":{"type":"MultiPolygon","coordinates":[[[[172.559436391392,-43.5785571165174],[172.559893872454,-43.5785967648481],[172.559876338055,-43.5787036090471],[172.559869940875,-43.578742566956],[172.559412434034,-43.5787029094456],[172.559436391392,-43.5785571165174]]]]}}]}