{"type":"FeatureCollection","features":[{"type":"Feature","properties":{"gml_id":"vwRatingUnit.102092","RatingUnitID":102092,"ValuationVisitOrder":"90200","drvRatingUnitLocation":null,"StreetAddressID":57147,"OccupationLevelDescription":"Ground Floor and Above","StreetAddress":"218 Mt Pleasant Road","LocalityName":"Mt Pleasant","ValuationRollNumber":"22901"},"geometry":{"type":"MultiPolygon","coordinates":[[[[172.720688101277,-43.5677451020368],[172.720913292558,-43.5679522354951],[172.72100208361397,-43.5680900410968],[172.720657503944,-43.5682074664773],[172.720480844713,-43.567933404987],[172.720688101277,-43.5677451020368]]]]}}]}