{"type":"FeatureCollection","features":[{"type":"Feature","properties":{"gml_id":"vwRatingUnit.114426","RatingUnitID":114426,"ValuationVisitOrder":"21600","drvRatingUnitLocation":null,"StreetAddressID":1275,"OccupationLevelDescription":"Ground Floor and Above","StreetAddress":"2/6 Trevor Street","LocalityName":"Hornby","ValuationRollNumber":"23433"},"geometry":{"type":"MultiPolygon","coordinates":[[[[172.533757944012,-43.5512682536434],[172.533793139529,-43.551296634051],[172.533972086102,-43.5514409302216],[172.53397444871,-43.55144283535999],[172.533964411161,-43.5514494733433],[172.533961036476,-43.551451686927294],[172.533824350473,-43.5515413365588],[172.533811873167,-43.5515495189649],[172.53379107944497,-43.5515631550997],[172.533786955182,-43.551559829395],[172.53373503681,-43.5515179645777],[172.533707008065,-43.55149536329769],[172.533673010684,-43.5514679491233],[172.53363662264098,-43.5514386069693],[172.533757944012,-43.5512682536434]]]]}}]}