{"type":"FeatureCollection","features":[{"type":"Feature","properties":{"gml_id":"vwRatingUnit.100338","RatingUnitID":100338,"ValuationVisitOrder":"7500","drvRatingUnitLocation":null,"StreetAddressID":26922,"OccupationLevelDescription":"Ground Floor and Above","StreetAddress":"13 Wakatu Avenue","LocalityName":"Moncks Bay","ValuationRollNumber":"22900"},"geometry":{"type":"MultiPolygon","coordinates":[[[[172.74114201544398,-43.5655994392535],[172.741732881965,-43.5657423845696],[172.741693640787,-43.5658281076918],[172.741102773024,-43.565685279189495],[172.74114201544398,-43.5655994392535]]]]}}]}