{"type":"FeatureCollection","features":[{"type":"Feature","properties":{"gml_id":"vwRatingUnit.112561","RatingUnitID":112561,"ValuationVisitOrder":"57700","drvRatingUnitLocation":null,"StreetAddressID":79053,"OccupationLevelDescription":"Ground Floor and Above","StreetAddress":"33 Amuri Street","LocalityName":"Hei Hei","ValuationRollNumber":"23421"},"geometry":{"type":"MultiPolygon","coordinates":[[[[172.518793406682,-43.5362457587259],[172.519244006568,-43.5363835827361],[172.519242613273,-43.5363908226779],[172.519241886733,-43.5364045100806],[172.51924435343798,-43.5364290299549],[172.519244980402,-43.5364468004381],[172.519243714606,-43.5364645450146],[172.519240593876,-43.5364821738329],[172.519235606761,-43.53649956983269],[172.519228803526,-43.5365166342134],[172.51922023465298,-43.5365332411724],[172.518900759791,-43.5364356143355],[172.518716447795,-43.5363794160728],[172.518793406682,-43.5362457587259]]]]}}]}