{"type":"FeatureCollection","features":[{"type":"Feature","properties":{"gml_id":"vwRatingUnit.108104","RatingUnitID":108104,"ValuationVisitOrder":"42100","drvRatingUnitLocation":null,"StreetAddressID":85052,"OccupationLevelDescription":"Ground Floor and Above","StreetAddress":"38 Charles Upham Avenue","LocalityName":"Hillmorton","ValuationRollNumber":"22980"},"geometry":{"type":"MultiPolygon","coordinates":[[[[172.58255368967997,-43.555294195574],[172.582789042362,-43.5553487375825],[172.582599081999,-43.5556436714997],[172.58250247791597,-43.5556124128593],[172.582403948777,-43.555583964406495],[172.58255368967997,-43.555294195574]]]]}}]}