{"type":"FeatureCollection","features":[{"type":"Feature","properties":{"gml_id":"vwRatingUnit.110277","RatingUnitID":110277,"ValuationVisitOrder":"70300","drvRatingUnitLocation":null,"StreetAddressID":63420,"OccupationLevelDescription":"Ground Floor and Above","StreetAddress":"25 O'Briens Road","LocalityName":"Sockburn","ValuationRollNumber":"23413"},"geometry":{"type":"MultiPolygon","coordinates":[[[[172.546677805638,-43.5346478631008],[172.546787631178,-43.53475933968319],[172.54628126424,-43.5350233305349],[172.54617143914,-43.5349118534739],[172.546677805638,-43.5346478631008]]]]}}]}