{"type":"FeatureCollection","features":[{"type":"Feature","properties":{"gml_id":"vwRatingUnit.102102","RatingUnitID":102102,"ValuationVisitOrder":"91000","drvRatingUnitLocation":null,"StreetAddressID":139483,"OccupationLevelDescription":"Ground Floor and Above","StreetAddress":"1/204 Mt Pleasant Road","LocalityName":"Mt Pleasant","ValuationRollNumber":"22901"},"geometry":{"type":"MultiPolygon","coordinates":[[[[172.719214784797,-43.56773717658089],[172.719181796296,-43.5676692300676],[172.719348343336,-43.56759157325849],[172.719470425519,-43.56753465026299],[172.719478580919,-43.5675308478604],[172.719480844902,-43.5675346755633],[172.719580491035,-43.5677031510926],[172.719473095304,-43.567733242619],[172.719423412032,-43.5676768220318],[172.719373293648,-43.5676985364139],[172.71936686458298,-43.5676926527915],[172.71933371808998,-43.56770548188259],[172.71932408258897,-43.5676948960636],[172.719214784797,-43.56773717658089]]]]}}]}