{"type":"FeatureCollection","features":[{"type":"Feature","properties":{"gml_id":"vwRatingUnit.102549","RatingUnitID":102549,"ValuationVisitOrder":"47600","drvRatingUnitLocation":null,"StreetAddressID":43830,"OccupationLevelDescription":"Ground Floor and Above","StreetAddress":"10A La Costa Lane","LocalityName":"Mt Pleasant","ValuationRollNumber":"22902"},"geometry":{"type":"MultiPolygon","coordinates":[[[[172.726056764067,-43.5622815187015],[172.72598587931998,-43.5624444673509],[172.725608752218,-43.5624957931252],[172.725594472881,-43.5623792561904],[172.725537081119,-43.5623597596508],[172.725349325942,-43.5623749652496],[172.72534460053,-43.5623441091544],[172.72540650000596,-43.5623355258166],[172.725430922934,-43.5623321366741],[172.726056764067,-43.5622815187015]]]]}}]}