{"type":"FeatureCollection","features":[{"type":"Feature","properties":{"gml_id":"vwRatingUnit.104118","RatingUnitID":104118,"ValuationVisitOrder":"36300","drvRatingUnitLocation":null,"StreetAddressID":125569,"OccupationLevelDescription":"Ground Floor and Above","StreetAddress":"84 Wiggins Street","LocalityName":"Sumner","ValuationRollNumber":"22920"},"geometry":{"type":"MultiPolygon","coordinates":[[[[172.765515016968,-43.5748569421825],[172.765848371503,-43.5750548173575],[172.76585194046297,-43.57505710169589],[172.76585948108098,-43.575063192263194],[172.76586553295,-43.5750701168576],[172.765869911134,-43.575077677095294],[172.765872517426,-43.575085656767],[172.765873253614,-43.575093839663],[172.765872120561,-43.575102000774294],[172.765869131543,-43.5751099061158],[172.765864386386,-43.5751173488795],[172.765858009784,-43.5751240953058],[172.765792731903,-43.575182250026195],[172.76540688288398,-43.5749532706951],[172.765515016968,-43.5748569421825]]]]}}]}