{"type":"FeatureCollection","features":[{"type":"Feature","properties":{"gml_id":"vwRatingUnit.106014","RatingUnitID":106014,"ValuationVisitOrder":"55200","drvRatingUnitLocation":null,"StreetAddressID":27323,"OccupationLevelDescription":"Ground Floor and Above","StreetAddress":"131 Sparks Road","LocalityName":"Hoon Hay","ValuationRollNumber":"22952"},"geometry":{"type":"MultiPolygon","coordinates":[[[[172.603265131697,-43.5655218037762],[172.603497867517,-43.565968769632],[172.60332121301897,-43.5660173514097],[172.603088552685,-43.5655703674494],[172.603265131697,-43.5655218037762]]]]}}]}