{"type":"FeatureCollection","features":[{"type":"Feature","properties":{"gml_id":"vwRatingUnit.104253","RatingUnitID":104253,"ValuationVisitOrder":"47700","drvRatingUnitLocation":null,"StreetAddressID":51534,"OccupationLevelDescription":"Ground Floor and Above","StreetAddress":"2/69 Wiggins Street","LocalityName":"Sumner","ValuationRollNumber":"22920"},"geometry":{"type":"MultiPolygon","coordinates":[[[[172.76554444603,-43.5743982719194],[172.765775366949,-43.57419247347559],[172.765776225691,-43.574191708234],[172.765777522183,-43.5741924778406],[172.765871006698,-43.5742479656429],[172.765872677339,-43.5742489574451],[172.765870997161,-43.5742504549971],[172.765643846374,-43.574452893414],[172.765628430043,-43.57446663251459],[172.765534620124,-43.5744070288722],[172.76554444603,-43.5743982719194]]]]}}]}