{"type":"FeatureCollection","features":[{"type":"Feature","properties":{"gml_id":"vwRatingUnit.11679","RatingUnitID":11679,"ValuationVisitOrder":"69000","drvRatingUnitLocation":null,"StreetAddressID":92140,"OccupationLevelDescription":"Ground Floor and Above","StreetAddress":"41 Worthy Street","LocalityName":"Upper Riccarton","ValuationRollNumber":"21896"},"geometry":{"type":"MultiPolygon","coordinates":[[[[172.560601775977,-43.5262236762391],[172.560854053551,-43.5263008409716],[172.560694931083,-43.5265762551057],[172.560442664867,-43.5264990990855],[172.560601775977,-43.5262236762391]]]]}}]}