{"type":"FeatureCollection","features":[{"type":"Feature","properties":{"gml_id":"vwRatingUnit.104291","RatingUnitID":104291,"ValuationVisitOrder":"50900","drvRatingUnitLocation":null,"StreetAddressID":213061,"OccupationLevelDescription":"Ground Floor and Above","StreetAddress":"130 Nayland Street","LocalityName":"Sumner","ValuationRollNumber":"22920"},"geometry":{"type":"MultiPolygon","coordinates":[[[[172.766889244381,-43.5744916919548],[172.766998282179,-43.57439452684869],[172.767006128536,-43.5743886203623],[172.767015208953,-43.5743837334121],[172.767025287639,-43.5743800185301],[172.7670360548,-43.5743775560962],[172.767047250128,-43.5743764355902],[172.76705853931,-43.5743766743397],[172.767069612828,-43.5743782807216],[172.767080173817,-43.574381191135],[172.767089925448,-43.5743853329786],[172.767093841552,-43.5743874829714],[172.767427853536,-43.5745856519203],[172.767275849417,-43.57472110887309],[172.766889244381,-43.5744916919548]]]]}}]}