{"type":"FeatureCollection","features":[{"type":"Feature","properties":{"gml_id":"vwRatingUnit.118035","RatingUnitID":118035,"ValuationVisitOrder":"23400","drvRatingUnitLocation":null,"StreetAddressID":98998,"OccupationLevelDescription":"Ground Floor and Above","StreetAddress":"49 Santa Rosa Avenue","LocalityName":"Oaklands","ValuationRollNumber":"23444"},"geometry":{"type":"MultiPolygon","coordinates":[[[[172.559648510492,-43.5765487387918],[172.559733081177,-43.5766996534916],[172.559236653174,-43.5768468105463],[172.559136911558,-43.57674811397919],[172.559099640702,-43.5767112303839],[172.559648510492,-43.5765487387918]]]]}}]}