{"type":"FeatureCollection","features":[{"type":"Feature","properties":{"gml_id":"vwRatingUnit.10225","RatingUnitID":10225,"ValuationVisitOrder":"3200","drvRatingUnitLocation":null,"StreetAddressID":63812,"OccupationLevelDescription":"Ground Floor and Above","StreetAddress":"25 Wittys Road","LocalityName":"Avonhead","ValuationRollNumber":"21895"},"geometry":{"type":"MultiPolygon","coordinates":[[[[172.556266738097,-43.5249591792588],[172.55626903713397,-43.52495849686199],[172.556271324774,-43.5249591969482],[172.55650017836197,-43.5250292326878],[172.556499344335,-43.5250298331704],[172.5564993116,-43.5250343334988],[172.556496202842,-43.5250365717428],[172.55649001806,-43.525036547902],[172.556486909301,-43.5250387861457],[172.556486876565,-43.5250432864741],[172.556480659046,-43.5250477629613],[172.556480593573,-43.5250567636181],[172.556474376052,-43.5250612401049],[172.556474343315,-43.5250657404333],[172.55646812579297,-43.5250702169197],[172.556467994843,-43.5250882182333],[172.556461777318,-43.5250926947194],[172.55646174457996,-43.5250971950477],[172.55645552705397,-43.5251016715335],[172.556455494316,-43.5251061718619],[172.556449276788,-43.5251106483473],[172.55644921131,-43.52511964900399],[172.556442993781,-43.5251241254891],[172.556442961042,-43.5251286258174],[172.556436743511,-43.5251331023022],[172.556436678031,-43.5251421029588],[172.556430460499,-43.5251465794432],[172.556430427758,-43.5251510797715],[172.556424210224,-43.5251555562556],[172.556424177484,-43.5251600565839],[172.556411742412,-43.525169009551],[172.55641170967,-43.5251735098793],[172.556410279878,-43.5251745392968],[172.556138297928,-43.5250912960181],[172.556203867948,-43.5249778402544],[172.556266738097,-43.5249591792588]]]]}}]}