{"type":"FeatureCollection","features":[{"type":"Feature","properties":{"gml_id":"vwRatingUnit.106905","RatingUnitID":106905,"ValuationVisitOrder":"900","drvRatingUnitLocation":null,"StreetAddressID":71693,"OccupationLevelDescription":"Ground Floor and Above","StreetAddress":"3 Redgrave Street","LocalityName":"Hoon Hay","ValuationRollNumber":"22970"},"geometry":{"type":"MultiPolygon","coordinates":[[[[172.58812911515298,-43.5583001197989],[172.588074515874,-43.55876289720549],[172.588034674385,-43.5587611976784],[172.587998806914,-43.558761168484],[172.587962979707,-43.558762507538994],[172.58790004499497,-43.5587660538636],[172.587866909904,-43.55845502183809],[172.587978969569,-43.5583888167864],[172.58812911515298,-43.5583001197989]]]]}}]}