{"type":"FeatureCollection","features":[{"type":"Feature","properties":{"gml_id":"vwRatingUnit.107811","RatingUnitID":107811,"ValuationVisitOrder":"15500","drvRatingUnitLocation":null,"StreetAddressID":36003,"OccupationLevelDescription":"Ground Floor and Above","StreetAddress":"1/44 Hoon Hay Road","LocalityName":"Hoon Hay","ValuationRollNumber":"22980"},"geometry":{"type":"MultiPolygon","coordinates":[[[[172.597547252515,-43.5569613868704],[172.597667339527,-43.556841295083494],[172.597683534568,-43.5567952407509],[172.597486850091,-43.5566901181054],[172.597697474772,-43.5565695045028],[172.597682928428,-43.5565616081819],[172.597394618877,-43.556729400412],[172.597374797913,-43.5567988589986],[172.597547252515,-43.5569613868704]]]]}}]}