{"type":"FeatureCollection","features":[{"type":"Feature","properties":{"gml_id":"vwRatingUnit.105263","RatingUnitID":105263,"ValuationVisitOrder":"25700","drvRatingUnitLocation":null,"StreetAddressID":116449,"OccupationLevelDescription":"Ground Floor and Above","StreetAddress":"7 Greenpark Street","LocalityName":"Hoon Hay","ValuationRollNumber":"22951"},"geometry":{"type":"MultiPolygon","coordinates":[[[[172.610443729886,-43.5626714069983],[172.610595520339,-43.562961364569894],[172.610378661063,-43.5630262116677],[172.610368976236,-43.5630077094847],[172.610235260332,-43.56275223142679],[172.610443729886,-43.5626714069983]]]]}}]}