{"type":"FeatureCollection","features":[{"type":"Feature","properties":{"gml_id":"vwRatingUnit.115052","RatingUnitID":115052,"ValuationVisitOrder":"6000","drvRatingUnitLocation":null,"StreetAddressID":59557,"OccupationLevelDescription":"Ground Floor and Above","StreetAddress":"23 Garvins Road","LocalityName":"Hornby","ValuationRollNumber":"23434"},"geometry":{"type":"MultiPolygon","coordinates":[[[[172.541042778752,-43.5445574400355],[172.541192691584,-43.5446738157725],[172.540829473455,-43.54492112564879],[172.54067973325,-43.544804840143094],[172.541042778752,-43.5445574400355]]]]}}]}