{"type":"FeatureCollection","features":[{"type":"Feature","properties":{"gml_id":"vwRatingUnit.113220","RatingUnitID":113220,"ValuationVisitOrder":"17000","drvRatingUnitLocation":null,"StreetAddressID":85296,"OccupationLevelDescription":"Ground Floor and Above","StreetAddress":"38 Mortlake Street","LocalityName":"Islington","ValuationRollNumber":"23431"},"geometry":{"type":"MultiPolygon","coordinates":[[[[172.506820537412,-43.5371780184949],[172.506924893584,-43.5373424180856],[172.506473073325,-43.537493840391996],[172.50636892894,-43.5373293782885],[172.506820537412,-43.5371780184949]]]]}}]}