{"type":"FeatureCollection","features":[{"type":"Feature","properties":{"gml_id":"vwRatingUnit.102823","RatingUnitID":102823,"ValuationVisitOrder":"78400","drvRatingUnitLocation":null,"StreetAddressID":82717,"OccupationLevelDescription":"Ground Floor and Above","StreetAddress":"36 Belleview Terrace","LocalityName":"Mt Pleasant","ValuationRollNumber":"22902"},"geometry":{"type":"MultiPolygon","coordinates":[[[[172.71970500879,-43.5696546773229],[172.71998177407596,-43.5695593037239],[172.720256425045,-43.5695794101475],[172.71993293075997,-43.5700040995306],[172.71970500879,-43.5696546773229]]]]}}]}