{"type":"FeatureCollection","features":[{"type":"Feature","properties":{"gml_id":"vwRatingUnit.11190","RatingUnitID":11190,"ValuationVisitOrder":"14600","drvRatingUnitLocation":null,"StreetAddressID":4935,"OccupationLevelDescription":"Ground Floor and Above","StreetAddress":"2/33 Bowen Street","LocalityName":"Upper Riccarton","ValuationRollNumber":"21896"},"geometry":{"type":"MultiPolygon","coordinates":[[[[172.569717825473,-43.5296783627403],[172.569712131881,-43.5296766224775],[172.569637390773,-43.5296537776042],[172.56962751202096,-43.5296507578455],[172.569622695157,-43.5296492854153],[172.569616977695,-43.529647537687595],[172.569607790214,-43.5296447292358],[172.569606443369,-43.5296443175288],[172.56959288527298,-43.529640173054396],[172.569585374721,-43.529637877208295],[172.569577980334,-43.529635616871],[172.569574840399,-43.5296346570466],[172.56956307539699,-43.5296310606856],[172.569553771757,-43.5296282167202],[172.569548170462,-43.5296265044983],[172.569543237438,-43.5296249965555],[172.56953326553,-43.52962194830909],[172.569522168804,-43.5296185562233],[172.56951836059898,-43.5296173921178],[172.569511634488,-43.5296153360557],[172.569503455671,-43.5296128359247],[172.56949056586,-43.5296088957176],[172.569488550746,-43.5296082797296],[172.5694885201,-43.5296082703618],[172.56949206718596,-43.52960212642179],[172.569496292693,-43.5295948073785],[172.569549237814,-43.5295031004535],[172.56954958584,-43.5295024976331],[172.569561761739,-43.5294814075584],[172.569562859349,-43.529479506369796],[172.569574285655,-43.52945971466189],[172.569576132848,-43.529456515105],[172.56958054761,-43.5294488682131],[172.569580557345,-43.5294488513497],[172.56958680956197,-43.529438021763994],[172.569589406337,-43.5294335238386],[172.569593071512,-43.529427175314495],[172.569593830831,-43.5294258600828],[172.56959933346,-43.5294163288646],[172.569604203408,-43.5294078935252],[172.569607775831,-43.5294017055487],[172.569621085176,-43.5294017553241],[172.569627238634,-43.5294062787746],[172.569639609078,-43.5294063250366],[172.569645762537,-43.5294108484861],[172.56965194776,-43.5294108716163],[172.569713482411,-43.5294561060891],[172.569719667638,-43.5294561292156],[172.569725821109,-43.5294606526607],[172.569732006336,-43.529460675786495],[172.56973815980797,-43.5294651992309],[172.569744345036,-43.5294652223561],[172.569750498509,-43.5294697457998],[172.569762868966,-43.5294697920484],[172.569769022442,-43.5294743154911],[172.569775207671,-43.5294743386146],[172.569781361147,-43.5294788620566],[172.569787546376,-43.5294788851795],[172.569819466164,-43.5295023495065],[172.569718815977,-43.529676647469],[172.569717825473,-43.5296783627403]]]]}}]}