{"type":"FeatureCollection","features":[{"type":"Feature","properties":{"gml_id":"vwRatingUnit.10363","RatingUnitID":10363,"ValuationVisitOrder":"13200","drvRatingUnitLocation":null,"StreetAddressID":56905,"OccupationLevelDescription":"Ground Floor and Above","StreetAddress":"214 Yaldhurst Road","LocalityName":"Avonhead","ValuationRollNumber":"21895"},"geometry":{"type":"MultiPolygon","coordinates":[[[[172.5519749068,-43.5252640792223],[172.551992198267,-43.5252693670849],[172.55218719304096,-43.5253290461899],[172.552203805735,-43.5253341243573],[172.552010480206,-43.5256684848717],[172.551781543185,-43.5255984302215],[172.5519749068,-43.5252640792223]]]]}}]}