{"type":"FeatureCollection","features":[{"type":"Feature","properties":{"gml_id":"vwRatingUnit.114547","RatingUnitID":114547,"ValuationVisitOrder":"34300","drvRatingUnitLocation":null,"StreetAddressID":39465,"OccupationLevelDescription":"Ground Floor and Above","StreetAddress":"1/96 Amyes Road","LocalityName":"Hornby","ValuationRollNumber":"23433"},"geometry":{"type":"MultiPolygon","coordinates":[[[[172.53220998659,-43.5514440156921],[172.532213080325,-43.5514440282547],[172.532237968286,-43.5514261275452],[172.532242180776,-43.5514261446497],[172.532194009283,-43.5514577451243],[172.53218081669,-43.5514663994491],[172.53217399845298,-43.5514708722025],[172.53212325303997,-43.5515041610872],[172.532112634278,-43.5515111269657],[172.531985087562,-43.5515947970535],[172.531981124281,-43.5515916007191],[172.531899288193,-43.5515256008689],[172.531834865168,-43.5514736468551],[172.53205931445,-43.55132640909859],[172.53206544436,-43.5513309176066],[172.532071631819,-43.5513309427396],[172.53211162586,-43.551360358059],[172.532111591331,-43.55136485836099],[172.532117744264,-43.5513693837934],[172.532117709735,-43.55137388409539],[172.532210003851,-43.5514417655412],[172.53220998659,-43.5514440156921]]]]}}]}