{"type":"FeatureCollection","features":[{"type":"Feature","properties":{"gml_id":"vwRatingUnit.107830","RatingUnitID":107830,"ValuationVisitOrder":"17100","drvRatingUnitLocation":null,"StreetAddressID":7412,"OccupationLevelDescription":"Ground Floor and Above","StreetAddress":"2/14 Upland Road","LocalityName":"Hoon Hay","ValuationRollNumber":"22980"},"geometry":{"type":"MultiPolygon","coordinates":[[[[172.59480899704,-43.5566111587599],[172.594642970881,-43.5564594070262],[172.594494749234,-43.5565624123765],[172.594841050253,-43.5568789540419],[172.594899760744,-43.5568838132289],[172.59470123591498,-43.5567028215315],[172.59471329494096,-43.556669151771],[172.594715062477,-43.5566680806914],[172.59480899704,-43.5566111587599]]]]}}]}