{"type":"FeatureCollection","features":[{"type":"Feature","properties":{"gml_id":"vwRatingUnit.117975","RatingUnitID":117975,"ValuationVisitOrder":"17300","drvRatingUnitLocation":null,"StreetAddressID":103049,"OccupationLevelDescription":"Ground Floor and Above","StreetAddress":"51 Fern Drive","LocalityName":"Oaklands","ValuationRollNumber":"23444"},"geometry":{"type":"MultiPolygon","coordinates":[[[[172.562602538853,-43.5768029350386],[172.562636787264,-43.5768144418575],[172.562430052604,-43.5771398366054],[172.562268719213,-43.5771989536239],[172.562202873081,-43.5772757863069],[172.56203869673996,-43.5772013928706],[172.561869621715,-43.5771247754015],[172.561779093167,-43.5770837480838],[172.56185909615,-43.5769578612239],[172.56187474872698,-43.5769332135686],[172.562043033608,-43.5770094500089],[172.562209184056,-43.5770847150143],[172.562322604393,-43.5771360987164],[172.562411594049,-43.5771034845068],[172.562602538853,-43.5768029350386]]]]}}]}