{"type":"FeatureCollection","features":[{"type":"Feature","properties":{"gml_id":"vwRatingUnit.101035","RatingUnitID":101035,"ValuationVisitOrder":"51101","drvRatingUnitLocation":null,"StreetAddressID":53343,"OccupationLevelDescription":"Ground Floor and Above","StreetAddress":"20 Augusta Street","LocalityName":"Redcliffs","ValuationRollNumber":"22900"},"geometry":{"type":"MultiPolygon","coordinates":[[[[172.735979865068,-43.5635737385063],[172.736263521069,-43.5637934411958],[172.736127327285,-43.5638863215724],[172.736112721302,-43.563875010553396],[172.735843745363,-43.5636666727259],[172.735979865068,-43.5635737385063]]]]}}]}