{"type":"FeatureCollection","features":[{"type":"Feature","properties":{"gml_id":"vwRatingUnit.113608","RatingUnitID":113608,"ValuationVisitOrder":"602","drvRatingUnitLocation":null,"StreetAddressID":70937,"OccupationLevelDescription":"Ground Floor and Above","StreetAddress":"3 Chestnut Avenue","LocalityName":"Hornby","ValuationRollNumber":"23432"},"geometry":{"type":"MultiPolygon","coordinates":[[[[172.526835522456,-43.5396161626057],[172.526860723796,-43.539862018376],[172.526615107745,-43.5398715758567],[172.526610976256,-43.5398347810974],[172.52658948205797,-43.5396326939927],[172.526835522456,-43.5396161626057]]]]}}]}