{"type":"FeatureCollection","features":[{"type":"Feature","properties":{"gml_id":"vwRatingUnit.116523","RatingUnitID":116523,"ValuationVisitOrder":"27900","drvRatingUnitLocation":null,"StreetAddressID":20478,"OccupationLevelDescription":"Ground Floor and Above","StreetAddress":"155 Dunbars Road","LocalityName":"Oaklands","ValuationRollNumber":"23441"},"geometry":{"type":"MultiPolygon","coordinates":[[[[172.55361054163,-43.56576049865289],[172.553657628288,-43.5657740291592],[172.553562962771,-43.566171066357],[172.553813713469,-43.566202675802],[172.553746044757,-43.566486461401],[172.553584562301,-43.5664299142356],[172.553361470354,-43.5663517872661],[172.553476775814,-43.5661689684296],[172.553510422975,-43.566180394755],[172.55361054163,-43.56576049865289]]]]}}]}