{"type":"FeatureCollection","features":[{"type":"Feature","properties":{"gml_id":"vwRatingUnit.108292","RatingUnitID":108292,"ValuationVisitOrder":"52600","drvRatingUnitLocation":null,"StreetAddressID":106555,"OccupationLevelDescription":"Ground Floor and Above","StreetAddress":"56 West-Watson Avenue","LocalityName":"Hillmorton","ValuationRollNumber":"22980"},"geometry":{"type":"MultiPolygon","coordinates":[[[[172.58731594349098,-43.556879256429],[172.587590693023,-43.557125249974995],[172.587468955379,-43.5571971715036],[172.587403246573,-43.5572359816395],[172.587128497288,-43.556989987651896],[172.58731594349098,-43.556879256429]]]]}}]}