{"type":"FeatureCollection","features":[{"type":"Feature","properties":{"gml_id":"vwRatingUnit.11110","RatingUnitID":11110,"ValuationVisitOrder":"6800","drvRatingUnitLocation":null,"StreetAddressID":8260,"OccupationLevelDescription":"Ground Floor and Above","StreetAddress":"2/17 Waimairi Road","LocalityName":"Upper Riccarton","ValuationRollNumber":"21896"},"geometry":{"type":"MultiPolygon","coordinates":[[[[172.573696326778,-43.5299765211736],[172.573696007207,-43.530022231046],[172.573702161028,-43.5300267542749],[172.57370212956596,-43.5300312545919],[172.573708283388,-43.5300357778205],[172.573708251926,-43.5300402781375],[172.57371440575,-43.53004480136569],[172.573714185518,-43.5300763035841],[172.573720339346,-43.530080826812],[172.573720307885,-43.5300853271289],[172.573726461714,-43.5300898503564],[172.573726241489,-43.53012135257429],[172.573732395322,-43.5301258758015],[172.573732363862,-43.530130376118294],[172.573738517697,-43.530134899345],[172.573738486237,-43.5301393996618],[172.57374464007296,-43.5301439228882],[172.57374427829097,-43.5301956765311],[172.573744262561,-43.5301979266894],[172.57374115418,-43.5302001653931],[172.573694764419,-43.5301999935618],[172.573691671768,-43.5301999821057],[172.573685455002,-43.53020445951],[172.573626694633,-43.5302042418255],[172.573626710367,-43.5302019916672],[172.573620556534,-43.5301974684345],[172.573621122967,-43.5301164627317],[172.573627339728,-43.53011198533079],[172.573627685876,-43.5300624818449],[172.57363390263197,-43.5300580044435],[172.57363443833597,-43.529981390996],[172.573696326778,-43.5299765211736]]]]}}]}