{"type":"FeatureCollection","features":[{"type":"Feature","properties":{"gml_id":"vwRatingUnit.102385","RatingUnitID":102385,"ValuationVisitOrder":"28200","drvRatingUnitLocation":null,"StreetAddressID":125842,"OccupationLevelDescription":"Ground Floor and Above","StreetAddress":"85 Soleares Avenue","LocalityName":"McCormacks Bay","ValuationRollNumber":"22902"},"geometry":{"type":"MultiPolygon","coordinates":[[[[172.720614569799,-43.5636287162863],[172.72104878150196,-43.56327645839719],[172.721576159513,-43.5629170700753],[172.721631583267,-43.5628549738977],[172.721691800293,-43.5625558958501],[172.722010580727,-43.5625898576186],[172.72199533366,-43.5626656145183],[172.721951453727,-43.5628836551181],[172.72164791315,-43.5628513140314],[172.72158459018,-43.5629221127038],[172.721056467777,-43.5632818862893],[172.72061929896796,-43.563636612203794],[172.720614569799,-43.5636287162863]]]]}}]}