{"type":"FeatureCollection","features":[{"type":"Feature","properties":{"gml_id":"vwRatingUnit.108377","RatingUnitID":108377,"ValuationVisitOrder":"59700","drvRatingUnitLocation":null,"StreetAddressID":47406,"OccupationLevelDescription":"Ground Floor and Above","StreetAddress":"118 Warren Crescent","LocalityName":"Hillmorton","ValuationRollNumber":"22980"},"geometry":{"type":"MultiPolygon","coordinates":[[[[172.57994523792,-43.5574055996922],[172.57994611942297,-43.5574321552222],[172.579950268218,-43.5574820886989],[172.579953512659,-43.5575069876951],[172.579959964994,-43.5575441214486],[172.579385722058,-43.5576032954935],[172.579365809881,-43.557577939613196],[172.579331973593,-43.557541902978],[172.579316633133,-43.5575230353404],[172.579304398079,-43.5575025318924],[172.579295346287,-43.5574798708733],[172.579287933168,-43.5574457218309],[172.579288316523,-43.5574116732546],[172.57994523792,-43.5574055996922]]]]}}]}