{"type":"FeatureCollection","features":[{"type":"Feature","properties":{"gml_id":"vwRatingUnit.109884","RatingUnitID":109884,"ValuationVisitOrder":"41600","drvRatingUnitLocation":null,"StreetAddressID":83718,"OccupationLevelDescription":"Ground Floor and Above","StreetAddress":"36A Craven Street","LocalityName":"Upper Riccarton","ValuationRollNumber":"23413"},"geometry":{"type":"MultiPolygon","coordinates":[[[[172.558335074149,-43.5326395665391],[172.558422368392,-43.532731638513],[172.55860275955197,-43.5328337974297],[172.558320628236,-43.5330660090954],[172.55830275602,-43.5330534112796],[172.55814188173,-43.5329400217126],[172.55779535170498,-43.5331998696197],[172.557768248013,-43.5331807736178],[172.558114802724,-43.5329209348865],[172.558335074149,-43.5326395665391]]]]}}]}