{"type":"FeatureCollection","features":[{"type":"Feature","properties":{"gml_id":"vwRatingUnit.111563","RatingUnitID":111563,"ValuationVisitOrder":"65800","drvRatingUnitLocation":null,"StreetAddressID":21748,"OccupationLevelDescription":"Ground Floor and Above","StreetAddress":"15 Cicada Place","LocalityName":"Riccarton Park","ValuationRollNumber":"23415"},"geometry":{"type":"MultiPolygon","coordinates":[[[[172.535354499244,-43.5313463936002],[172.535407586576,-43.5313558248667],[172.53543435211398,-43.5313614594811],[172.535487165448,-43.5313743819651],[172.535538898455,-43.53138946028779],[172.53556429495896,-43.5313977986263],[172.535589353548,-43.5314066486485],[172.53563633529797,-43.5314250741016],[172.53541908794898,-43.531698914702],[172.535262768494,-43.5316512717414],[172.535354499244,-43.5313463936002]]]]}}]}