{"type":"FeatureCollection","features":[{"type":"Feature","properties":{"gml_id":"vwRatingUnit.107195","RatingUnitID":107195,"ValuationVisitOrder":"29600","drvRatingUnitLocation":null,"StreetAddressID":75356,"OccupationLevelDescription":"Ground Floor and Above","StreetAddress":"30 Northcroft Street","LocalityName":"Hoon Hay","ValuationRollNumber":"22970"},"geometry":{"type":"MultiPolygon","coordinates":[[[[172.585565511935,-43.5624283313622],[172.58568910331996,-43.562539124944294],[172.585308243869,-43.5627637737147],[172.585184640334,-43.5626529796844],[172.585565511935,-43.5624283313622]]]]}}]}