{"type":"FeatureCollection","features":[{"type":"Feature","properties":{"gml_id":"vwRatingUnit.112554","RatingUnitID":112554,"ValuationVisitOrder":"57000","drvRatingUnitLocation":null,"StreetAddressID":11992,"OccupationLevelDescription":"Ground Floor and Above","StreetAddress":"19 Amuri Street","LocalityName":"Hei Hei","ValuationRollNumber":"23421"},"geometry":{"type":"MultiPolygon","coordinates":[[[[172.518140301683,-43.5374008363693],[172.51863241729197,-43.5375513567224],[172.518552097556,-43.537690463453394],[172.518060129123,-43.5375399883943],[172.518140301683,-43.5374008363693]]]]}}]}