{"type":"FeatureCollection","features":[{"type":"Feature","properties":{"gml_id":"vwRatingUnit.116822","RatingUnitID":116822,"ValuationVisitOrder":"69900","drvRatingUnitLocation":null,"StreetAddressID":63452,"OccupationLevelDescription":"Ground Floor and Above","StreetAddress":"25 Patterson Terrace","LocalityName":"Oaklands","ValuationRollNumber":"23441"},"geometry":{"type":"MultiPolygon","coordinates":[[[[172.555817089446,-43.577355154109],[172.556016049339,-43.5774021660073],[172.555877433691,-43.57771207816959],[172.55567848539596,-43.5776650480899],[172.555817089446,-43.577355154109]]]]}}]}