{"type":"FeatureCollection","features":[{"type":"Feature","properties":{"gml_id":"vwRatingUnit.113923","RatingUnitID":113923,"ValuationVisitOrder":"37000","drvRatingUnitLocation":null,"StreetAddressID":132434,"OccupationLevelDescription":"Ground Floor and Above","StreetAddress":"99E Denise Crescent","LocalityName":"Hornby","ValuationRollNumber":"23432"},"geometry":{"type":"MultiPolygon","coordinates":[[[[172.51357247852596,-43.5455657775456],[172.513613185347,-43.545560098871],[172.513620979988,-43.5455897088519],[172.513580273077,-43.5455953965301],[172.51357247852596,-43.5455657775456]]]]}}]}