{"type":"FeatureCollection","features":[{"type":"Feature","properties":{"gml_id":"vwRatingUnit.101060","RatingUnitID":101060,"ValuationVisitOrder":"51931","drvRatingUnitLocation":null,"StreetAddressID":71031,"OccupationLevelDescription":"Ground Floor and Above","StreetAddress":"3 Defender Lane","LocalityName":"Redcliffs","ValuationRollNumber":"22900"},"geometry":{"type":"MultiPolygon","coordinates":[[[[172.733346635552,-43.5626205642781],[172.733346874328,-43.5626225719474],[172.733359797606,-43.5627299330933],[172.733373079472,-43.5628402202333],[172.732879574045,-43.5628716349011],[172.732886909413,-43.5627170047645],[172.732890100382,-43.5626496341767],[172.733346635552,-43.5626205642781]]]]}}]}