{"type":"FeatureCollection","features":[{"type":"Feature","properties":{"gml_id":"vwRatingUnit.110757","RatingUnitID":110757,"ValuationVisitOrder":"40100","drvRatingUnitLocation":null,"StreetAddressID":37119,"OccupationLevelDescription":"Ground Floor and Above","StreetAddress":"1/56 Epsom Road","LocalityName":"Upper Riccarton","ValuationRollNumber":"23414"},"geometry":{"type":"MultiPolygon","coordinates":[[[[172.550225561372,-43.534791756336],[172.550387793008,-43.53495445228239],[172.550260773692,-43.5350207310928],[172.550259629616,-43.5350213280737],[172.550259034223,-43.5350207242967],[172.550235695815,-43.534997058006894],[172.550116947478,-43.534876666130195],[172.55010919035996,-43.5348807149702],[172.549611511031,-43.5351404862199],[172.549602718527,-43.5351315678118],[172.550109290449,-43.53486714944779],[172.550110763041,-43.5348663809067],[172.550212322259,-43.53480036243669],[172.550225561372,-43.534791756336]]]]}}]}