{"type":"FeatureCollection","features":[{"type":"Feature","properties":{"gml_id":"vwRatingUnit.117286","RatingUnitID":117286,"ValuationVisitOrder":"10600","drvRatingUnitLocation":null,"StreetAddressID":75007,"OccupationLevelDescription":"Ground Floor and Above","StreetAddress":"30 Cobra Street","LocalityName":"Oaklands","ValuationRollNumber":"23443"},"geometry":{"type":"MultiPolygon","coordinates":[[[[172.566607889778,-43.5706756231713],[172.566795247424,-43.5707385224594],[172.566543109799,-43.5711355442673],[172.566355714045,-43.5710726444442],[172.566607889778,-43.5706756231713]]]]}}]}