{"type":"FeatureCollection","features":[{"type":"Feature","properties":{"gml_id":"vwRatingUnit.108501","RatingUnitID":108501,"ValuationVisitOrder":"1900","drvRatingUnitLocation":null,"StreetAddressID":146842,"OccupationLevelDescription":"Ground Floor and Above","StreetAddress":"48 Lunns Road","LocalityName":"Middleton","ValuationRollNumber":"23411"},"geometry":{"type":"MultiPolygon","coordinates":[[[[172.574229233585,-43.5436855307043],[172.57384003988,-43.5433373971291],[172.57345193274,-43.5429902292651],[172.57322267587,-43.5427851599448],[172.573217732661,-43.542780740217],[172.573928868269,-43.5423617654133],[172.574940446448,-43.5432666130087],[172.574815430176,-43.5433402463525],[172.574229233585,-43.5436855307043]]]]}}]}