{"type":"FeatureCollection","features":[{"type":"Feature","properties":{"gml_id":"vwRatingUnit.101954","RatingUnitID":101954,"ValuationVisitOrder":"76000","drvRatingUnitLocation":null,"StreetAddressID":74967,"OccupationLevelDescription":"Ground Floor and Above","StreetAddress":"30 Cannon Hill Crescent","LocalityName":"St Andrews Hill","ValuationRollNumber":"22901"},"geometry":{"type":"MultiPolygon","coordinates":[[[[172.71054315977997,-43.5600422188949],[172.711196748156,-43.5604947570704],[172.71104723943898,-43.5607661191714],[172.710628539637,-43.5606024393491],[172.710667479372,-43.5605497215928],[172.71077351078196,-43.5604061581464],[172.710877872715,-43.5603118505368],[172.710517161143,-43.56006208997769],[172.71054315977997,-43.5600422188949]]]]}}]}