{"type":"FeatureCollection","features":[{"type":"Feature","properties":{"gml_id":"vwRatingUnit.102711","RatingUnitID":102711,"ValuationVisitOrder":"66600","drvRatingUnitLocation":null,"StreetAddressID":6546,"OccupationLevelDescription":"Ground Floor and Above","StreetAddress":"2/235A Mt Pleasant Road","LocalityName":"Mt Pleasant","ValuationRollNumber":"22902"},"geometry":{"type":"MultiPolygon","coordinates":[[[[172.721614173577,-43.569054209923],[172.721615098503,-43.5690699285095],[172.721625424282,-43.5692454217406],[172.721356707354,-43.5692538164691],[172.72132613065196,-43.5692547717013],[172.72132611676,-43.5692537426933],[172.721324089608,-43.56910522914849],[172.721323513546,-43.5690630286304],[172.721614173577,-43.569054209923]]]]}}]}