{"type":"FeatureCollection","features":[{"type":"Feature","properties":{"gml_id":"vwRatingUnit.109329","RatingUnitID":109329,"ValuationVisitOrder":"47700","drvRatingUnitLocation":null,"StreetAddressID":64773,"OccupationLevelDescription":"Ground Floor and Above","StreetAddress":"26 Curletts Road","LocalityName":"Upper Riccarton","ValuationRollNumber":"23412"},"geometry":{"type":"MultiPolygon","coordinates":[[[[172.567591142892,-43.5346575406496],[172.567612588606,-43.5348016080512],[172.567117721496,-43.5348406030748],[172.567096276937,-43.5346965355734],[172.567591142892,-43.5346575406496]]]]}}]}