{"type":"FeatureCollection","features":[{"type":"Feature","properties":{"gml_id":"vwRatingUnit.101039","RatingUnitID":101039,"ValuationVisitOrder":"51401","drvRatingUnitLocation":null,"StreetAddressID":96943,"OccupationLevelDescription":"Ground Floor and Above","StreetAddress":"46A Taupata Street","LocalityName":"Redcliffs","ValuationRollNumber":"22900"},"geometry":{"type":"MultiPolygon","coordinates":[[[[172.736233540466,-43.563175081831],[172.73626967255998,-43.5632030839565],[172.735943769748,-43.5634255793935],[172.73606235599897,-43.563517421737295],[172.735979865068,-43.5635737385063],[172.735843745363,-43.5636666727259],[172.73555984469198,-43.5634467884028],[172.735744999597,-43.56332037674569],[172.735874169594,-43.5634204249789],[172.736233540466,-43.563175081831]]]]}}]}