{"type":"FeatureCollection","features":[{"type":"Feature","properties":{"gml_id":"vwRatingUnit.116753","RatingUnitID":116753,"ValuationVisitOrder":"62700","drvRatingUnitLocation":null,"StreetAddressID":18701,"OccupationLevelDescription":"Ground Floor and Above","StreetAddress":"16 Ridder Place","LocalityName":"Oaklands","ValuationRollNumber":"23441"},"geometry":{"type":"MultiPolygon","coordinates":[[[[172.55652383597098,-43.5757504785302],[172.556521155559,-43.5757581548901],[172.556458338133,-43.575933563557],[172.556448051538,-43.575962317493],[172.555855342401,-43.5760768039629],[172.555830506969,-43.5760088694614],[172.555826118703,-43.575992642160195],[172.55582469500598,-43.5759756342057],[172.555826440504,-43.5759586474555],[172.555828494879,-43.5759502486381],[172.55583490334098,-43.57593386489349],[172.555839244589,-43.5759259429222],[172.555850063564,-43.5759108272679],[172.555871726823,-43.5758890207834],[172.555883869056,-43.5758740992372],[172.55652383597098,-43.5757504785302]]]]}}]}