{"type":"FeatureCollection","features":[{"type":"Feature","properties":{"gml_id":"vwRatingUnit.11332","RatingUnitID":11332,"ValuationVisitOrder":"28200","drvRatingUnitLocation":null,"StreetAddressID":62002,"OccupationLevelDescription":"Ground Floor and Above","StreetAddress":"24 Reading Street","LocalityName":"Upper Riccarton","ValuationRollNumber":"21896"},"geometry":{"type":"MultiPolygon","coordinates":[[[[172.57209733114897,-43.5273679295402],[172.572099973398,-43.527367719556],[172.572101860929,-43.5273803064041],[172.572106131834,-43.5274087865694],[172.572107197692,-43.52741589415],[172.57211204051399,-43.5274481880555],[172.572113296858,-43.5274565658587],[172.572117949203,-43.5274875895408],[172.572119396032,-43.5274972375666],[172.572123857899,-43.5275269910253],[172.57212473281697,-43.5275328253103],[172.572125645731,-43.5275389129699],[172.571924297547,-43.5275381640963],[172.571925418338,-43.5274201574653],[172.57192675891898,-43.5274054100424],[172.571928623353,-43.527397100131],[172.57193465041,-43.527380857941],[172.57209733114897,-43.5273679295402]]]]}}]}