{"type":"FeatureCollection","features":[{"type":"Feature","properties":{"gml_id":"vwRatingUnit.113666","RatingUnitID":113666,"ValuationVisitOrder":"8500","drvRatingUnitLocation":null,"StreetAddressID":92833,"OccupationLevelDescription":"Ground Floor and Above","StreetAddress":"42 Kathleen Crescent","LocalityName":"Islington","ValuationRollNumber":"23432"},"geometry":{"type":"MultiPolygon","coordinates":[[[[172.518785235729,-43.5423887028936],[172.518891935562,-43.5427050903962],[172.518630514823,-43.5427416667395],[172.51862868313,-43.5427354484407],[172.51858735841998,-43.5425955812432],[172.518546033974,-43.542455705023194],[172.518084213227,-43.5425203440246],[172.518075671178,-43.542488012932196],[172.518531620154,-43.5424241955032],[172.518785235729,-43.5423887028936]]]]}}]}