{"type":"FeatureCollection","features":[{"type":"Feature","properties":{"gml_id":"vwRatingUnit.109015","RatingUnitID":109015,"ValuationVisitOrder":"12300","drvRatingUnitLocation":null,"StreetAddressID":61379,"OccupationLevelDescription":"Ground Floor and Above","StreetAddress":"24 Hansons Lane","LocalityName":"Upper Riccarton","ValuationRollNumber":"23412"},"geometry":{"type":"MultiPolygon","coordinates":[[[[172.57256666596,-43.5337604121344],[172.57373297728898,-43.533668527038095],[172.57374991687996,-43.5336681217243],[172.57375934004196,-43.5336686966706],[172.573777840387,-43.5336715554428],[172.573786769241,-43.5336738207177],[172.57380371277398,-43.5336799320314],[172.57381900945796,-43.5336880174337],[172.57383225274,-43.53369783239679],[172.57383797959,-43.5337033171203],[172.573847447279,-43.5337152243035],[172.573854050277,-43.5337281109745],[172.573857630273,-43.533741616513296],[172.57394375189,-43.534329115180995],[172.573448772746,-43.5343676418779],[172.57307076557598,-43.5343782566509],[172.572756522553,-43.5343870816775],[172.572656802791,-43.5343663605723],[172.572619407962,-43.534114980787294],[172.57256666596,-43.5337604121344]]]]}}]}