{"type":"FeatureCollection","features":[{"type":"Feature","properties":{"gml_id":"vwRatingUnit.11102","RatingUnitID":11102,"ValuationVisitOrder":"5900","drvRatingUnitLocation":null,"StreetAddressID":90447,"OccupationLevelDescription":"Ground Floor and Above","StreetAddress":"4/9 Bowen Street","LocalityName":"Upper Riccarton","ValuationRollNumber":"21896"},"geometry":{"type":"MultiPolygon","coordinates":[[[[172.572972516876,-43.5300672030071],[172.573000846278,-43.5302592207061],[172.57275315467,-43.53027874240149],[172.572724930587,-43.5300874332936],[172.572972516876,-43.5300672030071]]]]}}]}