{"type":"FeatureCollection","features":[{"type":"Feature","properties":{"gml_id":"vwRatingUnit.108355","RatingUnitID":108355,"ValuationVisitOrder":"58501","drvRatingUnitLocation":null,"StreetAddressID":132350,"OccupationLevelDescription":"Ground Floor and Above","StreetAddress":"99 Warren Crescent","LocalityName":"Hillmorton","ValuationRollNumber":"22980"},"geometry":{"type":"MultiPolygon","coordinates":[[[[172.580338041152,-43.55649537707279],[172.580832226663,-43.5565401453406],[172.58082739153,-43.556568381222],[172.580802971627,-43.5567108738499],[172.580308784811,-43.55666609646929],[172.580338041152,-43.55649537707279]]]]}}]}