{"type":"FeatureCollection","features":[{"type":"Feature","properties":{"gml_id":"vwRatingUnit.104135","RatingUnitID":104135,"ValuationVisitOrder":"38000","drvRatingUnitLocation":null,"StreetAddressID":121357,"OccupationLevelDescription":"Ground Floor and Above","StreetAddress":"78 Wiggins Street","LocalityName":"Sumner","ValuationRollNumber":"22920"},"geometry":{"type":"MultiPolygon","coordinates":[[[[172.765247979231,-43.574698415594],[172.76534475243,-43.57475587283659],[172.765101552517,-43.5749725239498],[172.765004766714,-43.5749150934838],[172.765247979231,-43.574698415594]]]]}}]}