{"type":"FeatureCollection","features":[{"type":"Feature","properties":{"gml_id":"vwRatingUnit.114968","RatingUnitID":114968,"ValuationVisitOrder":"81500","drvRatingUnitLocation":null,"StreetAddressID":115098,"OccupationLevelDescription":"Ground Floor and Above","StreetAddress":"68 Amyes Road","LocalityName":"Hornby","ValuationRollNumber":"23433"},"geometry":{"type":"MultiPolygon","coordinates":[[[[172.530060185953,-43.5493663945093],[172.530177314391,-43.5494608614211],[172.529861278045,-43.5496681850772],[172.529760661172,-43.5495883134005],[172.529765999868,-43.5495594939976],[172.530060185953,-43.5493663945093]]]]}}]}