{"type":"FeatureCollection","features":[{"type":"Feature","properties":{"gml_id":"vwRatingUnit.101787","RatingUnitID":101787,"ValuationVisitOrder":"59200","drvRatingUnitLocation":null,"StreetAddressID":60403,"OccupationLevelDescription":"Ground Floor and Above","StreetAddress":"230 Cannon Hill Crescent","LocalityName":"St Andrews Hill","ValuationRollNumber":"22901"},"geometry":{"type":"MultiPolygon","coordinates":[[[[172.714389588649,-43.5651876148146],[172.714627511238,-43.5652410181159],[172.714456585917,-43.5656435773114],[172.713740462391,-43.56548884041949],[172.713744179566,-43.56548010109629],[172.714221590663,-43.5655832594979],[172.714278274372,-43.5654497775618],[172.71433393162798,-43.5653186962033],[172.714389588649,-43.5651876148146]]]]}}]}