{"type":"FeatureCollection","features":[{"type":"Feature","properties":{"gml_id":"vwRatingUnit.114072","RatingUnitID":114072,"ValuationVisitOrder":"51600","drvRatingUnitLocation":null,"StreetAddressID":97822,"OccupationLevelDescription":"Ground Floor and Above","StreetAddress":"47A Seymour Street","LocalityName":"Hornby","ValuationRollNumber":"23432"},"geometry":{"type":"MultiPolygon","coordinates":[[[[172.5205656396,-43.5472557239942],[172.520569309338,-43.5472533479752],[172.52057225118,-43.547255751516],[172.520732811075,-43.5473869315646],[172.52073483182699,-43.5473885825469],[172.520732787696,-43.547389906038],[172.520583052647,-43.5474868530913],[172.520530424383,-43.5475209246922],[172.520524518318,-43.5475165793406],[172.520518331245,-43.5475165535836],[172.520441435245,-43.5474599777185],[172.520441470639,-43.54745547740849],[172.520435318965,-43.547450951337],[172.52043538975298,-43.547441950717],[172.52037079724798,-43.5473944269452],[172.520364610187,-43.5473944011799],[172.52035845162,-43.5473898700236],[172.5205656396,-43.5472557239942]]]]}}]}