{"type":"FeatureCollection","features":[{"type":"Feature","properties":{"gml_id":"vwRatingUnit.105474","RatingUnitID":105474,"ValuationVisitOrder":"2200","drvRatingUnitLocation":null,"StreetAddressID":30900,"OccupationLevelDescription":"Ground Floor and Above","StreetAddress":"1/14 Downing Street","LocalityName":"Hoon Hay","ValuationRollNumber":"22952"},"geometry":{"type":"MultiPolygon","coordinates":[[[[172.600124584357,-43.5599681948482],[172.600129347401,-43.5599653732369],[172.60014879724898,-43.5599829483199],[172.60016258008,-43.559995402619],[172.600175487369,-43.5600070657639],[172.600187188171,-43.5600176387112],[172.60020217750898,-43.5600311832015],[172.60021794831,-43.5600454338187],[172.600228867671,-43.56005530063249],[172.600242556442,-43.5600676698984],[172.600255557854,-43.560079418057],[172.600267164591,-43.5600899059727],[172.60028224805896,-43.560103535475],[172.60029792480398,-43.5601177010577],[172.60030748731796,-43.5601263417873],[172.600322532994,-43.5601399371195],[172.60033562853098,-43.5601517702914],[172.600347141202,-43.56016217317569],[172.600362318799,-43.5601758876899],[172.600356362713,-43.5601715148478],[172.600353268548,-43.5601715041276],[172.60035325380696,-43.5601737542623],[172.600281748906,-43.5602252607731],[172.600275560569,-43.5602252393287],[172.600269342745,-43.560229718153295],[172.600263154408,-43.56022969670829],[172.600225847444,-43.5602565696469],[172.600219659103,-43.5602565481996],[172.600214975968,-43.5602599215512],[172.600160058238,-43.5602102907562],[172.59998419658,-43.5600513577981],[172.600071086044,-43.5599998870376],[172.600124584357,-43.5599681948482]]]]}}]}