{"type":"FeatureCollection","features":[{"type":"Feature","properties":{"gml_id":"vwRatingUnit.108519","RatingUnitID":108519,"ValuationVisitOrder":"3202","drvRatingUnitLocation":null,"StreetAddressID":115817,"OccupationLevelDescription":"Ground Floor and Above","StreetAddress":"6E Venture Place","LocalityName":"Middleton","ValuationRollNumber":"23411"},"geometry":{"type":"MultiPolygon","coordinates":[[[[172.578880052347,-43.5425646117922],[172.578904018955,-43.5425503791182],[172.578930618989,-43.5425740855481],[172.57890665244,-43.542588309227],[172.578880052347,-43.5425646117922]]]]}}]}