{"type":"FeatureCollection","features":[{"type":"Feature","properties":{"gml_id":"vwRatingUnit.11695","RatingUnitID":11695,"ValuationVisitOrder":"70500","drvRatingUnitLocation":null,"StreetAddressID":75625,"OccupationLevelDescription":"Ground Floor and Above","StreetAddress":"30 Worthy Street","LocalityName":"Upper Riccarton","ValuationRollNumber":"21896"},"geometry":{"type":"MultiPolygon","coordinates":[[[[172.562122960446,-43.5260113295698],[172.56220849733097,-43.5260374966353],[172.562311055243,-43.526068876898194],[172.562074830179,-43.52647782487979],[172.561886721899,-43.5264202861336],[172.562122960446,-43.5260113295698]]]]}}]}