{"type":"FeatureCollection","features":[{"type":"Feature","properties":{"gml_id":"vwRatingUnit.106212","RatingUnitID":106212,"ValuationVisitOrder":"6700","drvRatingUnitLocation":null,"StreetAddressID":68797,"OccupationLevelDescription":"Ground Floor and Above","StreetAddress":"285 Hoon Hay Road","LocalityName":"Hoon Hay","ValuationRollNumber":"22960"},"geometry":{"type":"MultiPolygon","coordinates":[[[[172.61295632282898,-43.570098551771],[172.612965218311,-43.5701090944145],[172.612971087233,-43.5701205989835],[172.612989191758,-43.5701878858933],[172.613001265326,-43.5702555576082],[172.61300369764,-43.57028778825569],[172.61260546966497,-43.5704900030732],[172.6124920247,-43.570367770823],[172.611914735294,-43.5706609100459],[172.61190433043,-43.5706327298815],[172.61295632282898,-43.570098551771]]]]}}]}