{"type":"FeatureCollection","features":[{"type":"Feature","properties":{"gml_id":"vwRatingUnit.111693","RatingUnitID":111693,"ValuationVisitOrder":"78000","drvRatingUnitLocation":null,"StreetAddressID":45468,"OccupationLevelDescription":"Ground Floor and Above","StreetAddress":"11 Peebles Drive","LocalityName":"Riccarton Park","ValuationRollNumber":"23415"},"geometry":{"type":"MultiPolygon","coordinates":[[[[172.539120012347,-43.5324105778057],[172.539301351808,-43.5325109399092],[172.539251105514,-43.5325608198943],[172.539221253893,-43.53259182557059],[172.539185094015,-43.5326308528051],[172.539010395739,-43.5325482140859],[172.539120012347,-43.5324105778057]]]]}}]}