{"type":"FeatureCollection","features":[{"type":"Feature","properties":{"gml_id":"vwRatingUnit.104612","RatingUnitID":104612,"ValuationVisitOrder":"70800","drvRatingUnitLocation":null,"StreetAddressID":70022,"OccupationLevelDescription":"Ground Floor and Above","StreetAddress":"29/11 Marriner Street","LocalityName":"Sumner","ValuationRollNumber":"22920"},"geometry":{"type":"MultiPolygon","coordinates":[[[[172.757729094826,-43.5670513930458],[172.757828015671,-43.567077447802895],[172.757827999676,-43.5670814823245],[172.757784552047,-43.5671128929565],[172.757784525281,-43.5671196432609],[172.757781430799,-43.5671196367754],[172.75774729333997,-43.5671443165453],[172.75774727549398,-43.5671488167483],[172.757734861864,-43.5671577912075],[172.757734844017,-43.5671622914104],[172.757722430383,-43.5671712658684],[172.757722421459,-43.5671735159698],[172.757716232489,-43.567173502995395],[172.757716312809,-43.5671532520822],[172.757722519625,-43.5671487648537],[172.757722537474,-43.5671442646508],[172.757728744289,-43.567139777422],[172.757729094826,-43.5670513930458]]]]}}]}