{"type":"FeatureCollection","features":[{"type":"Feature","properties":{"gml_id":"vwRatingUnit.106413","RatingUnitID":106413,"ValuationVisitOrder":"24900","drvRatingUnitLocation":null,"StreetAddressID":12473,"OccupationLevelDescription":"Ground Floor and Above","StreetAddress":"19 Kaiwara Street","LocalityName":"Hoon Hay","ValuationRollNumber":"22960"},"geometry":{"type":"MultiPolygon","coordinates":[[[[172.610063987206,-43.5732557115349],[172.610099443271,-43.5732671901731],[172.61012300941897,-43.5732756584146],[172.610146200973,-43.5732846294249],[172.610191435488,-43.5733040886696],[172.610213429104,-43.5733145497358],[172.610256057871,-43.5733368983787],[172.610299406727,-43.5733628047097],[172.609953080765,-43.5736504672473],[172.609860251464,-43.573606959231],[172.610063987206,-43.5732557115349]]]]}}]}