{"type":"FeatureCollection","features":[{"type":"Feature","properties":{"gml_id":"vwRatingUnit.111361","RatingUnitID":111361,"ValuationVisitOrder":"50700","drvRatingUnitLocation":null,"StreetAddressID":38712,"OccupationLevelDescription":"Ground Floor and Above","StreetAddress":"1/8 Steadman Road","LocalityName":"Masham","ValuationRollNumber":"23415"},"geometry":{"type":"MultiPolygon","coordinates":[[[[172.536582756154,-43.5218061025313],[172.536911770129,-43.5219044032137],[172.53690822669998,-43.521910530958],[172.536904549334,-43.521916890322],[172.536901959721,-43.5219213686062],[172.536900116356,-43.521924556385],[172.53689569273996,-43.5219322062541],[172.536895683376,-43.5219322224479],[172.53688942575596,-43.5219430439017],[172.536886817412,-43.521947554573],[172.53688315877,-43.52195388154879],[172.536882384429,-43.52195522063529],[172.536876891782,-43.5219647191956],[172.536873518459,-43.52197055275939],[172.536870624792,-43.5219755568421],[172.536869085473,-43.5219782188211],[172.536857962583,-43.5219974538707],[172.537073692161,-43.5220637059214],[172.53725844783,-43.5221204452306],[172.53726821235,-43.522123443948],[172.537260892522,-43.5221360967726],[172.53683806991,-43.5220062416194],[172.536524781754,-43.5219100247693],[172.536522828943,-43.5219094250194],[172.53652481231,-43.5219060054365],[172.536535987531,-43.5218867378935],[172.536537345898,-43.5218843958913],[172.536540443388,-43.5218790554108],[172.536543612689,-43.5218735911182],[172.536549355098,-43.5218636904449],[172.536549879477,-43.5218627863447],[172.536553810951,-43.5218560079617],[172.53655614626396,-43.5218519815709],[172.536558266803,-43.5218483254783],[172.536562413048,-43.5218411767967],[172.536567178503,-43.52183296051089],[172.53656867982997,-43.5218303720222],[172.536571634352,-43.5218252780269],[172.53657494660897,-43.5218195672472],[172.5365760902,-43.5218175955428],[172.536581213387,-43.521808762472],[172.536582756154,-43.5218061025313]]]]}}]}