{"type":"FeatureCollection","features":[{"type":"Feature","properties":{"gml_id":"vwRatingUnit.106776","RatingUnitID":106776,"ValuationVisitOrder":"56800","drvRatingUnitLocation":null,"StreetAddressID":80945,"OccupationLevelDescription":"Ground Floor and Above","StreetAddress":"34 Waipara Street","LocalityName":"Hoon Hay Valley","ValuationRollNumber":"22960"},"geometry":{"type":"MultiPolygon","coordinates":[[[[172.612235943256,-43.5777376726209],[172.612307361341,-43.5778670811609],[172.611851556502,-43.5780000289494],[172.61178017642098,-43.5778706112499],[172.612235943256,-43.5777376726209]]]]}}]}