{"type":"FeatureCollection","features":[{"type":"Feature","properties":{"gml_id":"vwRatingUnit.115458","RatingUnitID":115458,"ValuationVisitOrder":"46900","drvRatingUnitLocation":null,"StreetAddressID":53351,"OccupationLevelDescription":"Ground Floor and Above","StreetAddress":"20 Avro Crescent","LocalityName":"Hornby","ValuationRollNumber":"23434"},"geometry":{"type":"MultiPolygon","coordinates":[[[[172.539203098484,-43.5459708388358],[172.539348370468,-43.546084012048],[172.53938051528,-43.5461139515442],[172.539538978787,-43.5462369702228],[172.53939458096698,-43.5463356185825],[172.539057158083,-43.5460705787147],[172.539201394496,-43.5459719931324],[172.539203098484,-43.5459708388358]]]]}}]}