{"type":"FeatureCollection","features":[{"type":"Feature","properties":{"gml_id":"vwRatingUnit.115937","RatingUnitID":115937,"ValuationVisitOrder":"3587","drvRatingUnitLocation":null,"StreetAddressID":25518,"OccupationLevelDescription":"Ground Floor and Above","StreetAddress":"14 Dufek Crescent","LocalityName":"Hornby","ValuationRollNumber":"23435"},"geometry":{"type":"MultiPolygon","coordinates":[[[[172.539079128572,-43.5510403401941],[172.539180008343,-43.551124271875096],[172.539207695582,-43.55114833394719],[172.539224848226,-43.5511646401292],[172.538835770877,-43.5513838386612],[172.53870360569798,-43.551277099213],[172.539079128572,-43.5510403401941]]]]}}]}