{"type":"FeatureCollection","features":[{"type":"Feature","properties":{"gml_id":"vwRatingUnit.109660","RatingUnitID":109660,"ValuationVisitOrder":"17400","drvRatingUnitLocation":null,"StreetAddressID":48290,"OccupationLevelDescription":"Ground Floor and Above","StreetAddress":"12 Gladson Avenue","LocalityName":"Upper Riccarton","ValuationRollNumber":"23413"},"geometry":{"type":"MultiPolygon","coordinates":[[[[172.55977791169,-43.5322379030442],[172.559921625479,-43.5322573634933],[172.559906951498,-43.5326826711812],[172.55984351343596,-43.53268057441899],[172.559775045313,-43.532676055147],[172.559706940099,-43.5326692509978],[172.5596672274,-43.5326641575902],[172.55977791169,-43.5322379030442]]]]}}]}