{"type":"FeatureCollection","features":[{"type":"Feature","properties":{"gml_id":"vwRatingUnit.102169","RatingUnitID":102169,"ValuationVisitOrder":"2800","drvRatingUnitLocation":null,"StreetAddressID":115415,"OccupationLevelDescription":"Ground Floor and Above","StreetAddress":"69 Mt Pleasant Road","LocalityName":"Mt Pleasant","ValuationRollNumber":"22902"},"geometry":{"type":"MultiPolygon","coordinates":[[[[172.719673116005,-43.5593166733209],[172.72020478574197,-43.5594113796995],[172.720009911658,-43.5597471951475],[172.71949968329398,-43.5596561852214],[172.719673116005,-43.5593166733209]]]]}}]}