{"type":"FeatureCollection","features":[{"type":"Feature","properties":{"gml_id":"vwRatingUnit.110121","RatingUnitID":110121,"ValuationVisitOrder":"58900","drvRatingUnitLocation":null,"StreetAddressID":188333,"OccupationLevelDescription":"Ground Floor and Above","StreetAddress":"154 Main South Road","LocalityName":"Sockburn","ValuationRollNumber":"23413"},"geometry":{"type":"MultiPolygon","coordinates":[[[[172.554252103928,-43.5386036916655],[172.554446359823,-43.538800491418],[172.554244209596,-43.5389060631285],[172.554033060775,-43.5386921642344],[172.554120702187,-43.5386469313027],[172.55413836338397,-43.538664509014595],[172.554252103928,-43.5386036916655]]]]}}]}