{"type":"FeatureCollection","features":[{"type":"Feature","properties":{"gml_id":"vwRatingUnit.113632","RatingUnitID":113632,"ValuationVisitOrder":"5200","drvRatingUnitLocation":null,"StreetAddressID":62401,"OccupationLevelDescription":"Ground Floor and Above","StreetAddress":"243 Waterloo Road","LocalityName":"Islington","ValuationRollNumber":"23432"},"geometry":{"type":"MultiPolygon","coordinates":[[[[172.517455859855,-43.5404393966146],[172.51760795468599,-43.5407516193908],[172.517407230732,-43.5407727225315],[172.51724211941,-43.5405106251332],[172.517455859855,-43.5404393966146]]]]}}]}