{"type":"FeatureCollection","features":[{"type":"Feature","properties":{"gml_id":"vwRatingUnit.109291","RatingUnitID":109291,"ValuationVisitOrder":"43200","drvRatingUnitLocation":null,"StreetAddressID":26893,"OccupationLevelDescription":"Ground Floor and Above","StreetAddress":"13 Tensing Place","LocalityName":"Upper Riccarton","ValuationRollNumber":"23412"},"geometry":{"type":"MultiPolygon","coordinates":[[[[172.566801819885,-43.5379891224851],[172.56685660277998,-43.5383570316475],[172.566646014629,-43.5383736288513],[172.56659123298897,-43.5380057195805],[172.566801819885,-43.5379891224851]]]]}}]}