{"type":"FeatureCollection","features":[{"type":"Feature","properties":{"gml_id":"vwRatingUnit.115044","RatingUnitID":115044,"ValuationVisitOrder":"5200","drvRatingUnitLocation":null,"StreetAddressID":70342,"OccupationLevelDescription":"Ground Floor and Above","StreetAddress":"299 Main South Road","LocalityName":"Hornby","ValuationRollNumber":"23434"},"geometry":{"type":"MultiPolygon","coordinates":[[[[172.539325454291,-43.5437531043704],[172.538715989989,-43.5432797649807],[172.53933848277,-43.5433110056817],[172.539325454291,-43.5437531043704]]]]}}]}