{"type":"FeatureCollection","features":[{"type":"Feature","properties":{"gml_id":"vwRatingUnit.111219","RatingUnitID":111219,"ValuationVisitOrder":"37603","drvRatingUnitLocation":null,"StreetAddressID":112127,"OccupationLevelDescription":"Ground Floor and Above","StreetAddress":"62 Kintyre Drive","LocalityName":"Broomfield","ValuationRollNumber":"23415"},"geometry":{"type":"MultiPolygon","coordinates":[[[[172.532539175964,-43.5271917074091],[172.532824120031,-43.5272298855327],[172.533301606692,-43.5272604011523],[172.533298748319,-43.5272782834346],[172.53287743281,-43.5272513532017],[172.53282986101897,-43.5275493973469],[172.532654231277,-43.527577640204896],[172.532549355196,-43.5272257993365],[172.532539175964,-43.5271917074091]]]]}}]}