{"type":"FeatureCollection","features":[{"type":"Feature","properties":{"gml_id":"vwRatingUnit.111472","RatingUnitID":111472,"ValuationVisitOrder":"59600","drvRatingUnitLocation":null,"StreetAddressID":33166,"OccupationLevelDescription":"Ground Floor and Above","StreetAddress":"1/24 Ben Nevis Drive","LocalityName":"Masham","ValuationRollNumber":"23415"},"geometry":{"type":"MultiPolygon","coordinates":[[[[172.534370432889,-43.5233037205761],[172.534315339639,-43.5233011952874],[172.534223690945,-43.5232969943616],[172.534207644502,-43.5232962588289],[172.534108734362,-43.5232917249618],[172.534089719568,-43.5231517660808],[172.534137290443,-43.5231519587247],[172.534143509426,-43.5231474834315],[172.534242462944,-43.5231478840872],[172.534248681918,-43.5231434087884],[172.534347635429,-43.5231438093536],[172.534353854395,-43.5231393340492],[172.534394029123,-43.5231394966507],[172.534370763498,-43.523301419620694],[172.534370432889,-43.5233037205761]]]]}}]}