{"type":"FeatureCollection","features":[{"type":"Feature","properties":{"gml_id":"vwRatingUnit.109929","RatingUnitID":109929,"ValuationVisitOrder":"44101","drvRatingUnitLocation":null,"StreetAddressID":77292,"OccupationLevelDescription":"Ground Floor and Above","StreetAddress":"31 Craven Street","LocalityName":"Sockburn","ValuationRollNumber":"23413"},"geometry":{"type":"MultiPolygon","coordinates":[[[[172.557557304767,-43.5332841932244],[172.55758840872,-43.53330611292779],[172.557497489396,-43.5333743771871],[172.55751970652,-43.533390034129994],[172.55738412938197,-43.5334918439374],[172.5575038062,-43.5335762463396],[172.557304078439,-43.5337261981817],[172.557140795701,-43.5335969294105],[172.557557304767,-43.5332841932244]]]]}}]}