{"type":"FeatureCollection","features":[{"type":"Feature","properties":{"gml_id":"vwRatingUnit.118188","RatingUnitID":118188,"ValuationVisitOrder":"38900","drvRatingUnitLocation":null,"StreetAddressID":65145,"OccupationLevelDescription":"Ground Floor and Above","StreetAddress":"26 Oldham Crescent","LocalityName":"Oaklands","ValuationRollNumber":"23444"},"geometry":{"type":"MultiPolygon","coordinates":[[[[172.558761613181,-43.5782456673619],[172.558761604982,-43.5783323897324],[172.558761595028,-43.5784381847211],[172.558232956876,-43.57840630609609],[172.558236279234,-43.578344159508],[172.558231611348,-43.5782826573798],[172.558761613181,-43.5782456673619]]]]}}]}