{"type":"FeatureCollection","features":[{"type":"Feature","properties":{"gml_id":"vwRatingUnit.102422","RatingUnitID":102422,"ValuationVisitOrder":"32200","drvRatingUnitLocation":null,"StreetAddressID":110037,"OccupationLevelDescription":"Ground Floor and Above","StreetAddress":"6 Westmere Lane","LocalityName":"Mt Pleasant","ValuationRollNumber":"22902"},"geometry":{"type":"MultiPolygon","coordinates":[[[[172.722772495111,-43.5614722820342],[172.722932637589,-43.5614892903719],[172.723018438116,-43.5618213733796],[172.723098416581,-43.5618299716829],[172.723103432652,-43.561867434985096],[172.72307542039,-43.5618708330285],[172.723072008177,-43.5618454253032],[172.722713583403,-43.5618069159781],[172.722772495111,-43.5614722820342]]]]}}]}