{"type":"FeatureCollection","features":[{"type":"Feature","properties":{"gml_id":"vwRatingUnit.111255","RatingUnitID":111255,"ValuationVisitOrder":"39600","drvRatingUnitLocation":null,"StreetAddressID":33190,"OccupationLevelDescription":"Ground Floor and Above","StreetAddress":"24 Kintyre Drive","LocalityName":"Broomfield","ValuationRollNumber":"23415"},"geometry":{"type":"MultiPolygon","coordinates":[[[[172.53163761486,-43.5241719605066],[172.531636599888,-43.5241685604213],[172.531633986033,-43.52415980664739],[172.531631040222,-43.5241499411474],[172.531627956276,-43.5241396130341],[172.531624112533,-43.5241267403614],[172.531621926522,-43.524119419420494],[172.53161891677,-43.5241093397715],[172.531615896773,-43.5240992258063],[172.531611989091,-43.524086138984394],[172.531609867027,-43.5240790321916],[172.531606793335,-43.524068738393694],[172.53160383728599,-43.5240588385766],[172.53159986566598,-43.5240455376056],[172.531597807548,-43.524038644961],[172.531594669917,-43.5240281370141],[172.531591777815,-43.524018451345],[172.531587742257,-43.5240049362249],[172.531585748086,-43.5239982577286],[172.531582546515,-43.5239875356325],[172.531579718361,-43.5239780641116],[172.531579082689,-43.5239759352375],[172.53157884726497,-43.5239751468004],[172.531765562532,-43.5239533504838],[172.531780843838,-43.523952755598096],[172.531788459317,-43.5239533176074],[172.531803268943,-43.52395614108589],[172.531816961124,-43.5239611204699],[172.53182896859,-43.5239680278408],[172.531838761627,-43.52397658266939],[172.53184594730197,-43.52398641401079],[172.531849653102,-43.5239951330301],[172.53188645628296,-43.5241171467714],[172.531891325885,-43.5241326137008],[172.53189086527,-43.5241329451447],[172.531872311184,-43.5241328696513],[172.531866091933,-43.5241373448225],[172.531859907238,-43.524137319657],[172.531853687985,-43.52414179482749],[172.531841318593,-43.524141744495],[172.531835099339,-43.5241462196645],[172.531773252372,-43.5241459679782],[172.531767033112,-43.524150443144094],[172.53176084841496,-43.5241504179734],[172.531754629154,-43.5241548931386],[172.531742259759,-43.5241548427953],[172.53173604049698,-43.524159317959494],[172.531729855798,-43.52415929278709],[172.531723636534,-43.5241637679506],[172.53166178954896,-43.5241635162046],[172.53165557028,-43.5241679913645],[172.531643200882,-43.5241679410107],[172.53163761486,-43.5241719605066]]]]}}]}