{"type":"FeatureCollection","features":[{"type":"Feature","properties":{"gml_id":"vwRatingUnit.109644","RatingUnitID":109644,"ValuationVisitOrder":"15800","drvRatingUnitLocation":null,"StreetAddressID":138791,"OccupationLevelDescription":"Ground Floor and Above","StreetAddress":"47 Colman Avenue","LocalityName":"Upper Riccarton","ValuationRollNumber":"23413"},"geometry":{"type":"MultiPolygon","coordinates":[[[[172.560160295817,-43.532289688905],[172.560073101029,-43.5322778705293],[172.559921625479,-43.5322573634933],[172.55977791169,-43.5322379030442],[172.559634049732,-43.5322184148449],[172.559482191426,-43.5321978427561],[172.559390967716,-43.5321854863885],[172.559347704862,-43.5321427195675],[172.559255737634,-43.532051818509],[172.559151487172,-43.53194877313119],[172.559582599469,-43.5317179667244],[172.55961296461,-43.531701710303],[172.55989460830997,-43.5315509246691],[172.559899687685,-43.5315482168235],[172.560296742716,-43.5313371244984],[172.560868397182,-43.5319133475126],[172.56046638622698,-43.532126943118],[172.56034815781,-43.5321898037808],[172.560223123535,-43.5322562836774],[172.560160295817,-43.532289688905]]]]}}]}