{"type":"FeatureCollection","features":[{"type":"Feature","properties":{"gml_id":"vwRatingUnit.111376","RatingUnitID":111376,"ValuationVisitOrder":"52100","drvRatingUnitLocation":null,"StreetAddressID":85821,"OccupationLevelDescription":"Ground Floor and Above","StreetAddress":"385 Yaldhurst Road","LocalityName":"Masham","ValuationRollNumber":"23415"},"geometry":{"type":"MultiPolygon","coordinates":[[[[172.535784952471,-43.5209944821554],[172.535998303977,-43.521059969792],[172.535756528859,-43.5214768366075],[172.535660853972,-43.5214474583837],[172.535543188717,-43.5214113215872],[172.535784952471,-43.5209944821554]]]]}}]}