{"type":"FeatureCollection","features":[{"type":"Feature","properties":{"gml_id":"vwRatingUnit.108466","RatingUnitID":108466,"ValuationVisitOrder":"67200","drvRatingUnitLocation":null,"StreetAddressID":101023,"OccupationLevelDescription":"Ground Floor and Above","StreetAddress":"5 Wolsey Place","LocalityName":"Hillmorton","ValuationRollNumber":"22980"},"geometry":{"type":"MultiPolygon","coordinates":[[[[172.581012652259,-43.5607541297645],[172.581295404881,-43.5610069628259],[172.581131124867,-43.5611039883878],[172.58084838478197,-43.5608511639737],[172.581012652259,-43.5607541297645]]]]}}]}