{"type":"FeatureCollection","features":[{"type":"Feature","properties":{"gml_id":"vwRatingUnit.100235","RatingUnitID":100235,"ValuationVisitOrder":"1200","drvRatingUnitLocation":null,"StreetAddressID":139316,"OccupationLevelDescription":"Ground Floor and Above","StreetAddress":"14 Cliff Street","LocalityName":"Moncks Bay","ValuationRollNumber":"22900"},"geometry":{"type":"MultiPolygon","coordinates":[[[[172.745013483385,-43.5675641271061],[172.744827668341,-43.5674383219928],[172.745249879511,-43.56743692241669],[172.745013483385,-43.5675641271061]]],[[[172.745988786219,-43.5680096485002],[172.745376121001,-43.5677137769501],[172.74537472409298,-43.567490642531595],[172.74543692580698,-43.5674813470509],[172.745437175271,-43.5675224708756],[172.745476786823,-43.5675221081041],[172.745518988936,-43.567514955648],[172.745519453862,-43.5675816233584],[172.745997903605,-43.567644815424295],[172.746009722894,-43.567987589300095],[172.745988786219,-43.5680096485002]]]]}}]}