{"type":"FeatureCollection","features":[{"type":"Feature","properties":{"gml_id":"vwRatingUnit.108704","RatingUnitID":108704,"ValuationVisitOrder":"27400","drvRatingUnitLocation":null,"StreetAddressID":9271,"OccupationLevelDescription":"Ground Floor and Above","StreetAddress":"2/10 Michelle Road","LocalityName":"Sockburn","ValuationRollNumber":"23411"},"geometry":{"type":"MultiPolygon","coordinates":[[[[172.567423485866,-43.5470134746889],[172.567427335713,-43.5470134891471],[172.567427303793,-43.5470179894443],[172.56745205184,-43.54701808238299],[172.567452019922,-43.5470225826801],[172.567464393946,-43.5470226291475],[172.567464362029,-43.5470271294447],[172.567476736054,-43.5470271759107],[172.567476704138,-43.5470316762078],[172.567495265177,-43.5470317459044],[172.567495233262,-43.54703624620149],[172.567507607289,-43.5470362926642],[172.56750757537498,-43.5470407929613],[172.567526136417,-43.5470408626529],[172.567526104504,-43.54704536295],[172.567538478533,-43.5470454094093],[172.567538446621,-43.547049909706395],[172.567550820651,-43.5470499561645],[172.56755078874,-43.547054456461495],[172.567556975755,-43.5470544796901],[172.567556943845,-43.5470589799871],[172.567563130861,-43.5470590032153],[172.567563098951,-43.5470635035124],[172.56756928596698,-43.5470635267402],[172.567569254058,-43.5470680270373],[172.567575441075,-43.5470680502648],[172.567575409166,-43.5470725505619],[172.567581596183,-43.5470725737891],[172.567581564274,-43.5470770740861],[172.567587751292,-43.547077097312894],[172.56758771938397,-43.54708159761],[172.567593906402,-43.5470816208365],[172.567593874494,-43.5470861211336],[172.567600061513,-43.5470861443597],[172.567600029606,-43.5470906446568],[172.567606216625,-43.5470906678826],[172.567606184718,-43.5470951681796],[172.56761237173697,-43.5470951914051],[172.567612339831,-43.547099691702094],[172.56761852685096,-43.5470997149273],[172.567618494945,-43.5471042152243],[172.56762468196598,-43.5471042384491],[172.567624618155,-43.5471132390431],[172.567630805176,-43.547113262267594],[172.567630741367,-43.54712226286159],[172.56763692838896,-43.5471222860858],[172.567636832676,-43.5471357869767],[172.567643019699,-43.5471358102005],[172.56764298779498,-43.54714031049739],[172.567649174819,-43.5471403337209],[172.567649142916,-43.5471448340179],[172.56765532994,-43.547144857241],[172.567655298037,-43.547149357538],[172.567661485062,-43.5471493807608],[172.56766145316,-43.5471538810577],[172.567667640185,-43.5471539042802],[172.567667608283,-43.5471584045771],[172.567673795309,-43.5471584277993],[172.567673763407,-43.54716292809619],[172.567679950433,-43.547162951318],[172.567679886631,-43.5471719519118],[172.56768607365797,-43.5471719751333],[172.567686041758,-43.5471764754302],[172.567692228785,-43.5471764986513],[172.567692196885,-43.5471809989482],[172.567698383913,-43.54718102216899],[172.567698352013,-43.547185522465895],[172.567704539042,-43.5471855456864],[172.56770450714197,-43.5471900459833],[172.567710694172,-43.5471900692034],[172.567710662273,-43.54719456950029],[172.567723036332,-43.5471946159395],[172.567723008487,-43.5471985443106],[172.56760777508296,-43.5472661899839],[172.56760497226398,-43.5472661794624],[172.56760500417,-43.5472616791656],[172.56759263009798,-43.5472616327137],[172.567592662005,-43.5472571324169],[172.567586474969,-43.5472571091905],[172.567586506877,-43.5472526088937],[172.567580319842,-43.5472525856669],[172.56758035175,-43.5472480853701],[172.567574164715,-43.547248062143],[172.567574196624,-43.5472435618461],[172.56756800959,-43.5472435386187],[172.567568073409,-43.547234538025],[172.567561886375,-43.5472345147972],[172.567561950195,-43.5472255142035],[172.567555763162,-43.5472254909754],[172.567555795073,-43.5472209906785],[172.56754960804,-43.5472209674501],[172.567549639951,-43.5472164671532],[172.567543452919,-43.5472164439244],[172.567543484831,-43.5472119436275],[172.567537297799,-43.5472119203984],[172.567537329711,-43.5472074201015],[172.56753114268,-43.5472073968721],[172.56753117459198,-43.5472028965752],[172.567524987562,-43.54720287334539],[172.567525019475,-43.5471983730485],[172.567518832445,-43.5471983498184],[172.567518896271,-43.5471893492245],[172.567512709242,-43.5471893259941],[172.567512804982,-43.5471758251033],[172.567506617955,-43.5471758018725],[172.567506649869,-43.5471713015755],[172.56750046284196,-43.5471712783444],[172.567500494756,-43.5471667780475],[172.567494307729,-43.547166754816],[172.567494339644,-43.547162254519],[172.567488152618,-43.5471622312872],[172.567488184533,-43.5471577309903],[172.567481997508,-43.5471577077581],[172.567482029423,-43.5471532074612],[172.567475842398,-43.5471531842287],[172.567475874314,-43.5471486839317],[172.567469687289,-43.5471486606989],[172.56746971920597,-43.5471441604019],[172.567463532182,-43.5471441371688],[172.56746356409897,-43.5471396368718],[172.567457377075,-43.5471396136383],[172.567457408992,-43.5471351133413],[172.567451221969,-43.5471350901075],[172.56745125388696,-43.5471305898105],[172.567445066864,-43.5471305665764],[172.567445098783,-43.54712606627929],[172.56743891176,-43.5471260430448],[172.567438943679,-43.5471215427478],[172.56743275665698,-43.547121519513],[172.567432788576,-43.547117019216],[172.567426601555,-43.5471169959808],[172.567426633474,-43.54711249568379],[172.56742044645299,-43.5471124724483],[172.56742047837398,-43.5471079721512],[172.567414291353,-43.54710794891539],[172.567414323274,-43.5471034486184],[172.567408136253,-43.5471034253822],[172.567408168175,-43.5470989250851],[172.567401981155,-43.54709890184869],[172.567402013077,-43.5470944015516],[172.567395826057,-43.547094378314796],[172.567395857979,-43.5470898780177],[172.56738967096,-43.5470898547805],[172.567389702883,-43.5470853544834],[172.567383515865,-43.547085331246],[172.56738354778798,-43.5470808309488],[172.56737736077,-43.5470808077111],[172.567377392693,-43.5470763074139],[172.567371205676,-43.5470762841758],[172.5673712376,-43.54707178387859],[172.567365050583,-43.5470717606402],[172.567365082507,-43.54706726034299],[172.56735889549,-43.5470672371042],[172.56735892741497,-43.54706273680709],[172.567352740399,-43.5470627135679],[172.567352772325,-43.5470582132708],[172.567347223353,-43.5470581924279],[172.567423485866,-43.5470134746889]]]]}}]}