{"type":"FeatureCollection","features":[{"type":"Feature","properties":{"gml_id":"vwRatingUnit.100048","RatingUnitID":100048,"ValuationVisitOrder":"39300","drvRatingUnitLocation":null,"StreetAddressID":1023,"OccupationLevelDescription":"Ground Floor and Above","StreetAddress":"2/578 Pages Road","LocalityName":"Bexley","ValuationRollNumber":"22852"},"geometry":{"type":"MultiPolygon","coordinates":[[[[172.714698892469,-43.5124304368268],[172.714854925776,-43.5123659800118],[172.71485874256396,-43.5123644032218],[172.714859982554,-43.512365992539195],[172.714995753851,-43.5125400131985],[172.714999870018,-43.5125452886961],[172.714995721167,-43.5125470037216],[172.714827950664,-43.5126163544806],[172.714689741769,-43.5124342170358],[172.714690002237,-43.5124341094453],[172.714698892469,-43.5124304368268]]]]}}]}