{"type":"FeatureCollection","features":[{"type":"Feature","properties":{"gml_id":"vwRatingUnit.101424","RatingUnitID":101424,"ValuationVisitOrder":"13001","drvRatingUnitLocation":null,"StreetAddressID":139500,"OccupationLevelDescription":"Ground Floor and Above","StreetAddress":"3 Mortens Lane","LocalityName":"Mt Pleasant","ValuationRollNumber":"22901"},"geometry":{"type":"MultiPolygon","coordinates":[[[[172.718775080044,-43.55912761988759],[172.718714912614,-43.5589810431963],[172.718739156732,-43.5589625341001],[172.71882616068,-43.5588314098199],[172.719061514412,-43.5589059223409],[172.719422010602,-43.5590200529951],[172.719553447796,-43.55903101098459],[172.719539959922,-43.5590574128668],[172.71920978424598,-43.5590296807043],[172.718840935028,-43.5589986942271],[172.718775080044,-43.55912761988759]]],[[[172.718692193963,-43.5591949311804],[172.718557188957,-43.559101437370295],[172.718666846664,-43.5590177293818],[172.71866344079396,-43.5590719494637],[172.71867584452497,-43.5591036346596],[172.718713981896,-43.5591293161711],[172.718692193963,-43.5591949311804]]]]}}]}