{"type":"FeatureCollection","features":[{"type":"Feature","properties":{"gml_id":"vwRatingUnit.10246","RatingUnitID":10246,"ValuationVisitOrder":"4300","drvRatingUnitLocation":null,"StreetAddressID":30811,"OccupationLevelDescription":"Ground Floor and Above","StreetAddress":"1/14 Gatonby Place","LocalityName":"Avonhead","ValuationRollNumber":"21895"},"geometry":{"type":"MultiPolygon","coordinates":[[[[172.55685124398698,-43.5263338164157],[172.556847438125,-43.5263326529147],[172.556772059095,-43.526309608523796],[172.55668050765996,-43.52620408029749],[172.556697550886,-43.52619254397689],[172.556712180707,-43.526179494987],[172.55671854061697,-43.526172453603],[172.55672921345,-43.5261575083356],[172.556733464123,-43.526149666853],[172.556739729962,-43.5261334533589],[172.556742894341,-43.5261167689003],[172.5567429858,-43.5261131311724],[172.556743172519,-43.5261057257719],[172.556753905396,-43.5261090033646],[172.556765972714,-43.5261126881907],[172.556767735211,-43.5261132265136],[172.556776494594,-43.5261159012884],[172.556782661019,-43.5261177844992],[172.556797538,-43.5261223274793],[172.556797586829,-43.5261223424828],[172.556808059883,-43.5261255405741],[172.556812512641,-43.5261269004644],[172.556839625184,-43.5261351795911],[172.556842364631,-43.5261360161633],[172.556871190493,-43.526144818859294],[172.556872216271,-43.5261451321129],[172.556881712384,-43.5261480319471],[172.55688714209398,-43.5261496900847],[172.556913277706,-43.5261576712037],[172.556916994104,-43.5261588060239],[172.556926704074,-43.5261617711378],[172.55690097930798,-43.5262117317811],[172.556872833238,-43.5262584251298],[172.55688611943,-43.5262624782367],[172.556878117892,-43.526275867262],[172.55688534581998,-43.526278291497796],[172.55685124398698,-43.5263338164157]]]]}}]}