{"type":"FeatureCollection","features":[{"type":"Feature","properties":{"gml_id":"vwRatingUnit.117156","RatingUnitID":117156,"ValuationVisitOrder":"89013","drvRatingUnitLocation":null,"StreetAddressID":49287,"OccupationLevelDescription":"Ground Floor and Above","StreetAddress":"12 The Stables","LocalityName":"Wentworth Park","ValuationRollNumber":"23441"},"geometry":{"type":"MultiPolygon","coordinates":[[[[172.548326335397,-43.572227035713],[172.548679687128,-43.5724457974459],[172.548666131927,-43.572454106142],[172.548651445894,-43.5724613213139],[172.548635790558,-43.5724673625861],[172.548619339762,-43.5724721586322],[172.54860227946,-43.572475674176694],[172.548584808187,-43.5724778469905],[172.548567111767,-43.5724786597994],[172.548530761884,-43.57247745541079],[172.548513065729,-43.5724782322093],[172.54849558227298,-43.572480377959494],[172.54847850991598,-43.5724838484345],[172.548462046923,-43.5724886174081],[172.548446367002,-43.5724946315562],[172.548431644062,-43.5725018105527],[172.548418051877,-43.5725100920727],[172.548405752176,-43.5725193687405],[172.548394869486,-43.57252954203519],[172.548149714346,-43.5723777733336],[172.548326335397,-43.572227035713]]]]}}]}