{"type":"FeatureCollection","features":[{"type":"Feature","properties":{"gml_id":"vwRatingUnit.103901","RatingUnitID":103901,"ValuationVisitOrder":"17800","drvRatingUnitLocation":null,"StreetAddressID":12229,"OccupationLevelDescription":"Ground Floor and Above","StreetAddress":"19 Denman Street","LocalityName":"Sumner","ValuationRollNumber":"22920"},"geometry":{"type":"MultiPolygon","coordinates":[[[[172.760422498613,-43.5761673302804],[172.760617362804,-43.5762829575392],[172.76042061523998,-43.5764582749624],[172.760222276416,-43.5766349928232],[172.760027399484,-43.576519355886],[172.760422498613,-43.5761673302804]]]]}}]}