{"type":"FeatureCollection","features":[{"type":"Feature","properties":{"gml_id":"vwRatingUnit.109293","RatingUnitID":109293,"ValuationVisitOrder":"43400","drvRatingUnitLocation":null,"StreetAddressID":18188,"OccupationLevelDescription":"Ground Floor and Above","StreetAddress":"17 Tensing Place","LocalityName":"Upper Riccarton","ValuationRollNumber":"23412"},"geometry":{"type":"MultiPolygon","coordinates":[[[[172.566391391312,-43.5380214746772],[172.566446171888,-43.53838936604969],[172.566182153396,-43.5384101716134],[172.566224110245,-43.5380273251537],[172.56623193819598,-43.5380278676957],[172.566264422336,-43.5380287281496],[172.56629691614296,-43.5380282295011],[172.566329320701,-43.53802636237649],[172.566391391312,-43.5380214746772]]]]}}]}