{"type":"FeatureCollection","features":[{"type":"Feature","properties":{"gml_id":"vwRatingUnit.102970","RatingUnitID":102970,"ValuationVisitOrder":"8300","drvRatingUnitLocation":null,"StreetAddressID":15610,"OccupationLevelDescription":"Ground Floor and Above","StreetAddress":"174 Clifton Terrace","LocalityName":"Clifton","ValuationRollNumber":"22911"},"geometry":{"type":"MultiPolygon","coordinates":[[[[172.749847513488,-43.5708422110042],[172.750486336165,-43.571426633812],[172.750171920912,-43.5715091101719],[172.749715648356,-43.5710038442357],[172.749847513488,-43.5708422110042]]]]}}]}