{"type":"FeatureCollection","features":[{"type":"Feature","properties":{"gml_id":"vwRatingUnit.111013","RatingUnitID":111013,"ValuationVisitOrder":"17400","drvRatingUnitLocation":null,"StreetAddressID":13990,"OccupationLevelDescription":"Ground Floor and Above","StreetAddress":"18 Vanguard Drive","LocalityName":"Broomfield","ValuationRollNumber":"23415"},"geometry":{"type":"MultiPolygon","coordinates":[[[[172.530634112774,-43.5290713966165],[172.531080992077,-43.5292036601037],[172.531001755451,-43.5293453900745],[172.530554862902,-43.52921312624089],[172.530634112774,-43.5290713966165]]]]}}]}