{"type":"FeatureCollection","features":[{"type":"Feature","properties":{"gml_id":"vwRatingUnit.113455","RatingUnitID":113455,"ValuationVisitOrder":"41000","drvRatingUnitLocation":null,"StreetAddressID":96277,"OccupationLevelDescription":"Ground Floor and Above","StreetAddress":"46 Denise Crescent","LocalityName":"Hornby","ValuationRollNumber":"23431"},"geometry":{"type":"MultiPolygon","coordinates":[[[[172.513070716987,-43.5463980344447],[172.513163727483,-43.5464361595558],[172.512921752006,-43.5467484588012],[172.512895320246,-43.546737617903595],[172.512853825224,-43.5467194855391],[172.512820223898,-43.5467030517228],[172.512787720491,-43.5466854974249],[172.512756364211,-43.546666858858],[172.512726228871,-43.546647190341],[172.512697376126,-43.54662651913849],[172.51268633328698,-43.5466178405211],[172.513070716987,-43.5463980344447]]]]}}]}