{"type":"FeatureCollection","features":[{"type":"Feature","properties":{"gml_id":"vwRatingUnit.117317","RatingUnitID":117317,"ValuationVisitOrder":"13700","drvRatingUnitLocation":null,"StreetAddressID":113497,"OccupationLevelDescription":"Ground Floor and Above","StreetAddress":"65 Dunbars Road","LocalityName":"Oaklands","ValuationRollNumber":"23443"},"geometry":{"type":"MultiPolygon","coordinates":[[[[172.564214297515,-43.569390679531],[172.564401624132,-43.5694535646957],[172.564149738184,-43.56985027645499],[172.56396239828,-43.569787381848],[172.564214297515,-43.569390679531]]]]}}]}