{"type":"FeatureCollection","features":[{"type":"Feature","properties":{"gml_id":"vwRatingUnit.113788","RatingUnitID":113788,"ValuationVisitOrder":"24000","drvRatingUnitLocation":null,"StreetAddressID":6076,"OccupationLevelDescription":"Ground Floor and Above","StreetAddress":"2/21 Woodcote Avenue","LocalityName":"Islington","ValuationRollNumber":"23432"},"geometry":{"type":"MultiPolygon","coordinates":[[[[172.513636750369,-43.5444131454504],[172.513687479931,-43.5445977530387],[172.513492452767,-43.5446246709978],[172.513439342291,-43.5444403144947],[172.513636750369,-43.5444131454504]]]]}}]}