{"type":"FeatureCollection","features":[{"type":"Feature","properties":{"gml_id":"vwRatingUnit.10863","RatingUnitID":10863,"ValuationVisitOrder":"57800","drvRatingUnitLocation":null,"StreetAddressID":96197,"OccupationLevelDescription":"Ground Floor and Above","StreetAddress":"46 Bevington Street","LocalityName":"Avonhead","ValuationRollNumber":"21895"},"geometry":{"type":"MultiPolygon","coordinates":[[[[172.553375687849,-43.519898648854394],[172.55356359192,-43.5199464711506],[172.553358217424,-43.5203738479678],[172.553170312122,-43.52032603435149],[172.553375687849,-43.519898648854394]]]]}}]}