{"type":"FeatureCollection","features":[{"type":"Feature","properties":{"gml_id":"vwRatingUnit.106051","RatingUnitID":106051,"ValuationVisitOrder":"58400","drvRatingUnitLocation":null,"StreetAddressID":15933,"OccupationLevelDescription":"Ground Floor and Above","StreetAddress":"177 Sparks Road","LocalityName":"Hoon Hay","ValuationRollNumber":"22952"},"geometry":{"type":"MultiPolygon","coordinates":[[[[172.598295260491,-43.5669022015382],[172.59867868544896,-43.5672588222786],[172.598471055477,-43.5673106727703],[172.59808763139696,-43.5669540513365],[172.598295260491,-43.5669022015382]]]]}}]}