{"type":"FeatureCollection","features":[{"type":"Feature","properties":{"gml_id":"vwRatingUnit.105155","RatingUnitID":105155,"ValuationVisitOrder":"16300","drvRatingUnitLocation":null,"StreetAddressID":90752,"OccupationLevelDescription":"Ground Floor and Above","StreetAddress":"40 Greenpark Street","LocalityName":"Hoon Hay","ValuationRollNumber":"22951"},"geometry":{"type":"MultiPolygon","coordinates":[[[[172.609943140215,-43.5607019864319],[172.609962169487,-43.5607107634761],[172.60999318496798,-43.56072646659639],[172.61002368847298,-43.5607428790347],[172.610035321241,-43.5607528191578],[172.610043178759,-43.5607647356785],[172.61005488166498,-43.5607908143381],[172.610065596464,-43.5608068898499],[172.609722836576,-43.5610548888497],[172.60957909246497,-43.560965358275794],[172.609943140215,-43.5607019864319]]]]}}]}