{"type":"FeatureCollection","features":[{"type":"Feature","properties":{"gml_id":"vwRatingUnit.105663","RatingUnitID":105663,"ValuationVisitOrder":"19300","drvRatingUnitLocation":null,"StreetAddressID":81642,"OccupationLevelDescription":"Ground Floor and Above","StreetAddress":"35 Downing Street","LocalityName":"Hoon Hay","ValuationRollNumber":"22952"},"geometry":{"type":"MultiPolygon","coordinates":[[[[172.598311442298,-43.561861432048],[172.598525042734,-43.562054359933],[172.598733119886,-43.5622422997622],[172.59857799064,-43.5623331262332],[172.59815632581598,-43.5619522490007],[172.598311442298,-43.561861432048]]]]}}]}