{"type":"FeatureCollection","features":[{"type":"Feature","properties":{"gml_id":"vwRatingUnit.116101","RatingUnitID":116101,"ValuationVisitOrder":"24500","drvRatingUnitLocation":null,"StreetAddressID":110233,"OccupationLevelDescription":"Ground Floor and Above","StreetAddress":"70 Oakley Crescent","LocalityName":"Hornby","ValuationRollNumber":"23435"},"geometry":{"type":"MultiPolygon","coordinates":[[[[172.534246403094,-43.55387251582649],[172.534257484738,-43.553818348357396],[172.534284865031,-43.5536378114838],[172.534286653467,-43.5536305010018],[172.534291882528,-43.5536199281089],[172.53429996273897,-43.5536103568366],[172.534310557008,-43.5536021728595],[172.534323204698,-43.5535957343499],[172.53433739642398,-43.5535913002739],[172.534352536728,-43.5535890572426],[172.534367981403,-43.5535890926606],[172.534552888644,-43.5536035481468],[172.53451234772,-43.5538983610057],[172.534246403094,-43.55387251582649]]]]}}]}