{"type":"FeatureCollection","features":[{"type":"Feature","properties":{"gml_id":"vwRatingUnit.106153","RatingUnitID":106153,"ValuationVisitOrder":"2401","drvRatingUnitLocation":null,"StreetAddressID":55137,"OccupationLevelDescription":"Ground Floor and Above","StreetAddress":"207C Hoon Hay Road","LocalityName":"Hoon Hay","ValuationRollNumber":"22960"},"geometry":{"type":"MultiPolygon","coordinates":[[[[172.610163973363,-43.5661026151459],[172.61071722258097,-43.5659887157554],[172.610887073115,-43.565928830861],[172.61090561812,-43.5659361839714],[172.611362031464,-43.5657755292738],[172.611403146353,-43.5657860365611],[172.611587784606,-43.5660688214667],[172.611305317134,-43.5661230356815],[172.611251730082,-43.5659407437955],[172.611184062026,-43.5658392668114],[172.61090587065098,-43.56593734591459],[172.610886967549,-43.565929856586],[172.610717563648,-43.5659895809743],[172.610164314423,-43.5661034803665],[172.610163973363,-43.5661026151459]]]]}}]}