{"type":"FeatureCollection","features":[{"type":"Feature","properties":{"gml_id":"vwRatingUnit.114444","RatingUnitID":114444,"ValuationVisitOrder":"23100","drvRatingUnitLocation":null,"StreetAddressID":6977,"OccupationLevelDescription":"Ground Floor and Above","StreetAddress":"2/126 Springs Road","LocalityName":"Hornby","ValuationRollNumber":"23433"},"geometry":{"type":"MultiPolygon","coordinates":[[[[172.534381437892,-43.5511737854626],[172.53438438366197,-43.5511718381088],[172.534386825948,-43.5511738072402],[172.53457760799,-43.5513276276964],[172.53447810675,-43.5513991981557],[172.534471919285,-43.55139917315209],[172.53446569746498,-43.5514036484495],[172.534459509999,-43.5514036234453],[172.534447066355,-43.5514125740384],[172.534440878888,-43.5514125490332],[172.53443776797596,-43.5514147866811],[172.53443775079697,-43.5514170368317],[172.534437725904,-43.5514202975197],[172.534423370766,-43.5514087238146],[172.534376227906,-43.5513707152485],[172.53435944202897,-43.5513571817492],[172.534314730008,-43.5513211329429],[172.5342955134,-43.55130563964679],[172.534244368556,-43.5512644043099],[172.534340726205,-43.5512006986265],[172.534381437892,-43.5511737854626]]]]}}]}