{"type":"FeatureCollection","features":[{"type":"Feature","properties":{"gml_id":"vwRatingUnit.111925","RatingUnitID":111925,"ValuationVisitOrder":"1400","drvRatingUnitLocation":null,"StreetAddressID":24584,"OccupationLevelDescription":"Ground Floor and Above","StreetAddress":"149 Buchanans Road","LocalityName":"Hei Hei","ValuationRollNumber":"23421"},"geometry":{"type":"MultiPolygon","coordinates":[[[[172.52928836672598,-43.530744620834],[172.529472658589,-43.5308008292563],[172.529280195988,-43.53113475121],[172.529095977302,-43.5310785697968],[172.52928836672598,-43.530744620834]]]]}}]}