{"type":"FeatureCollection","features":[{"type":"Feature","properties":{"gml_id":"vwRatingUnit.100020","RatingUnitID":100020,"ValuationVisitOrder":"34800","drvRatingUnitLocation":null,"StreetAddressID":52379,"OccupationLevelDescription":"Ground Floor and Above","StreetAddress":"2/8 Birch Street","LocalityName":"Bexley","ValuationRollNumber":"22852"},"geometry":{"type":"MultiPolygon","coordinates":[[[[172.71900226270498,-43.5152338967099],[172.71901618899,-43.5152310126013],[172.719019495224,-43.5152394857987],[172.719021129589,-43.515243674340894],[172.719024429828,-43.5152521321693],[172.71902724119,-43.5152593371065],[172.719029364434,-43.515264778539695],[172.71903335279296,-43.5152749998717],[172.71903676634696,-43.515283748094795],[172.71903946439997,-43.5152906626365],[172.719041700959,-43.51529639446449],[172.71904557601,-43.5153063254008],[172.71904910288,-43.51531536401849],[172.719051687623,-43.5153219881647],[172.719054037497,-43.5153280103875],[172.71905779924,-43.5153376509283],[172.71906143942599,-43.5153469799406],[172.71906391085898,-43.5153533136913],[172.719066374048,-43.5153596263089],[172.719070022482,-43.515368976454],[172.71907377598396,-43.5153785958609],[172.719076134108,-43.5153846392162],[172.719078710611,-43.515391242228496],[172.719082245737,-43.5154003019781],[172.719086112556,-43.5154102117795],[172.71908835736997,-43.5154159647395],[172.719091047188,-43.5154228581464],[172.71909446900497,-43.5154316275004],[172.71909844913998,-43.5154418276964],[172.719100580644,-43.515447290261],[172.719103383778,-43.5154544740626],[172.719106692286,-43.51546295302119],[172.719108318417,-43.515467120428596],[172.719112813761,-43.515478640973],[172.71911891563,-43.5154942673616],[172.719121467986,-43.5155008037319],[172.71911888304797,-43.5155013390308],[172.718964139913,-43.51553338372],[172.718964224316,-43.51551507508129],[172.718958061315,-43.51551055969669],[172.718958082062,-43.5155060594079],[172.718951919062,-43.515501544023],[172.718951939809,-43.5154970437341],[172.71894577681,-43.5154925283489],[172.718945818306,-43.5154835277712],[172.718939655309,-43.5154790123855],[172.718939676057,-43.5154745120967],[172.718933513062,-43.51546999671069],[172.718933554559,-43.515460996133],[172.718927391565,-43.5154564807466],[172.718927536809,-43.5154249787244],[172.718921373819,-43.51542046333759],[172.718921394569,-43.5154159630487],[172.718915231581,-43.5154114476616],[172.718915273081,-43.5154024470837],[172.718909110095,-43.5153979316962],[172.718909130845,-43.51539343140719],[172.71890296786,-43.5153889160194],[172.71890311311697,-43.5153574139965],[172.718896950136,-43.51535289860829],[172.718896991639,-43.5153438980302],[172.71889082865997,-43.5153393826416],[172.71889084941196,-43.51533488235259],[172.718884686434,-43.5153303669636],[172.718884727939,-43.51532136638559],[172.71887856496298,-43.51531685099619],[172.71887858571597,-43.5153123507071],[172.718872422741,-43.5153078353175],[172.718872443494,-43.5153033350284],[172.718866280521,-43.5152988196384],[172.71886632202896,-43.5152898190602],[172.718860159057,-43.5152853036698],[172.718860179812,-43.5152808033807],[172.718854016842,-43.51527628799],[172.718854058351,-43.5152672874117],[172.718851187447,-43.5152651840009],[172.71900226270498,-43.5152338967099]]]]}}]}