{"type":"FeatureCollection","features":[{"type":"Feature","properties":{"gml_id":"vwRatingUnit.111541","RatingUnitID":111541,"ValuationVisitOrder":"64500","drvRatingUnitLocation":null,"StreetAddressID":88681,"OccupationLevelDescription":"Ground Floor and Above","StreetAddress":"1/4 Dumfries Drive","LocalityName":"Riccarton Park","ValuationRollNumber":"23415"},"geometry":{"type":"MultiPolygon","coordinates":[[[[172.533570727634,-43.5313006326358],[172.533798515097,-43.5313574753549],[172.533705778031,-43.5314987439942],[172.533705272588,-43.531498582795294],[172.53370018070197,-43.53149695872279],[172.53369098016697,-43.5314940243848],[172.533689322309,-43.5314934957496],[172.533662394974,-43.531484907557],[172.533656746431,-43.5314831060413],[172.533648102202,-43.5314803491396],[172.533645887687,-43.5314796430626],[172.533633809787,-43.5314757909818],[172.533624170563,-43.5314727165836],[172.53361951702,-43.53147123256089],[172.533613312179,-43.5314692536032],[172.533605224611,-43.5314666741395],[172.533602453441,-43.5314657903603],[172.533590931848,-43.531462115715],[172.53358073632697,-43.5314588638731],[172.533576639444,-43.5314575572901],[172.533569877591,-43.53145540088709],[172.533562346685,-43.531452998862],[172.533549419911,-43.5314488761348],[172.53355647793,-43.5314221720368],[172.53356420615,-43.5313822033318],[172.53356689589796,-43.5313621151903],[172.53356981044,-43.5313239898175],[172.533570727634,-43.5313006326358]]]]}}]}