{"type":"FeatureCollection","features":[{"type":"Feature","properties":{"gml_id":"vwRatingUnit.113961","RatingUnitID":113961,"ValuationVisitOrder":"40700","drvRatingUnitLocation":null,"StreetAddressID":80862,"OccupationLevelDescription":"Ground Floor and Above","StreetAddress":"34 Skerten Avenue","LocalityName":"Hornby","ValuationRollNumber":"23432"},"geometry":{"type":"MultiPolygon","coordinates":[[[[172.51737229346998,-43.5462748356472],[172.517467602714,-43.54635272396],[172.517503048791,-43.5463816754191],[172.51713129831197,-43.5466224312214],[172.517000530743,-43.54651559098129],[172.51737229346998,-43.5462748356472]]]]}}]}