{"type":"FeatureCollection","features":[{"type":"Feature","properties":{"gml_id":"vwRatingUnit.112971","RatingUnitID":112971,"ValuationVisitOrder":"22500","drvRatingUnitLocation":null,"StreetAddressID":127308,"OccupationLevelDescription":"Ground Floor and Above","StreetAddress":"8E Chappie Place","LocalityName":"Hornby","ValuationRollNumber":"23422"},"geometry":{"type":"MultiPolygon","coordinates":[[[[172.529601556984,-43.5423261693015],[172.52964309438298,-43.5423230086421],[172.529647463961,-43.542353260553],[172.52960575449896,-43.54235626749579],[172.529601556984,-43.5423261693015]]]]}}]}