{"type":"FeatureCollection","features":[{"type":"Feature","properties":{"gml_id":"vwRatingUnit.104258","RatingUnitID":104258,"ValuationVisitOrder":"48300","drvRatingUnitLocation":null,"StreetAddressID":107126,"OccupationLevelDescription":"Ground Floor and Above","StreetAddress":"57 Wiggins Street","LocalityName":"Sumner","ValuationRollNumber":"22920"},"geometry":{"type":"MultiPolygon","coordinates":[[[[172.765195443711,-43.5738469654045],[172.765292437909,-43.57390453117449],[172.764897282959,-43.574256483171695],[172.764800424425,-43.5741989983573],[172.765195443711,-43.5738469654045]]]]}}]}