{"type":"FeatureCollection","features":[{"type":"Feature","properties":{"gml_id":"vwRatingUnit.115174","RatingUnitID":115174,"ValuationVisitOrder":"18500","drvRatingUnitLocation":null,"StreetAddressID":90681,"OccupationLevelDescription":"Ground Floor and Above","StreetAddress":"40 Dickson Crescent","LocalityName":"Hornby","ValuationRollNumber":"23434"},"geometry":{"type":"MultiPolygon","coordinates":[[[[172.536805964279,-43.5464975499965],[172.537097278631,-43.5467096840154],[172.537077017094,-43.5467575773106],[172.537043388816,-43.5467699263748],[172.536960524846,-43.5468211323488],[172.536639050117,-43.5466062753991],[172.536805964279,-43.5464975499965]]]]}}]}