{"type":"FeatureCollection","features":[{"type":"Feature","properties":{"gml_id":"vwRatingUnit.116769","RatingUnitID":116769,"ValuationVisitOrder":"64200","drvRatingUnitLocation":null,"StreetAddressID":9257,"OccupationLevelDescription":"Ground Floor and Above","StreetAddress":"10B Patterson Terrace","LocalityName":"Oaklands","ValuationRollNumber":"23441"},"geometry":{"type":"MultiPolygon","coordinates":[[[[172.557263255655,-43.57736107302689],[172.557263464284,-43.5773606065627],[172.557338965571,-43.5771917962945],[172.55733963169598,-43.5771903069399],[172.55734604802797,-43.577191823471495],[172.55747093707797,-43.5772213413425],[172.557616608101,-43.5772557799454],[172.557620744569,-43.5772567577524],[172.557616532723,-43.5772661746858],[172.557547317578,-43.577420932253496],[172.557263255655,-43.57736107302689]]]]}}]}