{"type":"FeatureCollection","features":[{"type":"Feature","properties":{"gml_id":"vwRatingUnit.102018","RatingUnitID":102018,"ValuationVisitOrder":"82300","drvRatingUnitLocation":null,"StreetAddressID":71522,"OccupationLevelDescription":"Ground Floor and Above","StreetAddress":"3R Muritai Terrace","LocalityName":"Mt Pleasant","ValuationRollNumber":"22901"},"geometry":{"type":"MultiPolygon","coordinates":[[[[172.71794783012797,-43.5663815590304],[172.717986036475,-43.566393236008],[172.717534626463,-43.5666818065428],[172.717404619148,-43.5667649236016],[172.717173095601,-43.56691291993949],[172.716965705438,-43.5670454940159],[172.716472149181,-43.5673610037899],[172.71644247663397,-43.5673427948696],[172.716471721321,-43.5673251895846],[172.716692000284,-43.567184367499],[172.716958784309,-43.5670138311536],[172.717316393545,-43.5667852199769],[172.71794783012797,-43.5663815590304]]]]}}]}