{"type":"FeatureCollection","features":[{"type":"Feature","properties":{"gml_id":"vwRatingUnit.111678","RatingUnitID":111678,"ValuationVisitOrder":"76900","drvRatingUnitLocation":null,"StreetAddressID":51855,"OccupationLevelDescription":"Ground Floor and Above","StreetAddress":"2/72 Buchanans Road","LocalityName":"Riccarton Park","ValuationRollNumber":"23415"},"geometry":{"type":"MultiPolygon","coordinates":[[[[172.538040598651,-43.5328007560464],[172.538327972508,-43.5328874703665],[172.538246654536,-43.5330274235327],[172.537959659144,-43.5329400558779],[172.538035944009,-43.532808766888],[172.538040598651,-43.5328007560464]]]]}}]}