{"type":"FeatureCollection","features":[{"type":"Feature","properties":{"gml_id":"vwRatingUnit.113153","RatingUnitID":113153,"ValuationVisitOrder":"11100","drvRatingUnitLocation":null,"StreetAddressID":32403,"OccupationLevelDescription":"Ground Floor and Above","StreetAddress":"346 Waterloo Road","LocalityName":"Islington","ValuationRollNumber":"23431"},"geometry":{"type":"MultiPolygon","coordinates":[[[[172.507385419135,-43.5413145209283],[172.507374531203,-43.5412973315],[172.507301687027,-43.5411823280592],[172.50730572799,-43.5411809734937],[172.50741139489,-43.5411455514593],[172.507411776809,-43.5411454233932],[172.507423054878,-43.5411416427622],[172.507425032903,-43.5411409795913],[172.507434714865,-43.5411377340639],[172.507438288994,-43.5411365357879],[172.50744637485,-43.5411338253645],[172.507451545084,-43.541132091982995],[172.50745803483298,-43.5411299166638],[172.507464801172,-43.5411276481765],[172.507516334372,-43.54111037314149],[172.507517825502,-43.5411098731955],[172.50752799434696,-43.5411064644338],[172.507531081581,-43.5411054293815],[172.507539653963,-43.5411025557235],[172.507544337657,-43.5411009855659],[172.507551313934,-43.54109864701339],[172.507557593731,-43.5410965417489],[172.507562973904,-43.5410947383022],[172.507570849804,-43.541092097930296],[172.507574633873,-43.5410908295898],[172.507584105872,-43.54108765437],[172.50758629384,-43.541086920876296],[172.50759736194,-43.5410832105485],[172.507597953806,-43.5410830121615],[172.507610618007,-43.5410787667253],[172.50761318538497,-43.5410779059332],[172.507621273375,-43.541075194727],[172.507623874071,-43.5410743229006],[172.507626089625,-43.5410735801669],[172.507626414402,-43.5410743337641],[172.507687405094,-43.5412158998021],[172.507385419135,-43.5413145209283]]]]}}]}