{"type":"FeatureCollection","features":[{"type":"Feature","properties":{"gml_id":"vwRatingUnit.100207","RatingUnitID":100207,"ValuationVisitOrder":"59500","drvRatingUnitLocation":null,"StreetAddressID":70633,"OccupationLevelDescription":"Ground Floor and Above","StreetAddress":"2E Seabreeze Close","LocalityName":"Bexley","ValuationRollNumber":"22852"},"geometry":{"type":"MultiPolygon","coordinates":[[[[172.720424961163,-43.5178591739119],[172.72042712981798,-43.5178879183181],[172.720399901907,-43.5178837658985],[172.720397323357,-43.5178607989266],[172.720424961163,-43.5178591739119]]]]}}]}