{"type":"FeatureCollection","features":[{"type":"Feature","properties":{"gml_id":"vwRatingUnit.113324","RatingUnitID":113324,"ValuationVisitOrder":"27600","drvRatingUnitLocation":null,"StreetAddressID":51012,"OccupationLevelDescription":"Ground Floor and Above","StreetAddress":"129 Foremans Road","LocalityName":"Islington","ValuationRollNumber":"23431"},"geometry":{"type":"MultiPolygon","coordinates":[[[[172.511467130956,-43.5417195578885],[172.511740518059,-43.5421525737974],[172.511568623395,-43.54221000886349],[172.511295237249,-43.5417769925458],[172.511467130956,-43.5417195578885]]]]}}]}