{"type":"FeatureCollection","features":[{"type":"Feature","properties":{"gml_id":"vwRatingUnit.115266","RatingUnitID":115266,"ValuationVisitOrder":"27800","drvRatingUnitLocation":null,"StreetAddressID":80150,"OccupationLevelDescription":"Ground Floor and Above","StreetAddress":"337B Main South Road","LocalityName":"Hornby","ValuationRollNumber":"23434"},"geometry":{"type":"MultiPolygon","coordinates":[[[[172.5337556369,-43.5430306972721],[172.533780720931,-43.5430319599481],[172.53372923607697,-43.5435754419825],[172.533994427549,-43.5437878295843],[172.53385397867797,-43.5438793403622],[172.533801487476,-43.5439135383155],[172.53364882772198,-43.543789517849],[172.533495615163,-43.5436650538847],[172.533683856703,-43.5435421079118],[172.533705524578,-43.5435597114062],[172.5337556369,-43.5430306972721]]]]}}]}