{"type":"FeatureCollection","features":[{"type":"Feature","properties":{"gml_id":"vwRatingUnit.100430","RatingUnitID":100430,"ValuationVisitOrder":"15600","drvRatingUnitLocation":null,"StreetAddressID":24611,"OccupationLevelDescription":"Ground Floor and Above","StreetAddress":"149 Main Road","LocalityName":"Redcliffs","ValuationRollNumber":"22900"},"geometry":{"type":"MultiPolygon","coordinates":[[[[172.74138072791197,-43.5638644231746],[172.741418159538,-43.5639515599372],[172.74099279037,-43.564093229168996],[172.740940956356,-43.5640108842461],[172.74138072791197,-43.5638644231746]]]]}}]}