{"type":"FeatureCollection","features":[{"type":"Feature","properties":{"gml_id":"vwRatingUnit.108451","RatingUnitID":108451,"ValuationVisitOrder":"65700","drvRatingUnitLocation":null,"StreetAddressID":123558,"OccupationLevelDescription":"Ground Floor and Above","StreetAddress":"8 Wolsey Place","LocalityName":"Hillmorton","ValuationRollNumber":"22980"},"geometry":{"type":"MultiPolygon","coordinates":[[[[172.58059665885398,-43.560575688704],[172.580753524743,-43.56071633841889],[172.580541758717,-43.560841416862196],[172.58052393713098,-43.5608501997725],[172.58051507736099,-43.5608534708158],[172.580496440573,-43.5608584074241],[172.580476952632,-43.5608611267409],[172.580457121421,-43.5608615676089],[172.580447224167,-43.5608609195335],[172.580437442204,-43.5608597048281],[172.580418422059,-43.5608555942489],[172.580400542943,-43.5608493456355],[172.58038426180997,-43.56084110466399],[172.580369973294,-43.56083107978969],[172.58036369944,-43.5608254854701],[172.580282735785,-43.5607470369597],[172.58059665885398,-43.560575688704]]]]}}]}