{"type":"FeatureCollection","features":[{"type":"Feature","properties":{"gml_id":"vwRatingUnit.110591","RatingUnitID":110591,"ValuationVisitOrder":"25600","drvRatingUnitLocation":null,"StreetAddressID":115242,"OccupationLevelDescription":"Ground Floor and Above","StreetAddress":"68B Cheyenne Street","LocalityName":"Upper Riccarton","ValuationRollNumber":"23414"},"geometry":{"type":"MultiPolygon","coordinates":[[[[172.554577066015,-43.5284424027743],[172.554797061249,-43.5285100697229],[172.554720070877,-43.528642931175],[172.554719187035,-43.5286444563356],[172.55471386746,-43.52864290717089],[172.554496840196,-43.5285797072691],[172.554498823795,-43.5285774198681],[172.554577066015,-43.5284424027743]]]]}}]}