{"type":"FeatureCollection","features":[{"type":"Feature","properties":{"gml_id":"vwRatingUnit.108221","RatingUnitID":108221,"ValuationVisitOrder":"46600","drvRatingUnitLocation":null,"StreetAddressID":70924,"OccupationLevelDescription":"Ground Floor and Above","StreetAddress":"3 Charles Upham Avenue","LocalityName":"Hillmorton","ValuationRollNumber":"22980"},"geometry":{"type":"MultiPolygon","coordinates":[[[[172.585744666713,-43.556874411341],[172.585782349906,-43.55689303438069],[172.585801782886,-43.556903653133894],[172.58583916689196,-43.5569262444216],[172.585874447645,-43.55695055628819],[172.585907477243,-43.5569764981964],[172.585931345317,-43.5569974207493],[172.585738093295,-43.5571115581748],[172.585549400917,-43.5572230114446],[172.585496489905,-43.5572542608718],[172.585339497603,-43.557113734058],[172.585744666713,-43.556874411341]]]]}}]}