{"type":"FeatureCollection","features":[{"type":"Feature","properties":{"gml_id":"vwRatingUnit.112537","RatingUnitID":112537,"ValuationVisitOrder":"55300","drvRatingUnitLocation":null,"StreetAddressID":57671,"OccupationLevelDescription":"Ground Floor and Above","StreetAddress":"22 Gilberthorpes Road","LocalityName":"Hei Hei","ValuationRollNumber":"23421"},"geometry":{"type":"MultiPolygon","coordinates":[[[[172.51675512518,-43.5387543617922],[172.517281750878,-43.53891493366199],[172.51714686562,-43.5390035943644],[172.517036344196,-43.5390185763982],[172.516667658731,-43.5389061735661],[172.51675512518,-43.5387543617922]]]]}}]}