{"type":"FeatureCollection","features":[{"type":"Feature","properties":{"gml_id":"vwRatingUnit.118246","RatingUnitID":118246,"ValuationVisitOrder":"45000","drvRatingUnitLocation":null,"StreetAddressID":23978,"OccupationLevelDescription":"Ground Floor and Above","StreetAddress":"143 Wales Street","LocalityName":"Oaklands","ValuationRollNumber":"23444"},"geometry":{"type":"MultiPolygon","coordinates":[[[[172.557299824813,-43.5767728241977],[172.557372147176,-43.5768041003933],[172.55744791089896,-43.5768303223087],[172.557250533532,-43.57716924514249],[172.557123035023,-43.577139107178],[172.556996686032,-43.5771092435082],[172.557299824813,-43.5767728241977]]]]}}]}