{"type":"FeatureCollection","features":[{"type":"Feature","properties":{"gml_id":"vwRatingUnit.103283","RatingUnitID":103283,"ValuationVisitOrder":"60375","drvRatingUnitLocation":null,"StreetAddressID":24414,"OccupationLevelDescription":"Ground Floor and Above","StreetAddress":"147 Richmond Hill Road","LocalityName":"Richmond Hill","ValuationRollNumber":"22911"},"geometry":{"type":"MultiPolygon","coordinates":[[[[172.752949263699,-43.5741560874491],[172.75300429957798,-43.5743130741828],[172.752733663588,-43.5744556932028],[172.752700455816,-43.5745703151448],[172.752692568621,-43.5745676071364],[172.752649714324,-43.5745544557945],[172.752654715604,-43.5745330633807],[172.752657835898,-43.5745114959343],[172.752659087297,-43.5744898254848],[172.752658444643,-43.5744681509835],[172.752655932405,-43.5744465444867],[172.752651562637,-43.5744250870241],[172.752645322524,-43.57440388657359],[172.75263727371,-43.5743830062702],[172.752627415832,-43.5743625361174],[172.75261312855096,-43.5743384022968],[172.752754210952,-43.5741595947364],[172.752949263699,-43.5741560874491]]]]}}]}