{"type":"FeatureCollection","features":[{"type":"Feature","properties":{"gml_id":"vwRatingUnit.100653","RatingUnitID":100653,"ValuationVisitOrder":"29201","drvRatingUnitLocation":null,"StreetAddressID":104909,"OccupationLevelDescription":"Ground Floor and Above","StreetAddress":"53A Celia Street","LocalityName":"Redcliffs","ValuationRollNumber":"22900"},"geometry":{"type":"MultiPolygon","coordinates":[[[[172.735291661757,-43.55708708153999],[172.73545499722,-43.5572135534828],[172.73512914885,-43.5574358218431],[172.735271738488,-43.5575460994637],[172.735189577614,-43.5576021824387],[172.735058420745,-43.5574982493324],[172.734881679167,-43.5573581822396],[172.735291661757,-43.55708708153999]]]]}}]}