{"type":"FeatureCollection","features":[{"type":"Feature","properties":{"gml_id":"vwRatingUnit.101364","RatingUnitID":101364,"ValuationVisitOrder":"5900","drvRatingUnitLocation":null,"StreetAddressID":71676,"OccupationLevelDescription":"Ground Floor and Above","StreetAddress":"3 Quarry Road","LocalityName":"St Andrews Hill","ValuationRollNumber":"22901"},"geometry":{"type":"MultiPolygon","coordinates":[[[[172.715627555603,-43.5557106836008],[172.71577296800697,-43.555628983502494],[172.715895811553,-43.5556446048943],[172.71593981478298,-43.555773340396],[172.715980564132,-43.55604021767079],[172.715890384297,-43.556039554725],[172.71574735954,-43.5558900631105],[172.715674604389,-43.5559559751442],[172.715627555603,-43.5557106836008]]]]}}]}