{"type":"FeatureCollection","features":[{"type":"Feature","properties":{"gml_id":"vwRatingUnit.107781","RatingUnitID":107781,"ValuationVisitOrder":"13200","drvRatingUnitLocation":null,"StreetAddressID":3996,"OccupationLevelDescription":"Ground Floor and Above","StreetAddress":"2/28 Mathers Road","LocalityName":"Hoon Hay","ValuationRollNumber":"22980"},"geometry":{"type":"MultiPolygon","coordinates":[[[[172.597156256241,-43.5591009317982],[172.596984578195,-43.5591854857495],[172.597108008691,-43.5593010046742],[172.597091473055,-43.55931082731419],[172.596840220914,-43.5590809517447],[172.596989662619,-43.5589921779885],[172.597018601344,-43.5589749886384],[172.597156256241,-43.5591009317982]]]]}}]}