{"type":"FeatureCollection","features":[{"type":"Feature","properties":{"gml_id":"vwRatingUnit.117559","RatingUnitID":117559,"ValuationVisitOrder":"37900","drvRatingUnitLocation":null,"StreetAddressID":86058,"OccupationLevelDescription":"Ground Floor and Above","StreetAddress":"39 Balcairn Street","LocalityName":"Oaklands","ValuationRollNumber":"23443"},"geometry":{"type":"MultiPolygon","coordinates":[[[[172.563653739691,-43.5737456199616],[172.56382559208998,-43.573803307851],[172.563617870865,-43.5741304652386],[172.56345872521996,-43.57407716351689],[172.56344595499496,-43.5740728938231],[172.563653739691,-43.5737456199616]]]]}}]}