{"type":"FeatureCollection","features":[{"type":"Feature","properties":{"gml_id":"vwRatingUnit.118301","RatingUnitID":118301,"ValuationVisitOrder":"50500","drvRatingUnitLocation":null,"StreetAddressID":120161,"OccupationLevelDescription":"Ground Floor and Above","StreetAddress":"75 Nottingham Avenue","LocalityName":"Oaklands","ValuationRollNumber":"23444"},"geometry":{"type":"MultiPolygon","coordinates":[[[[172.55843576328098,-43.5743170768888],[172.558616627932,-43.574377795344596],[172.55831795109196,-43.57484780676009],[172.558137523639,-43.5747863964713],[172.55843576328098,-43.5743170768888]]]]}}]}