{"type":"FeatureCollection","features":[{"type":"Feature","properties":{"gml_id":"vwRatingUnit.103439","RatingUnitID":103439,"ValuationVisitOrder":"80000","drvRatingUnitLocation":null,"StreetAddressID":127573,"OccupationLevelDescription":"Ground Floor and Above","StreetAddress":"9 Cascade Place","LocalityName":"Sumner","ValuationRollNumber":"22911"},"geometry":{"type":"MultiPolygon","coordinates":[[[[172.75422055373198,-43.5827743106195],[172.754452786889,-43.5829071821802],[172.75419684827,-43.583087223629796],[172.754183242652,-43.5830776362577],[172.75413137494,-43.5831182800567],[172.753949364107,-43.5830028585169],[172.753677176606,-43.5832542377774],[172.753652853861,-43.5832403253166],[172.753955302481,-43.582960947085],[172.754018425787,-43.5829446554872],[172.75422055373198,-43.5827743106195]]]]}}]}