{"type":"FeatureCollection","features":[{"type":"Feature","properties":{"gml_id":"vwRatingUnit.103091","RatingUnitID":103091,"ValuationVisitOrder":"30500","drvRatingUnitLocation":null,"StreetAddressID":11424,"OccupationLevelDescription":"Ground Floor and Above","StreetAddress":"2 Hurst Seager Lane","LocalityName":"Clifton","ValuationRollNumber":"22911"},"geometry":{"type":"MultiPolygon","coordinates":[[[[172.748411072075,-43.5691272009213],[172.748874307617,-43.5691701956508],[172.748822881348,-43.5693372589658],[172.748530471133,-43.569386656838],[172.748411072075,-43.5691272009213]]]]}}]}