{"type":"FeatureCollection","features":[{"type":"Feature","properties":{"gml_id":"vwRatingUnit.110004","RatingUnitID":110004,"ValuationVisitOrder":"48900","drvRatingUnitLocation":null,"StreetAddressID":101465,"OccupationLevelDescription":"Ground Floor and Above","StreetAddress":"5/109 Middlepark Road","LocalityName":"Sockburn","ValuationRollNumber":"23413"},"geometry":{"type":"MultiPolygon","coordinates":[[[[172.552768383016,-43.5364779538937],[172.552919695531,-43.5366313999649],[172.552836681432,-43.5366747408411],[172.552717488255,-43.5367369599689],[172.552561109592,-43.5365783785395],[172.552768383016,-43.5364779538937]]]]}}]}