{"type":"FeatureCollection","features":[{"type":"Feature","properties":{"gml_id":"vwRatingUnit.106281","RatingUnitID":106281,"ValuationVisitOrder":"13200","drvRatingUnitLocation":null,"StreetAddressID":7267,"OccupationLevelDescription":"Ground Floor and Above","StreetAddress":"2/138 Cashmere Road","LocalityName":"Hoon Hay","ValuationRollNumber":"22960"},"geometry":{"type":"MultiPolygon","coordinates":[[[[172.615795122927,-43.5736189351932],[172.615784602712,-43.573564445435494],[172.61579112186496,-43.573556830394395],[172.615794425737,-43.5735529712987],[172.615811137399,-43.5735334511146],[172.615813132901,-43.57353112036579],[172.61583115291896,-43.5735100715713],[172.615831839695,-43.5735092691688],[172.61586117581197,-43.5734750025085],[172.61586301825096,-43.573472850848795],[172.615881191292,-43.5734516232163],[172.61588172501,-43.5734509996436],[172.615891199027,-43.57343993343889],[172.615894196413,-43.5734364322592],[172.615911214127,-43.5734165541403],[172.615912903507,-43.57341458105],[172.615931229569,-43.5733931748393],[172.615931610229,-43.573392730096494],[172.615941068744,-43.5733816817701],[172.615943424728,-43.5733789298611],[172.615949698247,-43.5733817104793],[172.616098389483,-43.57344761791649],[172.616102887332,-43.5734496115851],[172.616098343552,-43.573454919215],[172.616011622636,-43.5735562182223],[172.616018101362,-43.5735897671442],[172.615795122927,-43.5736189351932]]]]}}]}