{"type":"FeatureCollection","features":[{"type":"Feature","properties":{"gml_id":"vwRatingUnit.111997","RatingUnitID":111997,"ValuationVisitOrder":"8400","drvRatingUnitLocation":null,"StreetAddressID":68343,"OccupationLevelDescription":"Ground Floor and Above","StreetAddress":"28 Tirangi Street","LocalityName":"Hei Hei","ValuationRollNumber":"23421"},"geometry":{"type":"MultiPolygon","coordinates":[[[[172.528036066996,-43.5316597663711],[172.528223865771,-43.5317170352504],[172.528035818879,-43.5320434214623],[172.527848019268,-43.531986152287494],[172.528036066996,-43.5316597663711]]]]}}]}