{"type":"FeatureCollection","features":[{"type":"Feature","properties":{"gml_id":"vwRatingUnit.105632","RatingUnitID":105632,"ValuationVisitOrder":"16100","drvRatingUnitLocation":null,"StreetAddressID":34932,"OccupationLevelDescription":"Ground Floor and Above","StreetAddress":"1/35 Mathers Road","LocalityName":"Hoon Hay","ValuationRollNumber":"22952"},"geometry":{"type":"MultiPolygon","coordinates":[[[[172.597386933317,-43.5593691164648],[172.597392782941,-43.5593656415284],[172.597396723733,-43.5593691506607],[172.597409455792,-43.5593804880925],[172.597428368284,-43.5593692611829],[172.597432865254,-43.5593665916724],[172.59743589476696,-43.5593692874687],[172.59768006076698,-43.5595865562874],[172.597674393211,-43.5595906385155],[172.59766201664996,-43.559590595317],[172.597655798689,-43.5595950739882],[172.597649610408,-43.5595950523881],[172.597643392446,-43.5595995310586],[172.597631015883,-43.5595994878568],[172.597624797919,-43.5596039665263],[172.597618609637,-43.5596039449246],[172.59759373776998,-43.559621859598096],[172.59758754948697,-43.5596218379947],[172.597581331517,-43.5596263166618],[172.59757514323297,-43.55962629505779],[172.59756892526198,-43.559630773724294],[172.597556548693,-43.5596307305145],[172.59755033072,-43.559635209180094],[172.597544142435,-43.5596351875744],[172.597537924461,-43.5596396662392],[172.59752554789,-43.5596396230261],[172.597519329914,-43.55964410169],[172.597513141628,-43.55964408008259],[172.597506923651,-43.5596485587458],[172.597500735365,-43.5596485371378],[172.597475863445,-43.559666451786],[172.59745729858,-43.55966638695589],[172.597456599808,-43.55966689026419],[172.597243763596,-43.5594541654211],[172.597386933317,-43.5593691164648]]]]}}]}