{"type":"FeatureCollection","features":[{"type":"Feature","properties":{"gml_id":"vwRatingUnit.10329","RatingUnitID":10329,"ValuationVisitOrder":"10300","drvRatingUnitLocation":null,"StreetAddressID":49294,"OccupationLevelDescription":"Ground Floor and Above","StreetAddress":"12 Withells Road","LocalityName":"Avonhead","ValuationRollNumber":"21895"},"geometry":{"type":"MultiPolygon","coordinates":[[[[172.5488493847,-43.5237681807218],[172.549052264848,-43.5238302738184],[172.548950918417,-43.524006081113],[172.548747791385,-43.5239438673614],[172.5488493847,-43.5237681807218]]]]}}]}