{"type":"FeatureCollection","features":[{"type":"Feature","properties":{"gml_id":"vwRatingUnit.100140","RatingUnitID":100140,"ValuationVisitOrder":"51300","drvRatingUnitLocation":null,"StreetAddressID":27839,"OccupationLevelDescription":"Ground Floor and Above","StreetAddress":"135 Marlow Road","LocalityName":"Aranui","ValuationRollNumber":"22852"},"geometry":{"type":"MultiPolygon","coordinates":[[[[172.709326727808,-43.5163258221504],[172.709456332015,-43.5164292431988],[172.709042939103,-43.516703494343595],[172.708898747012,-43.5165884340643],[172.709326727808,-43.5163258221504]]]]}}]}