{"type":"FeatureCollection","features":[{"type":"Feature","properties":{"gml_id":"vwRatingUnit.10720","RatingUnitID":10720,"ValuationVisitOrder":"44700","drvRatingUnitLocation":null,"StreetAddressID":33687,"OccupationLevelDescription":"Ground Floor and Above","StreetAddress":"1/27 Staveley Street","LocalityName":"Avonhead","ValuationRollNumber":"21895"},"geometry":{"type":"MultiPolygon","coordinates":[[[[172.558263833735,-43.520322393450996],[172.558266004161,-43.5203186681873],[172.558278378068,-43.5203224493041],[172.55854912507797,-43.5204051814939],[172.55855258922,-43.52040624002639],[172.55854907368797,-43.520412278919],[172.558459127833,-43.5205667852081],[172.55844598074796,-43.5205571166556],[172.558433612095,-43.5205570691762],[172.558427460362,-43.52055254510249],[172.558421276036,-43.520552521362],[172.558415124306,-43.5205479972876],[172.55840893998,-43.5205479735464],[172.558402788251,-43.5205434494713],[172.5583904196,-43.52054340198729],[172.558384267873,-43.5205388779112],[172.55837808354798,-43.520538854168294],[172.558371931822,-43.5205343300916],[172.558359563174,-43.5205342826042],[172.558353411449,-43.5205297585265],[172.558347227125,-43.520529734781896],[172.558341075402,-43.5205252107034],[172.558334891079,-43.5205251869583],[172.558328739358,-43.5205206628792],[172.558316370712,-43.5205206153871],[172.558310218992,-43.520516091306995],[172.55830403467,-43.5205160675601],[172.558297882951,-43.5205115434793],[172.558285514308,-43.520511495984],[172.558279362591,-43.52050697190219],[172.55827317826896,-43.5205069481536],[172.558267026554,-43.5205024240711],[172.55826084223298,-43.5205024003219],[172.558254690519,-43.5204978762388],[172.558242321878,-43.5204978287387],[172.558236170166,-43.52049330465459],[172.55822998584597,-43.52049328090369],[172.55822383413496,-43.5204887568189],[172.55821146549596,-43.5204887093155],[172.558205313787,-43.5204841852296],[172.558199129468,-43.52048416147709],[172.558192977761,-43.5204796373906],[172.558180609123,-43.5204795898839],[172.55817475534798,-43.5204752849002],[172.558263833735,-43.520322393450996]]]]}}]}