{"type":"FeatureCollection","features":[{"type":"Feature","properties":{"gml_id":"vwRatingUnit.106018","RatingUnitID":106018,"ValuationVisitOrder":"55700","drvRatingUnitLocation":null,"StreetAddressID":105165,"OccupationLevelDescription":"Ground Floor and Above","StreetAddress":"54 Maryhill Avenue","LocalityName":"Hoon Hay","ValuationRollNumber":"22952"},"geometry":{"type":"MultiPolygon","coordinates":[[[[172.603237373739,-43.5651820749832],[172.603331598977,-43.5653127924579],[172.602859350296,-43.5654426955633],[172.602787805763,-43.5653057462721],[172.603237373739,-43.5651820749832]]]]}}]}