{"type":"FeatureCollection","features":[{"type":"Feature","properties":{"gml_id":"vwRatingUnit.113132","RatingUnitID":113132,"ValuationVisitOrder":"9700","drvRatingUnitLocation":null,"StreetAddressID":4793,"OccupationLevelDescription":"Ground Floor and Above","StreetAddress":"2/32 Wilson Street","LocalityName":"Islington","ValuationRollNumber":"23431"},"geometry":{"type":"MultiPolygon","coordinates":[[[[172.50617124005697,-43.5387908591168],[172.506171664976,-43.5387907140846],[172.506197279443,-43.5387819697736],[172.50620167553,-43.5387804691361],[172.506210298955,-43.538777525099],[172.506213525258,-43.5387764238795],[172.506223318463,-43.5387730806829],[172.506225374628,-43.5387723786202],[172.50623633797096,-43.5387686360054],[172.506237224354,-43.5387683333611],[172.506301436196,-43.538746412599],[172.506308322316,-43.53874406178],[172.50631445568996,-43.5387419681726],[172.50632017203097,-43.5387400165124],[172.506327475185,-43.5387375234848],[172.50633202174296,-43.5387359712437],[172.506340494677,-43.5387330787956],[172.506343871097,-43.5387319259722],[172.506353514525,-43.5387286341065],[172.50635572080498,-43.538727880961],[172.506366534014,-43.5387241894143],[172.506367570513,-43.5387238356886],[172.506418612305,-43.5387064108925],[172.506418678946,-43.5387063880453],[172.506418693407,-43.5387064112402],[172.506418874326,-43.5387067039062],[172.506523033707,-43.5388711569245],[172.50652321044498,-43.5388714365764],[172.506524511829,-43.5388734944842],[172.506517414638,-43.5388758337546],[172.506322668514,-43.5389400243458],[172.506321468748,-43.5389404199979],[172.506268754303,-43.5389577952121],[172.506264011486,-43.5389593583056],[172.506255275655,-43.538962237924395],[172.506250686882,-43.5389637504736],[172.506241797008,-43.5389666803751],[172.506241028569,-43.5389669338805],[172.506201361406,-43.5389800084994],[172.50619506272199,-43.538982084497],[172.506187882749,-43.538984451203795],[172.506183571254,-43.5389858724082],[172.50617440409,-43.5389888939067],[172.506172079787,-43.5389896600583],[172.50616092542896,-43.538993336607994],[172.506160588319,-43.5389934477073],[172.506147447125,-43.53899777904919],[172.506137605378,-43.5390010230018],[172.50613396846,-43.5390022217474],[172.506126113906,-43.5390048106474],[172.506120489793,-43.539006664444],[172.50611462242998,-43.5390085985517],[172.506107011124,-43.539011107139],[172.50610313095396,-43.53901238619499],[172.506093532453,-43.5390155498324],[172.506091639477,-43.5390161738372],[172.506080054138,-43.5390199925258],[172.506068656519,-43.539023749118],[172.506066575463,-43.5390244352161],[172.506057165038,-43.5390275367567],[172.506053096788,-43.5390288776449],[172.506045673554,-43.5390313246542],[172.50603961810899,-43.5390333203321],[172.506034182069,-43.53903511229059],[172.50602613942797,-43.539037763017596],[172.505999707609,-43.5390464751931],[172.505999182418,-43.5390466483856],[172.505988216119,-43.53905026282499],[172.505985703731,-43.5390510910665],[172.505976724268,-43.539054050714],[172.505972225042,-43.5390555337458],[172.505957683433,-43.5390603266533],[172.505957015627,-43.5390592721506],[172.505939449447,-43.5390315370766],[172.506222424382,-43.5389394730057],[172.506226326473,-43.5389161625298],[172.50615672272497,-43.5387958150731],[172.50617124005697,-43.5387908591168]]]]}}]}