{"type":"FeatureCollection","features":[{"type":"Feature","properties":{"gml_id":"vwRatingUnit.112198","RatingUnitID":112198,"ValuationVisitOrder":"23600","drvRatingUnitLocation":null,"StreetAddressID":111113,"OccupationLevelDescription":"Ground Floor and Above","StreetAddress":"60 Manurere Street","LocalityName":"Hei Hei","ValuationRollNumber":"23421"},"geometry":{"type":"MultiPolygon","coordinates":[[[[172.524598164769,-43.532054799893],[172.52508484803397,-43.5322034885674],[172.525005829174,-43.5323403818901],[172.52451914499997,-43.532191692894],[172.524598164769,-43.532054799893]]]]}}]}