{"type":"FeatureCollection","features":[{"type":"Feature","properties":{"gml_id":"vwRatingUnit.112237","RatingUnitID":112237,"ValuationVisitOrder":"27800","drvRatingUnitLocation":null,"StreetAddressID":84072,"OccupationLevelDescription":"Ground Floor and Above","StreetAddress":"37 Hei Hei Road","LocalityName":"Hei Hei","ValuationRollNumber":"23421"},"geometry":{"type":"MultiPolygon","coordinates":[[[[172.523088075605,-43.5354994875981],[172.523661575237,-43.5356748692664],[172.523572502594,-43.5358291727791],[172.522998763665,-43.5356541767372],[172.523088075605,-43.5354994875981]]]]}}]}