{"type":"FeatureCollection","features":[{"type":"Feature","properties":{"gml_id":"vwRatingUnit.102010","RatingUnitID":102010,"ValuationVisitOrder":"81700","drvRatingUnitLocation":null,"StreetAddressID":20116,"OccupationLevelDescription":"Ground Floor and Above","StreetAddress":"151A Major Hornbrook Road","LocalityName":"Mt Pleasant","ValuationRollNumber":"22901"},"geometry":{"type":"MultiPolygon","coordinates":[[[[172.717014875483,-43.5664943672546],[172.71716357239399,-43.566617255814],[172.717135142476,-43.5666354483033],[172.71681502552298,-43.5668402634008],[172.716452094878,-43.5665403480845],[172.716489451253,-43.5665164443236],[172.716703685113,-43.56669347956979],[172.716918350331,-43.5665561264958],[172.717014875483,-43.5664943672546]]]]}}]}