{"type":"FeatureCollection","features":[{"type":"Feature","properties":{"gml_id":"vwRatingUnit.113724","RatingUnitID":113724,"ValuationVisitOrder":"17100","drvRatingUnitLocation":null,"StreetAddressID":71067,"OccupationLevelDescription":"Ground Floor and Above","StreetAddress":"3 Dunluce Place","LocalityName":"Islington","ValuationRollNumber":"23432"},"geometry":{"type":"MultiPolygon","coordinates":[[[[172.516790318329,-43.5430097928464],[172.516827908259,-43.5431520392955],[172.51658598217,-43.543185875532],[172.51636355361498,-43.5432169848632],[172.51633482973,-43.5431083669749],[172.516325939909,-43.5430747471537],[172.516790318329,-43.5430097928464]]]]}}]}