{"type":"FeatureCollection","features":[{"type":"Feature","properties":{"gml_id":"vwRatingUnit.11748","RatingUnitID":11748,"ValuationVisitOrder":"76900","drvRatingUnitLocation":null,"StreetAddressID":118037,"OccupationLevelDescription":"Ground Floor and Above","StreetAddress":"70 Avonhead Road","LocalityName":"Avonhead","ValuationRollNumber":"21896"},"geometry":{"type":"MultiPolygon","coordinates":[[[[172.561225052173,-43.5235687815904],[172.561610643671,-43.5236866152416],[172.561191409,-43.5239448820783],[172.560468941494,-43.5237240862933],[172.560478674287,-43.5237072197756],[172.560809328788,-43.5238082755563],[172.56098322212398,-43.5238614235327],[172.561225052173,-43.5235687815904]]]]}}]}