{"type":"FeatureCollection","features":[{"type":"Feature","properties":{"gml_id":"vwRatingUnit.118172","RatingUnitID":118172,"ValuationVisitOrder":"37300","drvRatingUnitLocation":null,"StreetAddressID":41934,"OccupationLevelDescription":"Ground Floor and Above","StreetAddress":"101 Wales Street","LocalityName":"Oaklands","ValuationRollNumber":"23444"},"geometry":{"type":"MultiPolygon","coordinates":[[[[172.558648304282,-43.5791459137221],[172.559143286059,-43.5791845473362],[172.559120842579,-43.5793211741939],[172.558626558793,-43.57927832180899],[172.558648304282,-43.5791459137221]]]]}}]}