{"type":"FeatureCollection","features":[{"type":"Feature","properties":{"gml_id":"vwRatingUnit.106431","RatingUnitID":106431,"ValuationVisitOrder":"26700","drvRatingUnitLocation":null,"StreetAddressID":112608,"OccupationLevelDescription":"Ground Floor and Above","StreetAddress":"63 Kaiwara Street","LocalityName":"Hoon Hay","ValuationRollNumber":"22960"},"geometry":{"type":"MultiPolygon","coordinates":[[[[172.607730911428,-43.5710594667651],[172.607846096224,-43.5711697477491],[172.607449457492,-43.5713887906437],[172.607334236026,-43.5712784821398],[172.607730911428,-43.5710594667651]]]]}}]}