{"type":"FeatureCollection","features":[{"type":"Feature","properties":{"gml_id":"vwRatingUnit.103304","RatingUnitID":103304,"ValuationVisitOrder":"65500","drvRatingUnitLocation":null,"StreetAddressID":131362,"OccupationLevelDescription":"Ground Floor and Above","StreetAddress":"95 Richmond Hill Road","LocalityName":"Richmond Hill","ValuationRollNumber":"22911"},"geometry":{"type":"MultiPolygon","coordinates":[[[[172.756203868941,-43.5709621229265],[172.756422846361,-43.5712052642385],[172.756587683414,-43.5711399889907],[172.756554802068,-43.5711842650748],[172.75618476996098,-43.57133086798099],[172.756163978943,-43.5713077739234],[172.755958275539,-43.57107931291219],[172.75617038234,-43.5709781091444],[172.756203868941,-43.5709621229265]]]]}}]}