{"type":"FeatureCollection","features":[{"type":"Feature","properties":{"gml_id":"vwRatingUnit.106075","RatingUnitID":106075,"ValuationVisitOrder":"60900","drvRatingUnitLocation":null,"StreetAddressID":86598,"OccupationLevelDescription":"Ground Floor and Above","StreetAddress":"39 Victors Road","LocalityName":"Hoon Hay","ValuationRollNumber":"22952"},"geometry":{"type":"MultiPolygon","coordinates":[[[[172.596409708011,-43.5646583500947],[172.59653238554,-43.5647724677543],[172.59604194679298,-43.565051240557],[172.595919269607,-43.5649371223811],[172.596409708011,-43.5646583500947]]]]}}]}