{"type":"FeatureCollection","features":[{"type":"Feature","properties":{"gml_id":"vwRatingUnit.109486","RatingUnitID":109486,"ValuationVisitOrder":"2300","drvRatingUnitLocation":null,"StreetAddressID":38162,"OccupationLevelDescription":"Ground Floor and Above","StreetAddress":"7A Ludecke Place","LocalityName":"Upper Riccarton","ValuationRollNumber":"23413"},"geometry":{"type":"MultiPolygon","coordinates":[[[[172.566968837513,-43.53122940020079],[172.567209842683,-43.531303197160696],[172.567101190477,-43.5315097615133],[172.566850976936,-43.5314332019985],[172.566865479603,-43.5314082972038],[172.566409492264,-43.53126882177849],[172.566416681595,-43.5312563826899],[172.566872668921,-43.531395848991],[172.566968837513,-43.53122940020079]]]]}}]}