{"type":"FeatureCollection","features":[{"type":"Feature","properties":{"gml_id":"vwRatingUnit.103356","RatingUnitID":103356,"ValuationVisitOrder":"74600","drvRatingUnitLocation":null,"StreetAddressID":59512,"OccupationLevelDescription":"Ground Floor and Above","StreetAddress":"23 Evans Pass Road","LocalityName":"Sumner","ValuationRollNumber":"22911"},"geometry":{"type":"MultiPolygon","coordinates":[[[[172.755689232579,-43.58332721278569],[172.75593941166096,-43.5834755729138],[172.755799091138,-43.5836621799663],[172.755738009793,-43.5836259772962],[172.755557150234,-43.5835187601892],[172.75568259501,-43.58333989839039],[172.755689232579,-43.58332721278569]]]]}}]}