{"type":"FeatureCollection","features":[{"type":"Feature","properties":{"gml_id":"vwRatingUnit.105974","RatingUnitID":105974,"ValuationVisitOrder":"50900","drvRatingUnitLocation":null,"StreetAddressID":68374,"OccupationLevelDescription":"Ground Floor and Above","StreetAddress":"28 Victors Road","LocalityName":"Hoon Hay","ValuationRollNumber":"22952"},"geometry":{"type":"MultiPolygon","coordinates":[[[[172.598612472546,-43.565070748341995],[172.598714008308,-43.5652157525272],[172.597851869186,-43.56570586308099],[172.59784196562697,-43.56569663879299],[172.59833237644,-43.5654178583137],[172.59820701232,-43.5653012400838],[172.59850410660897,-43.5651323501085],[172.598612472546,-43.565070748341995]]]]}}]}