{"type":"FeatureCollection","features":[{"type":"Feature","properties":{"gml_id":"vwRatingUnit.100924","RatingUnitID":100924,"ValuationVisitOrder":"43600","drvRatingUnitLocation":null,"StreetAddressID":43553,"OccupationLevelDescription":"Ground Floor and Above","StreetAddress":"108A Moncks Spur Road","LocalityName":"Moncks Spur","ValuationRollNumber":"22900"},"geometry":{"type":"MultiPolygon","coordinates":[[[[172.734434798969,-43.5675109697534],[172.734090035518,-43.5673642210715],[172.734194853508,-43.5672339305746],[172.734196792755,-43.5672315199773],[172.734202501252,-43.5672339481681],[172.734539434791,-43.5673772700777],[172.734434798969,-43.5675109697534]]]]}}]}