{"type":"FeatureCollection","features":[{"type":"Feature","properties":{"gml_id":"vwRatingUnit.104994","RatingUnitID":104994,"ValuationVisitOrder":"41300","drvRatingUnitLocation":null,"StreetAddressID":124951,"OccupationLevelDescription":"Ground Floor and Above","StreetAddress":"82 Taylors Mistake Road","LocalityName":"Scarborough","ValuationRollNumber":"22931"},"geometry":{"type":"MultiPolygon","coordinates":[[[[172.773839764856,-43.5758336590131],[172.77382038727,-43.5760486504536],[172.773331577246,-43.57616028909769],[172.773368389714,-43.57594131769509],[172.773839764856,-43.5758336590131]]]]}}]}