{"type":"FeatureCollection","features":[{"type":"Feature","properties":{"gml_id":"vwRatingUnit.101420","RatingUnitID":101420,"ValuationVisitOrder":"12700","drvRatingUnitLocation":null,"StreetAddressID":125220,"OccupationLevelDescription":"Ground Floor and Above","StreetAddress":"83 St Andrews Hill Road","LocalityName":"St Andrews Hill","ValuationRollNumber":"22901"},"geometry":{"type":"MultiPolygon","coordinates":[[[[172.718096879026,-43.5589253794884],[172.71849765894,-43.5591468800886],[172.718320534003,-43.5592820775637],[172.717942308336,-43.5590729802306],[172.718096879026,-43.5589253794884]]]]}}]}