{"type":"FeatureCollection","features":[{"type":"Feature","properties":{"gml_id":"vwRatingUnit.114806","RatingUnitID":114806,"ValuationVisitOrder":"62400","drvRatingUnitLocation":null,"StreetAddressID":66943,"OccupationLevelDescription":"Ground Floor and Above","StreetAddress":"27 Witham Street","LocalityName":"Hornby","ValuationRollNumber":"23433"},"geometry":{"type":"MultiPolygon","coordinates":[[[[172.52857728344,-43.5529508553306],[172.52887253942197,-43.5531946009922],[172.528750716377,-43.55327265348019],[172.528714834758,-43.5532956479816],[172.528417010516,-43.553055959808695],[172.52857728344,-43.5529508553306]]]]}}]}