{"type":"FeatureCollection","features":[{"type":"Feature","properties":{"gml_id":"vwRatingUnit.111987","RatingUnitID":111987,"ValuationVisitOrder":"7400","drvRatingUnitLocation":null,"StreetAddressID":44002,"OccupationLevelDescription":"Ground Floor and Above","StreetAddress":"11 Ariki Place","LocalityName":"Hei Hei","ValuationRollNumber":"23421"},"geometry":{"type":"MultiPolygon","coordinates":[[[[172.529186524539,-43.5316357744205],[172.529381272945,-43.531695167047495],[172.529197596109,-43.53201397616369],[172.529002834415,-43.531954592187596],[172.529186524539,-43.5316357744205]]]]}}]}