{"type":"FeatureCollection","features":[{"type":"Feature","properties":{"gml_id":"vwRatingUnit.109370","RatingUnitID":109370,"ValuationVisitOrder":"53100","drvRatingUnitLocation":null,"StreetAddressID":97760,"OccupationLevelDescription":"Ground Floor and Above","StreetAddress":"477H Blenheim Road","LocalityName":"Sockburn","ValuationRollNumber":"23412"},"geometry":{"type":"MultiPolygon","coordinates":[[[[172.5658275352,-43.5396852814812],[172.56583062833397,-43.5396852931448],[172.565883211603,-43.5396854914134],[172.565883179567,-43.5396899917204],[172.565895552102,-43.5396900383684],[172.565895520066,-43.5396945386754],[172.565938823942,-43.5396947019327],[172.565936231372,-43.5400589350601],[172.565775413324,-43.5400546938333],[172.56577625056897,-43.5399371120389],[172.565770064277,-43.539937088709],[172.565771217897,-43.5397750776623],[172.56576503162097,-43.53977505433189],[172.56576551230197,-43.5397075497269],[172.565765544348,-43.5397030494199],[172.56578410315396,-43.5397031194102],[172.565784135198,-43.5396986191032],[172.565796507735,-43.5396986657618],[172.565796539778,-43.5396941654547],[172.565808912314,-43.539694212112],[172.565808944357,-43.5396897118049],[172.565827503159,-43.53968978178829],[172.5658275352,-43.5396852814812]]]]}}]}