{"type":"FeatureCollection","features":[{"type":"Feature","properties":{"gml_id":"vwRatingUnit.11027","RatingUnitID":11027,"ValuationVisitOrder":"71900","drvRatingUnitLocation":null,"StreetAddressID":1350,"OccupationLevelDescription":"Ground Floor and Above","StreetAddress":"2/6 Staveley Street","LocalityName":"Avonhead","ValuationRollNumber":"21895"},"geometry":{"type":"MultiPolygon","coordinates":[[[[172.560877307508,-43.52047191434839],[172.560878410402,-43.520470002941494],[172.560884757478,-43.5204719427885],[172.56108384386997,-43.5205327890039],[172.561085024776,-43.5205331499196],[172.561083826319,-43.5205352268605],[172.560992903986,-43.520692796008],[172.560986864059,-43.5206883544394],[172.56097449538,-43.5206883072334],[172.560968343448,-43.5206837832972],[172.56095597477,-43.5206837360891],[172.560949822839,-43.520679212152],[172.560943638501,-43.5206791885471],[172.56093748657196,-43.5206746646093],[172.560925117896,-43.5206746173979],[172.560918965969,-43.5206700934591],[172.56091278163098,-43.5206700698525],[172.560906629705,-43.520665545913],[172.560900445368,-43.5206655223058],[172.560894293443,-43.5206609983656],[172.56088192477,-43.520660951149594],[172.560875772847,-43.5206564272084],[172.560857219839,-43.5206563563808],[172.560851067919,-43.5206518324383],[172.560844883583,-43.5206518088281],[172.560838731664,-43.5206472848848],[172.560826362994,-43.5206472376628],[172.560820211076,-43.5206427137186],[172.560814026742,-43.5206426901068],[172.560807874825,-43.5206381661618],[172.56078313748898,-43.52063807170979],[172.560781941082,-43.520637191904996],[172.560877307508,-43.52047191434839]]]]}}]}