{"type":"FeatureCollection","features":[{"type":"Feature","properties":{"gml_id":"vwRatingUnit.116737","RatingUnitID":116737,"ValuationVisitOrder":"61100","drvRatingUnitLocation":null,"StreetAddressID":61663,"OccupationLevelDescription":"Ground Floor and Above","StreetAddress":"24 Patterson Terrace","LocalityName":"Oaklands","ValuationRollNumber":"23441"},"geometry":{"type":"MultiPolygon","coordinates":[[[[172.55563257920497,-43.5768592657757],[172.55586717312397,-43.5768784048031],[172.55586316164897,-43.5769005402706],[172.555854254553,-43.576935311981],[172.555848632292,-43.5769525268217],[172.555835100715,-43.5769864976572],[172.555770575418,-43.5771307746643],[172.555766736558,-43.5771376994799],[172.5557586321,-43.5771472450961],[172.55574802449397,-43.5771554039531],[172.555735349735,-43.5771618086974],[172.555721142004,-43.5771662093641],[172.555706009309,-43.5771684192778],[172.555690571378,-43.577168341816694],[172.55567547198197,-43.5771659794602],[172.555512614554,-43.5771274767941],[172.55552097131297,-43.5771087963782],[172.55563257920497,-43.5768592657757]]]]}}]}