{"type":"FeatureCollection","features":[{"type":"Feature","properties":{"gml_id":"vwRatingUnit.101759","RatingUnitID":101759,"ValuationVisitOrder":"56100","drvRatingUnitLocation":null,"StreetAddressID":27957,"OccupationLevelDescription":"Ground Floor and Above","StreetAddress":"136 Major Hornbrook Road","LocalityName":"Mt Pleasant","ValuationRollNumber":"22901"},"geometry":{"type":"MultiPolygon","coordinates":[[[[172.715587005727,-43.5658102752131],[172.715651271522,-43.5659006459147],[172.715240546919,-43.5660550555682],[172.71513589769,-43.5659078636034],[172.71516835644297,-43.5658698623296],[172.71528338751,-43.56582661927429],[172.715587005727,-43.5658102752131]]]]}}]}