{"type":"FeatureCollection","features":[{"type":"Feature","properties":{"gml_id":"vwRatingUnit.104239","RatingUnitID":104239,"ValuationVisitOrder":"46700","drvRatingUnitLocation":null,"StreetAddressID":74811,"OccupationLevelDescription":"Ground Floor and Above","StreetAddress":"3/94 Nayland Street","LocalityName":"Sumner","ValuationRollNumber":"22920"},"geometry":{"type":"MultiPolygon","coordinates":[[[[172.76377846909,-43.5726740134108],[172.763961225465,-43.57279760422189],[172.763949566444,-43.5728079905539],[172.76388918771198,-43.5728617799704],[172.763700810655,-43.5727431957929],[172.763756302249,-43.5726937608596],[172.76377846909,-43.5726740134108]]]]}}]}