{"type":"FeatureCollection","features":[{"type":"Feature","properties":{"gml_id":"vwRatingUnit.111572","RatingUnitID":111572,"ValuationVisitOrder":"66600","drvRatingUnitLocation":null,"StreetAddressID":55551,"OccupationLevelDescription":"Ground Floor and Above","StreetAddress":"21 Cicada Place","LocalityName":"Riccarton Park","ValuationRollNumber":"23415"},"geometry":{"type":"MultiPolygon","coordinates":[[[[172.534715498614,-43.5311877268761],[172.534733870135,-43.5312492955082],[172.534607192236,-43.5314692791255],[172.53435072827,-43.5313909147709],[172.53430920905396,-43.531251790397995],[172.534715498614,-43.5311877268761]]]]}}]}