{"type":"FeatureCollection","features":[{"type":"Feature","properties":{"gml_id":"vwRatingUnit.101242","RatingUnitID":101242,"ValuationVisitOrder":"55148","drvRatingUnitLocation":null,"StreetAddressID":21869,"OccupationLevelDescription":"Ground Floor and Above","StreetAddress":"15 Dunkeld Lane","LocalityName":"Redcliffs","ValuationRollNumber":"22900"},"geometry":{"type":"MultiPolygon","coordinates":[[[[172.732222543192,-43.5615984553604],[172.73221170516,-43.5616398326872],[172.732193032908,-43.5617008670136],[172.732155904923,-43.56181305357139],[172.731767346911,-43.5618258506247],[172.731799240347,-43.5616488121803],[172.731796657921,-43.5616309131208],[172.732222543192,-43.5615984553604]]]]}}]}