{"type":"FeatureCollection","features":[{"type":"Feature","properties":{"gml_id":"vwRatingUnit.109747","RatingUnitID":109747,"ValuationVisitOrder":"25800","drvRatingUnitLocation":null,"StreetAddressID":9138,"OccupationLevelDescription":"Ground Floor and Above","StreetAddress":"2/10 Bowman Place","LocalityName":"Upper Riccarton","ValuationRollNumber":"23413"},"geometry":{"type":"MultiPolygon","coordinates":[[[[172.56275638969396,-43.5332984877301],[172.56283452663396,-43.5332684079955],[172.562995077886,-43.533206598163],[172.56299853133,-43.5332052685395],[172.562999861726,-43.5332066163256],[172.563080177847,-43.5332879828108],[172.563081228759,-43.5332890475242],[172.563080161978,-43.5332901975095],[172.562970383835,-43.5334085301399],[172.562968815819,-43.5334102203389],[172.56284225601996,-43.53334777181139],[172.562829144399,-43.5333589829203],[172.562763452109,-43.5333633443591],[172.56275638969396,-43.5332984877301]]]]}}]}