{"type":"FeatureCollection","features":[{"type":"Feature","properties":{"gml_id":"vwRatingUnit.115198","RatingUnitID":115198,"ValuationVisitOrder":"20400","drvRatingUnitLocation":null,"StreetAddressID":110533,"OccupationLevelDescription":"Ground Floor and Above","StreetAddress":"6/14A Dickson Crescent","LocalityName":"Hornby","ValuationRollNumber":"23434"},"geometry":{"type":"MultiPolygon","coordinates":[[[[172.538469619872,-43.5450019088134],[172.538544395644,-43.54505996688739],[172.538647521215,-43.5451400379193],[172.538518397411,-43.5452280412942],[172.538345293693,-43.5450922453444],[172.538469619872,-43.5450019088134]]]]}}]}