{"type":"FeatureCollection","features":[{"type":"Feature","properties":{"gml_id":"vwRatingUnit.109748","RatingUnitID":109748,"ValuationVisitOrder":"26000","drvRatingUnitLocation":null,"StreetAddressID":122150,"OccupationLevelDescription":"Ground Floor and Above","StreetAddress":"8 Bowman Place","LocalityName":"Upper Riccarton","ValuationRollNumber":"23413"},"geometry":{"type":"MultiPolygon","coordinates":[[[[172.563081228718,-43.5332890475543],[172.56330495376798,-43.5335156925579],[172.562914971922,-43.5335973264282],[172.562906700894,-43.533581012434894],[172.562901704763,-43.533573828765],[172.562889652481,-43.5335603446882],[172.562875091267,-43.533548237217],[172.562866952689,-43.5335427877815],[172.56285295355897,-43.5335351108733],[172.563081228718,-43.5332890475543]]]]}}]}