{"type":"FeatureCollection","features":[{"type":"Feature","properties":{"gml_id":"vwRatingUnit.109418","RatingUnitID":109418,"ValuationVisitOrder":"59000","drvRatingUnitLocation":null,"StreetAddressID":61922,"OccupationLevelDescription":"Ground Floor and Above","StreetAddress":"24 Watts Road","LocalityName":"Sockburn","ValuationRollNumber":"23412"},"geometry":{"type":"MultiPolygon","coordinates":[[[[172.56113436771696,-43.537751070214],[172.561616329158,-43.53823932230039],[172.56082056231696,-43.5386549918717],[172.56077031341,-43.5386812447324],[172.560398872844,-43.5388752629376],[172.559916865351,-43.5383871676256],[172.56113436771696,-43.537751070214]]]]}}]}