{"type":"FeatureCollection","features":[{"type":"Feature","properties":{"gml_id":"vwRatingUnit.110996","RatingUnitID":110996,"ValuationVisitOrder":"15700","drvRatingUnitLocation":null,"StreetAddressID":80772,"OccupationLevelDescription":"Ground Floor and Above","StreetAddress":"34 Pensacola Crescent","LocalityName":"Broomfield","ValuationRollNumber":"23415"},"geometry":{"type":"MultiPolygon","coordinates":[[[[172.530676496722,-43.5296111669979],[172.530801989439,-43.5296494376707],[172.530620294347,-43.5299648728074],[172.53057636542,-43.5299503641289],[172.530553630628,-43.5299419365185],[172.530531258469,-43.52993300633009],[172.530487713391,-43.5299136386745],[172.530466577375,-43.5299032283611],[172.53042570175,-43.5298810002723],[172.530405986676,-43.5298692096004],[172.530368396126,-43.5298445016344],[172.530676496722,-43.5296111669979]]]]}}]}