{"type":"FeatureCollection","features":[{"type":"Feature","properties":{"gml_id":"vwRatingUnit.103888","RatingUnitID":103888,"ValuationVisitOrder":"16900","drvRatingUnitLocation":null,"StreetAddressID":87332,"OccupationLevelDescription":"Ground Floor and Above","StreetAddress":"4 Arnold Street","LocalityName":"Sumner","ValuationRollNumber":"22920"},"geometry":{"type":"MultiPolygon","coordinates":[[[[172.758706401524,-43.5745621225121],[172.758889523964,-43.5746708519837],[172.75866092238496,-43.5748747395268],[172.75847770083598,-43.5747659734921],[172.758706401524,-43.5745621225121]]]]}}]}