{"type":"FeatureCollection","features":[{"type":"Feature","properties":{"gml_id":"vwRatingUnit.101523","RatingUnitID":101523,"ValuationVisitOrder":"25600","drvRatingUnitLocation":null,"StreetAddressID":44597,"OccupationLevelDescription":"Ground Floor and Above","StreetAddress":"11 Hilltop Lane","LocalityName":"St Andrews Hill","ValuationRollNumber":"22901"},"geometry":{"type":"MultiPolygon","coordinates":[[[[172.715494371706,-43.5599000393893],[172.715655720332,-43.5599145587267],[172.71575642405097,-43.5599236272294],[172.715769290286,-43.5602703875733],[172.715753778364,-43.56027122244309],[172.71573723248,-43.5602734948552],[172.715721125991,-43.5602770914294],[172.715705681883,-43.560281967712],[172.715691073722,-43.5602880611268],[172.715677499827,-43.5602953091585],[172.715665109217,-43.5603036041675],[172.715646087506,-43.5603192633065],[172.715636816828,-43.5603246858159],[172.715626487043,-43.5603289716454],[172.71561535852297,-43.5603320224298],[172.715608607745,-43.5603331938773],[172.715514815659,-43.5599775486102],[172.715494371706,-43.5599000393893]]]]}}]}