{"type":"FeatureCollection","features":[{"type":"Feature","properties":{"gml_id":"vwRatingUnit.113937","RatingUnitID":113937,"ValuationVisitOrder":"38400","drvRatingUnitLocation":null,"StreetAddressID":49735,"OccupationLevelDescription":"Ground Floor and Above","StreetAddress":"121 Denise Crescent","LocalityName":"Hornby","ValuationRollNumber":"23432"},"geometry":{"type":"MultiPolygon","coordinates":[[[[172.51522595721096,-43.5450779685651],[172.515239073813,-43.5451277629174],[172.515302361962,-43.5453681470982],[172.515293770961,-43.5453670128266],[172.515250891486,-43.5453627369208],[172.515207803232,-43.5453598192604],[172.515164580366,-43.5453582691584],[172.515121309502,-43.54535808697919],[172.515078064879,-43.5453592730356],[172.515034933181,-43.545361818691596],[172.515024680017,-43.545362747614],[172.51495945773,-43.5451151993812],[172.51522595721096,-43.5450779685651]]]]}}]}