{"type":"FeatureCollection","features":[{"type":"Feature","properties":{"gml_id":"vwRatingUnit.108725","RatingUnitID":108725,"ValuationVisitOrder":"28308","drvRatingUnitLocation":null,"StreetAddressID":60278,"OccupationLevelDescription":"Ground Floor and Above","StreetAddress":"23 Kilronan Place","LocalityName":"Sockburn","ValuationRollNumber":"23411"},"geometry":{"type":"MultiPolygon","coordinates":[[[[172.56559082038,-43.543349563318394],[172.565785250851,-43.543524534959],[172.565765034359,-43.5435364118555],[172.56519857036596,-43.54386939405809],[172.564672466211,-43.543395951165095],[172.564620054177,-43.5433487866016],[172.56559082038,-43.543349563318394]]]]}}]}