{"type":"FeatureCollection","features":[{"type":"Feature","properties":{"gml_id":"vwRatingUnit.106918","RatingUnitID":106918,"ValuationVisitOrder":"2200","drvRatingUnitLocation":null,"StreetAddressID":76980,"OccupationLevelDescription":"Ground Floor and Above","StreetAddress":"31 Redgrave Street","LocalityName":"Hoon Hay","ValuationRollNumber":"22970"},"geometry":{"type":"MultiPolygon","coordinates":[[[[172.589974676371,-43.5594326326568],[172.590094888857,-43.5595418524313],[172.589718358881,-43.5597610495077],[172.589598158944,-43.5596518383895],[172.589974676371,-43.5594326326568]]]]}}]}