{"type":"FeatureCollection","features":[{"type":"Feature","properties":{"gml_id":"vwRatingUnit.110120","RatingUnitID":110120,"ValuationVisitOrder":"58700","drvRatingUnitLocation":null,"StreetAddressID":20808,"OccupationLevelDescription":"Ground Floor and Above","StreetAddress":"158 Main South Road","LocalityName":"Sockburn","ValuationRollNumber":"23413"},"geometry":{"type":"MultiPolygon","coordinates":[[[[172.55384615324598,-43.5388131805084],[172.554042059112,-43.5390116257818],[172.553950720951,-43.539059327647],[172.553939098236,-43.5390650431801],[172.553914601478,-43.5390750112525],[172.553888721773,-43.53908290375939],[172.553861781532,-43.539088622939396],[172.553848020562,-43.5390906488189],[172.553820139961,-43.5390929890161],[172.553806106936,-43.5390933036694],[172.553778090716,-43.5390921959946],[172.55375041291,-43.5390888034015],[172.55372344443,-43.5390831633317],[172.553710331206,-43.5390795211521],[172.55369152162297,-43.5390731656273],[172.553645564625,-43.5390551927341],[172.553586361806,-43.5390297247381],[172.553557384439,-43.5390162550761],[172.553506175319,-43.5389906740195],[172.55384615324598,-43.5388131805084]]]]}}]}