{"type":"FeatureCollection","features":[{"type":"Feature","properties":{"gml_id":"vwRatingUnit.100366","RatingUnitID":100366,"ValuationVisitOrder":"9600","drvRatingUnitLocation":null,"StreetAddressID":61074,"OccupationLevelDescription":"Ground Floor and Above","StreetAddress":"24 Bay View Road","LocalityName":"Moncks Bay","ValuationRollNumber":"22900"},"geometry":{"type":"MultiPolygon","coordinates":[[[[172.741182691707,-43.566945259291],[172.74177379433397,-43.5670881777332],[172.741718797502,-43.5672084545639],[172.741127706207,-43.5670655358808],[172.741182691707,-43.566945259291]]]]}}]}