{"type":"FeatureCollection","features":[{"type":"Feature","properties":{"gml_id":"vwRatingUnit.10060","RatingUnitID":10060,"ValuationVisitOrder":"81600","drvRatingUnitLocation":null,"StreetAddressID":115731,"OccupationLevelDescription":"Ground Floor and Above","StreetAddress":"6A Swithland Place","LocalityName":"Avonhead","ValuationRollNumber":"21894"},"geometry":{"type":"MultiPolygon","coordinates":[[[[172.558478270288,-43.508183227786695],[172.558572873318,-43.5083370122524],[172.558930089646,-43.5082827124963],[172.559137598583,-43.5083803226578],[172.559107163548,-43.50841466156229],[172.55910313052698,-43.5084798489537],[172.558634561873,-43.50846451351119],[172.558461746255,-43.5081835603633],[172.558478270288,-43.508183227786695]]]]}}]}