{"type":"FeatureCollection","features":[{"type":"Feature","properties":{"gml_id":"vwRatingUnit.108808","RatingUnitID":108808,"ValuationVisitOrder":"41800","drvRatingUnitLocation":null,"StreetAddressID":94010,"OccupationLevelDescription":"Ground Floor and Above","StreetAddress":"43 Vickerys Road","LocalityName":"Sockburn","ValuationRollNumber":"23411"},"geometry":{"type":"MultiPolygon","coordinates":[[[[172.55300649152198,-43.5440932203128],[172.553269174369,-43.544309468289],[172.552489148032,-43.5448109024347],[172.552226515045,-43.5445946798983],[172.552464051349,-43.54444196741869],[172.552603108902,-43.5443525620564],[172.552817668194,-43.54421462002459],[172.55300649152198,-43.5440932203128]]]]}}]}