{"type":"FeatureCollection","features":[{"type":"Feature","properties":{"gml_id":"vwRatingUnit.108683","RatingUnitID":108683,"ValuationVisitOrder":"26500","drvRatingUnitLocation":null,"StreetAddressID":90294,"OccupationLevelDescription":"Ground Floor and Above","StreetAddress":"4/7 Michelle Road","LocalityName":"Sockburn","ValuationRollNumber":"23411"},"geometry":{"type":"MultiPolygon","coordinates":[[[[172.56675772637197,-43.5477850442273],[172.566753639774,-43.5477850288568],[172.56675370371298,-43.547776028263996],[172.566747516624,-43.5477760049928],[172.566747548594,-43.5477715046964],[172.566741361505,-43.547771481425],[172.566741393476,-43.5477669811286],[172.566735206388,-43.5477669578568],[172.566735238359,-43.5477624575603],[172.566729051271,-43.547762434288195],[172.566729083242,-43.5477579339918],[172.566722896155,-43.5477579107194],[172.566722928127,-43.5477534104229],[172.56671674104,-43.5477533871501],[172.566716773013,-43.5477488868537],[172.566710585927,-43.5477488635806],[172.566710617899,-43.5477443632841],[172.566704430813,-43.5477443400106],[172.56670446278696,-43.54773983971409],[172.56669827570096,-43.5477398164403],[172.566698307675,-43.5477353161439],[172.56669212059,-43.5477352928698],[172.566692152564,-43.5477307925733],[172.56668596547996,-43.5477307692988],[172.566685997454,-43.5477262690023],[172.56667981037,-43.5477262457276],[172.56667987432,-43.5477172451345],[172.566673687237,-43.54771722185939],[172.566673719213,-43.5477127215629],[172.56666753213,-43.5477126982874],[172.566667564106,-43.5477081979909],[172.566661377024,-43.54770817471509],[172.566661409,-43.5477036744186],[172.566655221919,-43.54770365114239],[172.566655253896,-43.5476991508459],[172.56664906681496,-43.5476991275694],[172.566649098792,-43.5476946272729],[172.566642911711,-43.5476946039961],[172.56664294368898,-43.5476901036995],[172.566636756609,-43.5476900804224],[172.566636788587,-43.5476855801258],[172.566630601507,-43.5476855568484],[172.566630633486,-43.5476810565518],[172.566624446406,-43.547681033274],[172.566624478385,-43.5476765329774],[172.566618291307,-43.5476765096993],[172.566618323286,-43.5476720094027],[172.566612136208,-43.54767198612419],[172.566612168188,-43.547667485827596],[172.56660598111,-43.5476674625488],[172.56660601309,-43.5476629622523],[172.566599826013,-43.54766293897309],[172.566599857994,-43.5476584386765],[172.566593670917,-43.547658415397],[172.566593702898,-43.5476539151004],[172.56658751582196,-43.5476538918206],[172.566587547803,-43.547649391524],[172.566581360727,-43.5476493682438],[172.566581392709,-43.5476448679472],[172.566575205634,-43.5476448446667],[172.566575237617,-43.5476403443701],[172.566569050541,-43.5476403210893],[172.566569082525,-43.5476358207926],[172.56656289545,-43.5476357975115],[172.566562927434,-43.5476312972148],[172.566556740359,-43.5476312739333],[172.566556836311,-43.5476177730433],[172.566550649239,-43.5476177497615],[172.56655071320796,-43.54760874916809],[172.566544526136,-43.547608725886],[172.566544558121,-43.5476042255893],[172.566545096976,-43.5475284084664],[172.566582375636,-43.5475065578822],[172.566582320194,-43.5475143593423],[172.56658850725597,-43.547514382622495],[172.566588475274,-43.5475188829193],[172.56659466233697,-43.5475189061991],[172.566594630356,-43.5475234064959],[172.566600817419,-43.5475234297755],[172.56660078543797,-43.5475279300722],[172.566606972502,-43.5475279533514],[172.566606940522,-43.5475324536482],[172.56661312758598,-43.547532476927],[172.566613095606,-43.5475369772238],[172.56661928267,-43.5475370005023],[172.566619250691,-43.5475415007991],[172.566625437756,-43.5475415240773],[172.56662540577696,-43.5475460243741],[172.566631592843,-43.5475460476519],[172.566631560864,-43.5475505479487],[172.56663774793,-43.547550571226196],[172.566637715952,-43.5475550715229],[172.566643903018,-43.5475550948001],[172.566643871041,-43.54755959509689],[172.566650058108,-43.5475596183737],[172.56665002613,-43.5475641186704],[172.566656213198,-43.5475641419469],[172.566656181221,-43.5475686422436],[172.566662368289,-43.54756866551979],[172.566662336313,-43.5475731658166],[172.566668523381,-43.5475731890924],[172.566668491405,-43.547577689389094],[172.566674678474,-43.5475777126646],[172.566674646498,-43.5475822129613],[172.566680833568,-43.547582236236494],[172.566680801593,-43.5475867365332],[172.566686988662,-43.547586759808],[172.566686956688,-43.5475912601047],[172.566693143758,-43.5475912833792],[172.566693111784,-43.5475957836759],[172.566699298855,-43.54759580695],[172.566699266881,-43.5476003072467],[172.566705453952,-43.547600330520496],[172.566705421979,-43.5476048308172],[172.566711609051,-43.5476048540907],[172.566711577078,-43.5476093543874],[172.56671776414998,-43.54760937766049],[172.566717732178,-43.5476138779572],[172.56672391925,-43.54761390123],[172.56672388727796,-43.5476184015266],[172.566730074351,-43.54761842479909],[172.56673004238,-43.5476229250958],[172.566736229453,-43.5476229483679],[172.566736197483,-43.5476274486646],[172.566742384556,-43.5476274719364],[172.566742352586,-43.547631972233],[172.56674853966,-43.547631995504496],[172.56674850769,-43.5476364958011],[172.566754694765,-43.5476365190723],[172.566754662796,-43.5476410193688],[172.566760849871,-43.5476410426397],[172.566760817902,-43.5476455429363],[172.566767004977,-43.54764556620669],[172.56676694104,-43.5476545667999],[172.56677312811698,-43.5476545900701],[172.566773064181,-43.54766359066319],[172.566779251258,-43.547663613933],[172.56677915535596,-43.5476771148226],[172.566785342434,-43.5476771380921],[172.566785310467,-43.5476816383887],[172.566791497546,-43.54768166165779],[172.56679146558,-43.5476861619543],[172.566797652659,-43.5476861852232],[172.566797620693,-43.54769068551969],[172.566803807773,-43.5476907087881],[172.566803775808,-43.5476952090847],[172.566809962888,-43.5476952323528],[172.566809898958,-43.5477042329458],[172.566816086039,-43.5477042562136],[172.566816054074,-43.5477087565101],[172.566822241156,-43.5477087797776],[172.566822209192,-43.54771328007399],[172.566828396275,-43.5477133033412],[172.56682836431096,-43.5477178036377],[172.566834551393,-43.5477178269045],[172.56683451943,-43.5477223272009],[172.566840706513,-43.5477223504674],[172.56684067455,-43.547726850763794],[172.56684686163396,-43.54772687403],[172.56684682967196,-43.5477313743264],[172.566846819825,-43.5477327607367],[172.56684154727296,-43.547735854879],[172.566840606679,-43.54773640685669],[172.56682630711896,-43.5477447984013],[172.566821967236,-43.5477473452146],[172.566818687041,-43.5477492701618],[172.566815754087,-43.5477509913333],[172.566811066961,-43.5477537419217],[172.56680954093798,-43.5477546374516],[172.56680344688,-43.54775821368119],[172.566803327787,-43.5477582835695],[172.566795826798,-43.5477626854401],[172.566790901484,-43.5477655758045],[172.566788206715,-43.5477671571985],[172.566784688331,-43.5477692219215],[172.566780586631,-43.5477716289564],[172.566778475178,-43.5477728680381],[172.566772966546,-43.54777610071389],[172.566772262024,-43.5477765141544],[172.56675772637197,-43.5477850442273]]]]}}]}