{"type":"FeatureCollection","features":[{"type":"Feature","properties":{"gml_id":"vwRatingUnit.109572","RatingUnitID":109572,"ValuationVisitOrder":"7900","drvRatingUnitLocation":null,"StreetAddressID":105053,"OccupationLevelDescription":"Ground Floor and Above","StreetAddress":"54 English Street","LocalityName":"Upper Riccarton","ValuationRollNumber":"23413"},"geometry":{"type":"MultiPolygon","coordinates":[[[[172.56218540144,-43.5294487740449],[172.562452700645,-43.5295310416697],[172.562465854688,-43.5295546380036],[172.56239301924,-43.5296799234416],[172.562102933377,-43.5295906292998],[172.56218540144,-43.5294487740449]]]]}}]}