{"type":"FeatureCollection","features":[{"type":"Feature","properties":{"gml_id":"vwRatingUnit.106492","RatingUnitID":106492,"ValuationVisitOrder":"31000","drvRatingUnitLocation":null,"StreetAddressID":51099,"OccupationLevelDescription":"Ground Floor and Above","StreetAddress":"129 Kaiwara Street","LocalityName":"Hoon Hay","ValuationRollNumber":"22960"},"geometry":{"type":"MultiPolygon","coordinates":[[[[172.610492500905,-43.5702356841403],[172.610524863868,-43.5702324241064],[172.610535727116,-43.5702313296242],[172.610568239591,-43.5702280544878],[172.610578953319,-43.5702269753517],[172.610611615308,-43.570223684853],[172.610622179517,-43.5702226208032],[172.610647761615,-43.5702200435211],[172.610658370177,-43.5702189749392],[172.610751848421,-43.570209557028],[172.61078017082,-43.5702067035742],[172.610782002063,-43.5702153991482],[172.61079536590097,-43.5702788491156],[172.610795518561,-43.5702795742668],[172.610801373511,-43.57030737295],[172.610802276643,-43.57031166169439],[172.610807380769,-43.5703358967825],[172.610808299529,-43.5703402575753],[172.610506559865,-43.570374005736596],[172.610474474239,-43.570237500235],[172.610481488139,-43.5702367937086],[172.610492500905,-43.5702356841403]]]]}}]}