{"type":"FeatureCollection","features":[{"type":"Feature","properties":{"gml_id":"vwRatingUnit.104942","RatingUnitID":104942,"ValuationVisitOrder":"39924","drvRatingUnitLocation":null,"StreetAddressID":10875,"OccupationLevelDescription":"Ground Floor and Above","StreetAddress":"1A Westridge","LocalityName":"Scarborough","ValuationRollNumber":"22931"},"geometry":{"type":"MultiPolygon","coordinates":[[[[172.770362115393,-43.5769270837672],[172.770642132189,-43.5770904481316],[172.770744934711,-43.5770973842282],[172.770808539054,-43.5771249345777],[172.771022872361,-43.5769669153811],[172.771286205889,-43.5768879264785],[172.77167490144598,-43.576695419],[172.772063420035,-43.5767522128671],[172.77205495081796,-43.5767592075165],[172.771812225814,-43.5767236633047],[172.771673083952,-43.5767213006589],[172.77157338032399,-43.5767532173734],[172.77136939781,-43.5768552573437],[172.771294544504,-43.5768927041934],[172.771034408593,-43.5769707363976],[172.771012708249,-43.5769867772201],[172.7707953936,-43.57714747262009],[172.77058949921098,-43.5772997118532],[172.770203432099,-43.5770644483088],[172.770362115393,-43.5769270837672]]]]}}]}