{"type":"FeatureCollection","features":[{"type":"Feature","properties":{"gml_id":"vwRatingUnit.113824","RatingUnitID":113824,"ValuationVisitOrder":"26500","drvRatingUnitLocation":null,"StreetAddressID":48976,"OccupationLevelDescription":"Ground Floor and Above","StreetAddress":"12 Springmead Place","LocalityName":"Islington","ValuationRollNumber":"23432"},"geometry":{"type":"MultiPolygon","coordinates":[[[[172.514143091417,-43.5428727216013],[172.514184408322,-43.5430604574521],[172.513896665638,-43.5431185862896],[172.513970392205,-43.5432686280855],[172.513946721736,-43.5432747838256],[172.514010402478,-43.54340447706979],[172.513891785179,-43.5435569203019],[172.513859441778,-43.5435613742394],[172.51398284765,-43.5434027406048],[172.513923063636,-43.54328093961319],[172.513927800206,-43.5432797084769],[172.513852965777,-43.5431274027407],[172.513635421704,-43.54311375677019],[172.51360929885698,-43.5430178404488],[172.513790098675,-43.5429686848033],[172.513970898127,-43.5429195378759],[172.514143091417,-43.5428727216013]]]]}}]}