{"type":"FeatureCollection","features":[{"type":"Feature","properties":{"gml_id":"vwRatingUnit.117034","RatingUnitID":117034,"ValuationVisitOrder":"79345","drvRatingUnitLocation":null,"StreetAddressID":121720,"OccupationLevelDescription":"Ground Floor and Above","StreetAddress":"79 Rempstone Drive","LocalityName":"Wentworth Park","ValuationRollNumber":"23441"},"geometry":{"type":"MultiPolygon","coordinates":[[[[172.54877832228,-43.5707947610495],[172.548786915892,-43.5707894121937],[172.548796603034,-43.5707851747149],[172.548807122948,-43.5707821556024],[172.548818190258,-43.5707804437474],[172.548829482712,-43.5707800918938],[172.548840703154,-43.5707811078798],[172.548851542377,-43.5707834544924],[172.54886170369,-43.5707870765662],[172.54887089079799,-43.5707918649326],[172.548937347797,-43.5708329975551],[172.549007563277,-43.5708764670443],[172.548758790702,-43.5710888939335],[172.54857065815597,-43.5709724162623],[172.54877832228,-43.5707947610495]]]]}}]}