{"type":"FeatureCollection","features":[{"type":"Feature","properties":{"gml_id":"vwRatingUnit.117379","RatingUnitID":117379,"ValuationVisitOrder":"19700","drvRatingUnitLocation":null,"StreetAddressID":154437,"OccupationLevelDescription":"Ground Floor and Above","StreetAddress":"65A Cobra Street","LocalityName":"Oaklands","ValuationRollNumber":"23443"},"geometry":{"type":"MultiPolygon","coordinates":[[[[172.562817013094,-43.570517221181696],[172.562815201784,-43.5705166132204],[172.56281367012298,-43.57051609912279],[172.562810813954,-43.5705151404577],[172.562800108856,-43.5705115473204],[172.562788141131,-43.5705075303842],[172.562786547591,-43.5705069955164],[172.562776804722,-43.5705037253457],[172.562772986328,-43.5705024437107],[172.562765468314,-43.5704999203062],[172.562759425067,-43.57049789190339],[172.562754131908,-43.5704961152655],[172.562745863808,-43.570493340094494],[172.562742795503,-43.5704923102236],[172.562732302552,-43.570488788284],[172.562720122697,-43.5704847001365],[172.56271874129698,-43.57048423647189],[172.56270878629599,-43.5704808950913],[172.562705180044,-43.5704796846582],[172.562697449896,-43.5704770900449],[172.562691618793,-43.5704751328428],[172.562652104313,-43.5704618698482],[172.56265093505297,-43.5704614773869],[172.562629758943,-43.5704543696391],[172.562711167106,-43.5703261381859],[172.562731544713,-43.570294037405795],[172.56273322915,-43.5702952749891],[172.562757986669,-43.5702953688609],[172.562764143793,-43.5702998925967],[172.562770333173,-43.57029991606349],[172.562776490298,-43.5703044397986],[172.562782679679,-43.5703044632647],[172.562801151061,-43.57031803446699],[172.562813529825,-43.5703180813963],[172.56281968695498,-43.570322605129],[172.562825876338,-43.57032262859279],[172.562832033469,-43.57032715232489],[172.562838222852,-43.570327175788],[172.562844379985,-43.5703316995193],[172.562856758752,-43.5703317464439],[172.562862915886,-43.570336270174295],[172.56286910527,-43.5703362936357],[172.562875262406,-43.5703408173654],[172.562887641175,-43.5703408642866],[172.562906112592,-43.57035443547169],[172.562918491363,-43.5703544823895],[172.562919763255,-43.5703554168643],[172.56281771589497,-43.5705161144603],[172.562817013094,-43.570517221181696]]]]}}]}