{"type":"FeatureCollection","features":[{"type":"Feature","properties":{"gml_id":"vwRatingUnit.105044","RatingUnitID":105044,"ValuationVisitOrder":"5200","drvRatingUnitLocation":null,"StreetAddressID":128796,"OccupationLevelDescription":"Ground Floor and Above","StreetAddress":"9 Weir Place","LocalityName":"Hoon Hay","ValuationRollNumber":"22951"},"geometry":{"type":"MultiPolygon","coordinates":[[[[172.603558350333,-43.5585147689017],[172.603682993794,-43.5585168713845],[172.603683338227,-43.558528627536994],[172.60368664838,-43.5585449122521],[172.603689455625,-43.5585528785536],[172.603697363073,-43.5585683059922],[172.603702401979,-43.558575676911296],[172.60371453987898,-43.5585895617553],[172.603721589836,-43.55859600350569],[172.60373650591,-43.5586070896607],[172.603267670353,-43.5588825658478],[172.603134061892,-43.5587953930673],[172.603110164978,-43.558779802563],[172.603558350333,-43.5585147689017]]]]}}]}