{"type":"FeatureCollection","features":[{"type":"Feature","properties":{"gml_id":"vwRatingUnit.100931","RatingUnitID":100931,"ValuationVisitOrder":"44100","drvRatingUnitLocation":null,"StreetAddressID":131100,"OccupationLevelDescription":"Ground Floor and Above","StreetAddress":"94 Moncks Spur Road","LocalityName":"Moncks Spur","ValuationRollNumber":"22900"},"geometry":{"type":"MultiPolygon","coordinates":[[[[172.734848445738,-43.5668476332778],[172.734852658865,-43.5668494250484],[172.735278321692,-43.5670304743948],[172.735164013071,-43.567172564577],[172.734734148863,-43.5669897140746],[172.734848445738,-43.5668476332778]]]]}}]}