{"type":"FeatureCollection","features":[{"type":"Feature","properties":{"gml_id":"vwRatingUnit.117474","RatingUnitID":117474,"ValuationVisitOrder":"29100","drvRatingUnitLocation":null,"StreetAddressID":12786,"OccupationLevelDescription":"Ground Floor and Above","StreetAddress":"19 Rosamund Place","LocalityName":"Oaklands","ValuationRollNumber":"23443"},"geometry":{"type":"MultiPolygon","coordinates":[[[[172.566149020352,-43.5732673081624],[172.566334446655,-43.5733295437434],[172.566142514301,-43.5736320668086],[172.565957099644,-43.5735698309764],[172.566149020352,-43.5732673081624]]]]}}]}