{"type":"FeatureCollection","features":[{"type":"Feature","properties":{"gml_id":"vwRatingUnit.106505","RatingUnitID":106505,"ValuationVisitOrder":"31604","drvRatingUnitLocation":null,"StreetAddressID":8571,"OccupationLevelDescription":"Ground Floor and Above","StreetAddress":"2 Barossa Lane","LocalityName":"Hoon Hay","ValuationRollNumber":"22960"},"geometry":{"type":"MultiPolygon","coordinates":[[[[172.611292441893,-43.5704003936469],[172.611295942604,-43.5704000039211],[172.611322341009,-43.5703970650464],[172.611317602834,-43.570400478381195],[172.611302129414,-43.570400426272094],[172.611302086415,-43.5704071766512],[172.61130824711697,-43.5704116977478],[172.611308218452,-43.5704161980005],[172.611314379156,-43.570420719096695],[172.611314321825,-43.570429719602],[172.611320482531,-43.5704342406979],[172.611320453866,-43.5704387409506],[172.611326614573,-43.5704432620461],[172.611326557244,-43.5704522625514],[172.611332717953,-43.5704567836465],[172.611332488641,-43.5704927856673],[172.61133864935496,-43.570497306762],[172.611338620691,-43.5705018070146],[172.611344781406,-43.570506328109],[172.61134472408,-43.5705153286141],[172.611350884797,-43.57051984970809],[172.611350856134,-43.5705243499607],[172.611357016852,-43.5705288710544],[172.611356725596,-43.5705746013057],[172.611121968198,-43.5706007361892],[172.611108969082,-43.5706021831936],[172.61110932689897,-43.570546038158],[172.611103166197,-43.5705415170509],[172.611103194878,-43.5705370167983],[172.611097034178,-43.5705324956909],[172.611097364014,-43.5704807427857],[172.611097407036,-43.5704739924067],[172.611103625092,-43.5704695130089],[172.61110365377297,-43.5704650127562],[172.611109871828,-43.5704605333581],[172.61110990050798,-43.5704560331054],[172.611116118562,-43.5704515537069],[172.611116175922,-43.5704425532015],[172.611141048123,-43.57042463560409],[172.61114109114,-43.570417885225],[172.611150375194,-43.5704179165037],[172.611153177879,-43.5704158974857],[172.611174729662,-43.5704134982028],[172.611197307402,-43.5704109846993],[172.611213967078,-43.5704091300309],[172.611241436917,-43.5704060718961],[172.611253204488,-43.570404761845495],[172.611285566425,-43.570401159076],[172.611292441893,-43.5704003936469]]]]}}]}