{"type":"FeatureCollection","features":[{"type":"Feature","properties":{"gml_id":"vwRatingUnit.101118","RatingUnitID":101118,"ValuationVisitOrder":"53721","drvRatingUnitLocation":null,"StreetAddressID":54081,"OccupationLevelDescription":"Ground Floor and Above","StreetAddress":"20 Raekura Place","LocalityName":"Redcliffs","ValuationRollNumber":"22900"},"geometry":{"type":"MultiPolygon","coordinates":[[[[172.73482157837697,-43.5602338960549],[172.734972835624,-43.5601308181433],[172.73511207461797,-43.5602388559883],[172.735078027495,-43.5602756800761],[172.735040127147,-43.5603191377069],[172.735003820238,-43.5603633100237],[172.734998144563,-43.5603706594362],[172.734844743804,-43.5602518513073],[172.73482157837697,-43.5602338960549]]]]}}]}