{"type":"FeatureCollection","features":[{"type":"Feature","properties":{"gml_id":"vwRatingUnit.10525","RatingUnitID":10525,"ValuationVisitOrder":"27200","drvRatingUnitLocation":null,"StreetAddressID":12949,"OccupationLevelDescription":"Ground Floor and Above","StreetAddress":"19 Toorak Avenue","LocalityName":"Avonhead","ValuationRollNumber":"21895"},"geometry":{"type":"MultiPolygon","coordinates":[[[[172.554376736522,-43.5247914079237],[172.55458109974097,-43.5248539635447],[172.554388077971,-43.5251876900408],[172.55418367677896,-43.525125124945596],[172.554355589027,-43.5248279597314],[172.554376736522,-43.5247914079237]]]]}}]}