{"type":"FeatureCollection","features":[{"type":"Feature","properties":{"gml_id":"vwRatingUnit.10431","RatingUnitID":10431,"ValuationVisitOrder":"19100","drvRatingUnitLocation":null,"StreetAddressID":53440,"OccupationLevelDescription":"Ground Floor and Above","StreetAddress":"20 Camberwell Place","LocalityName":"Avonhead","ValuationRollNumber":"21895"},"geometry":{"type":"MultiPolygon","coordinates":[[[[172.550024618358,-43.5228525558674],[172.550332480063,-43.5229467841825],[172.550325635122,-43.5229608258735],[172.550322853501,-43.5229690058426],[172.550319600963,-43.5229856898451],[172.550319501429,-43.5230025391876],[172.55032063943298,-43.5230109234969],[172.550324420585,-43.5230248717084],[172.54987734743196,-43.52310720999169],[172.549943277357,-43.5229932191839],[172.550024618358,-43.5228525558674]]]]}}]}