{"type":"FeatureCollection","features":[{"type":"Feature","properties":{"gml_id":"vwRatingUnit.115759","RatingUnitID":115759,"ValuationVisitOrder":"71800","drvRatingUnitLocation":null,"StreetAddressID":93581,"OccupationLevelDescription":"Ground Floor and Above","StreetAddress":"43 Brynley Street","LocalityName":"Hornby","ValuationRollNumber":"23434"},"geometry":{"type":"MultiPolygon","coordinates":[[[[172.53092135483996,-43.5455746154703],[172.530984725481,-43.5456257466555],[172.53104804728696,-43.5456768055979],[172.530561861503,-43.5459957340009],[172.530435169196,-43.545893543346],[172.53092135483996,-43.5455746154703]]]]}}]}