{"type":"FeatureCollection","features":[{"type":"Feature","properties":{"gml_id":"vwRatingUnit.107327","RatingUnitID":107327,"ValuationVisitOrder":"42800","drvRatingUnitLocation":null,"StreetAddressID":76810,"OccupationLevelDescription":"Ground Floor and Above","StreetAddress":"31 Leicester Crescent","LocalityName":"Hoon Hay","ValuationRollNumber":"22970"},"geometry":{"type":"MultiPolygon","coordinates":[[[[172.584833847461,-43.56394100402899],[172.584952691889,-43.564047523879495],[172.584568825447,-43.5642739055707],[172.584449993679,-43.56416737637299],[172.584833847461,-43.56394100402899]]]]}}]}