{"type":"FeatureCollection","features":[{"type":"Feature","properties":{"gml_id":"vwRatingUnit.109636","RatingUnitID":109636,"ValuationVisitOrder":"15100","drvRatingUnitLocation":null,"StreetAddressID":85153,"OccupationLevelDescription":"Ground Floor and Above","StreetAddress":"38 Gladson Avenue","LocalityName":"Upper Riccarton","ValuationRollNumber":"23413"},"geometry":{"type":"MultiPolygon","coordinates":[[[[172.558662466738,-43.5304149295329],[172.559034261465,-43.5304393249888],[172.559011865176,-43.5306195900235],[172.558640068769,-43.53059527551079],[172.558662466738,-43.5304149295329]]]]}}]}