{"type":"FeatureCollection","features":[{"type":"Feature","properties":{"gml_id":"vwRatingUnit.10190","RatingUnitID":10190,"ValuationVisitOrder":"1200","drvRatingUnitLocation":null,"StreetAddressID":100631,"OccupationLevelDescription":"Ground Floor and Above","StreetAddress":"5 Rachel Place","LocalityName":"Avonhead","ValuationRollNumber":"21895"},"geometry":{"type":"MultiPolygon","coordinates":[[[[172.557908839328,-43.5262892565196],[172.557931736316,-43.5262892814859],[172.55794327138,-43.5262884437146],[172.557965958072,-43.5262850565237],[172.55797702298,-43.526282524773],[172.557998286215,-43.5262758467776],[172.558008397758,-43.5262717272025],[172.558027357187,-43.5262620430513],[172.558051635054,-43.5262473388191],[172.558070324069,-43.5262391207695],[172.558090445538,-43.5262329514235],[172.558111577911,-43.52622896417499],[172.558133287659,-43.5262272383666],[172.558155104407,-43.5262278171964],[172.558176595408,-43.5262306719997],[172.558197278505,-43.5262357649218],[172.558207881016,-43.5262390009525],[172.558120127873,-43.5263908152481],[172.558015011347,-43.526572679800495],[172.55778575581897,-43.5265025099966],[172.557908839328,-43.5262892565196]]]]}}]}