{"type":"FeatureCollection","features":[{"type":"Feature","properties":{"gml_id":"vwRatingUnit.117033","RatingUnitID":117033,"ValuationVisitOrder":"79344","drvRatingUnitLocation":null,"StreetAddressID":104071,"OccupationLevelDescription":"Ground Floor and Above","StreetAddress":"52 Rempstone Drive","LocalityName":"Wentworth Park","ValuationRollNumber":"23441"},"geometry":{"type":"MultiPolygon","coordinates":[[[[172.549185874972,-43.57067029877219],[172.549635514619,-43.5707387246643],[172.549708661437,-43.5707842663547],[172.549491174908,-43.5709630639464],[172.549160527445,-43.5707583805608],[172.549185874972,-43.57067029877219]]]]}}]}