{"type":"FeatureCollection","features":[{"type":"Feature","properties":{"gml_id":"vwRatingUnit.104227","RatingUnitID":104227,"ValuationVisitOrder":"45701","drvRatingUnitLocation":null,"StreetAddressID":79743,"OccupationLevelDescription":"Ground Floor and Above","StreetAddress":"33 Wiggins Street","LocalityName":"Sumner","ValuationRollNumber":"22920"},"geometry":{"type":"MultiPolygon","coordinates":[[[[172.76231677017898,-43.5725442447135],[172.762702554896,-43.5727733157028],[172.76258151313,-43.5728811897331],[172.76224827999,-43.5726833320011],[172.76224461251599,-43.5726809843408],[172.76223707265896,-43.5726748665262],[172.762231033856,-43.5726679327559],[172.762226656333,-43.57266036336889],[172.762224075455,-43.5726523656543],[172.762223339825,-43.5726441737242],[172.762224485741,-43.5726360036641],[172.762227487531,-43.5726280894333],[172.76223223298,-43.5726206378112],[172.762238622213,-43.5726138646035],[172.76231677017898,-43.5725442447135]]]]}}]}