{"type":"FeatureCollection","features":[{"type":"Feature","properties":{"gml_id":"vwRatingUnit.105037","RatingUnitID":105037,"ValuationVisitOrder":"4501","drvRatingUnitLocation":null,"StreetAddressID":10906,"OccupationLevelDescription":"Ground Floor and Above","StreetAddress":"1A Smartlea Street","LocalityName":"Hoon Hay","ValuationRollNumber":"22951"},"geometry":{"type":"MultiPolygon","coordinates":[[[[172.60409456822,-43.5591534130783],[172.604501493499,-43.5595194829833],[172.60448705665698,-43.559527966182],[172.604237068353,-43.5593030803497],[172.60415954178399,-43.5593486370876],[172.604080359502,-43.5594128196206],[172.603988775518,-43.5593530643488],[172.60387791606897,-43.5592807407798],[172.603946708684,-43.5592403026639],[172.60409456822,-43.5591534130783]]]]}}]}