{"type":"FeatureCollection","features":[{"type":"Feature","properties":{"gml_id":"vwRatingUnit.109866","RatingUnitID":109866,"ValuationVisitOrder":"39800","drvRatingUnitLocation":null,"StreetAddressID":63380,"OccupationLevelDescription":"Ground Floor and Above","StreetAddress":"25 Middlepark Road","LocalityName":"Upper Riccarton","ValuationRollNumber":"23413"},"geometry":{"type":"MultiPolygon","coordinates":[[[[172.557711488185,-43.530021999066996],[172.558170182244,-43.5301629958287],[172.558168340742,-43.530166166074096],[172.558117828778,-43.5302534158153],[172.55811458342097,-43.5302795959532],[172.55761845935697,-43.5302470058924],[172.557628719875,-43.5301644711305],[172.557711488185,-43.530021999066996]]]]}}]}