{"type":"FeatureCollection","features":[{"type":"Feature","properties":{"gml_id":"vwRatingUnit.105877","RatingUnitID":105877,"ValuationVisitOrder":"40000","drvRatingUnitLocation":null,"StreetAddressID":21517,"OccupationLevelDescription":"Ground Floor and Above","StreetAddress":"16 Gainsborough Street","LocalityName":"Hoon Hay","ValuationRollNumber":"22952"},"geometry":{"type":"MultiPolygon","coordinates":[[[[172.602851597635,-43.5626005537362],[172.603241916811,-43.5629531502995],[172.603084817158,-43.5630451464344],[172.602694510724,-43.5626925403876],[172.602717633321,-43.5626790019079],[172.602851597635,-43.5626005537362]]]]}}]}