{"type":"FeatureCollection","features":[{"type":"Feature","properties":{"gml_id":"vwRatingUnit.101675","RatingUnitID":101675,"ValuationVisitOrder":"41200","drvRatingUnitLocation":null,"StreetAddressID":40465,"OccupationLevelDescription":"Ground Floor and Above","StreetAddress":"10 Marama Crescent","LocalityName":"St Andrews Hill","ValuationRollNumber":"22901"},"geometry":{"type":"MultiPolygon","coordinates":[[[[172.714953869056,-43.5584956530436],[172.714719275929,-43.55818561604589],[172.714790225963,-43.5581677812049],[172.715001960656,-43.5581145526861],[172.715142698717,-43.5584020811649],[172.714953869056,-43.5584956530436]]]]}}]}