{"type":"FeatureCollection","features":[{"type":"Feature","properties":{"gml_id":"vwRatingUnit.117229","RatingUnitID":117229,"ValuationVisitOrder":"3700","drvRatingUnitLocation":null,"StreetAddressID":77447,"OccupationLevelDescription":"Ground Floor and Above","StreetAddress":"312 Halswell Road","LocalityName":"Halswell","ValuationRollNumber":"23443"},"geometry":{"type":"MultiPolygon","coordinates":[[[[172.567920084434,-43.576575747660996],[172.567942865237,-43.5765833932646],[172.56794452299098,-43.5765839494518],[172.567954204506,-43.576587198771],[172.567958083533,-43.5765885006538],[172.567965544133,-43.5765910045376],[172.567971644435,-43.5765930518556],[172.568010901941,-43.5766062270702],[172.568012326437,-43.5766067054483],[172.568022241217,-43.5766100328297],[172.568025887347,-43.576611256643595],[172.56803358085196,-43.5766138385895],[172.568039447903,-43.576615807576],[172.568044920133,-43.576617644087],[172.568053008817,-43.576620358768],[172.568057866879,-43.5766219892059],[172.568057924657,-43.5766220086559],[172.568057866088,-43.57662210096609],[172.567978935356,-43.5767464901627],[172.56797348717396,-43.5767536254585],[172.567966171377,-43.5767604566777],[172.567957475637,-43.5767663735486],[172.56794761130996,-43.5767712149355],[172.567936826907,-43.5767748739048],[172.567925370521,-43.576777252098],[172.567923830127,-43.5767773882419],[172.567913552124,-43.5767782971337],[172.567901656967,-43.576777964595],[172.567896953023,-43.57677728757349],[172.567889969428,-43.5767762825784],[172.567878798844,-43.5767732883706],[172.567808222589,-43.5767496014599],[172.567920084434,-43.576575747660996]]]]}}]}