{"type":"FeatureCollection","features":[{"type":"Feature","properties":{"gml_id":"vwRatingUnit.106455","RatingUnitID":106455,"ValuationVisitOrder":"28703","drvRatingUnitLocation":null,"StreetAddressID":9546,"OccupationLevelDescription":"Ground Floor and Above","StreetAddress":"2/109 Kaiwara Street","LocalityName":"Hoon Hay","ValuationRollNumber":"22960"},"geometry":{"type":"MultiPolygon","coordinates":[[[[172.609619330392,-43.569775084292395],[172.60963266199,-43.5697737434718],[172.609638974576,-43.5697731085433],[172.609675953353,-43.569769389501],[172.60968233890796,-43.5697687472795],[172.609719244352,-43.5697650355129],[172.609725703233,-43.5697643859994],[172.609739214053,-43.5697630271176],[172.60984908764198,-43.5697519736105],[172.609854250597,-43.569751454084],[172.609854352256,-43.569751991407195],[172.609881764699,-43.56989669688839],[172.609885133426,-43.5699144803244],[172.609881648763,-43.569914830864],[172.60965238016297,-43.5699378998723],[172.609619330392,-43.569775084292395]]]]}}]}