{"type":"FeatureCollection","features":[{"type":"Feature","properties":{"gml_id":"vwRatingUnit.11241","RatingUnitID":11241,"ValuationVisitOrder":"19500","drvRatingUnitLocation":null,"StreetAddressID":73448,"OccupationLevelDescription":"Ground Floor and Above","StreetAddress":"3/28 Peer Street","LocalityName":"Upper Riccarton","ValuationRollNumber":"21896"},"geometry":{"type":"MultiPolygon","coordinates":[[[[172.570022746857,-43.5285796766187],[172.570025839426,-43.528579688174],[172.570025633151,-43.52860894025339],[172.570019416274,-43.5286134174626],[172.570019384539,-43.52861791778249],[172.570013167662,-43.5286223949913],[172.570013104191,-43.5286313956311],[172.570006887311,-43.528635872839594],[172.570006855575,-43.52864037315939],[172.570000638695,-43.5286448503675],[172.570000480012,-43.5286673519668],[172.569994263128,-43.5286718291745],[172.569994199654,-43.5286808298141],[172.569987982769,-43.5286853070216],[172.569987824081,-43.5287078086206],[172.569981607193,-43.5287122858277],[172.56998157545496,-43.5287167861474],[172.569969141673,-43.5287257405606],[172.569969109934,-43.5287302408804],[172.569968424322,-43.5287307346365],[172.569802460609,-43.5286800349444],[172.56980252356,-43.5286711125365],[172.569811848906,-43.5286643967401],[172.5698242192,-43.5286644429835],[172.56983043609497,-43.52865996578479],[172.569836621242,-43.5286599889056],[172.569842838136,-43.5286555117062],[172.569855208428,-43.5286555579463],[172.56986142532,-43.5286510807459],[172.569867610465,-43.528651103865094],[172.569892478025,-43.528633195058994],[172.569898663168,-43.5286332181765],[172.569904880055,-43.5286287409738],[172.569911065198,-43.5286287640907],[172.569917282084,-43.52862428688739],[172.569923467227,-43.5286243100036],[172.56994833475798,-43.5286064011854],[172.569954519899,-43.5286064243],[172.569960736779,-43.5286019470943],[172.56997310706,-43.5286019933218],[172.56997932393799,-43.5285975161151],[172.569985509078,-43.528597539227896],[172.569991725955,-43.5285930620206],[172.570004096234,-43.5285931082447],[172.570022746857,-43.5285796766187]]]]}}]}