{"type":"FeatureCollection","features":[{"type":"Feature","properties":{"gml_id":"vwRatingUnit.109458","RatingUnitID":109458,"ValuationVisitOrder":"65901","drvRatingUnitLocation":null,"StreetAddressID":10768,"OccupationLevelDescription":"Ground Floor and Above","StreetAddress":"10/19A Watts Road","LocalityName":"Sockburn","ValuationRollNumber":"23412"},"geometry":{"type":"MultiPolygon","coordinates":[[[[172.562768225482,-43.53706201950789],[172.562684227209,-43.537106638248595],[172.562726571483,-43.5371502451386],[172.562811511906,-43.5371060891933],[172.562768225482,-43.53706201950789]]]]}}]}