{"type":"FeatureCollection","features":[{"type":"Feature","properties":{"gml_id":"vwRatingUnit.102790","RatingUnitID":102790,"ValuationVisitOrder":"75600","drvRatingUnitLocation":null,"StreetAddressID":44772,"OccupationLevelDescription":"Ground Floor and Above","StreetAddress":"11 Madeley Road","LocalityName":"Mt Pleasant","ValuationRollNumber":"22902"},"geometry":{"type":"MultiPolygon","coordinates":[[[[172.719768095645,-43.5713422853428],[172.71995795493297,-43.5715332867165],[172.720276829483,-43.5718540906477],[172.720038523805,-43.5719234836501],[172.719566437878,-43.5714483893703],[172.719768095645,-43.5713422853428]]]]}}]}