{"type":"FeatureCollection","features":[{"type":"Feature","properties":{"gml_id":"vwRatingUnit.111794","RatingUnitID":111794,"ValuationVisitOrder":"87500","drvRatingUnitLocation":null,"StreetAddressID":9037,"OccupationLevelDescription":"Ground Floor and Above","StreetAddress":"2/1 Thornhill Place","LocalityName":"Riccarton Park","ValuationRollNumber":"23415"},"geometry":{"type":"MultiPolygon","coordinates":[[[[172.544248453067,-43.5342791610114],[172.544399373095,-43.5344387528878],[172.54424295465,-43.5345207055695],[172.544108346353,-43.5344035477779],[172.544113930982,-43.53437475799359],[172.544248453067,-43.5342791610114]]]]}}]}