{"type":"FeatureCollection","features":[{"type":"Feature","properties":{"gml_id":"vwRatingUnit.116146","RatingUnitID":116146,"ValuationVisitOrder":"27100","drvRatingUnitLocation":null,"StreetAddressID":5194,"OccupationLevelDescription":"Ground Floor and Above","StreetAddress":"18A Oakley Crescent","LocalityName":"Hornby","ValuationRollNumber":"23435"},"geometry":{"type":"MultiPolygon","coordinates":[[[[172.536371193429,-43.5549214502297],[172.536505196206,-43.5548189843252],[172.53661496073298,-43.554839920833],[172.53661504264898,-43.554848706112594],[172.536635367872,-43.554934843664],[172.536638087184,-43.5549463681632],[172.536635257683,-43.554949345835],[172.536562381279,-43.555026038607],[172.536422015646,-43.5549517611017],[172.536399052006,-43.5549486290051],[172.536306579234,-43.55501741013399],[172.53627385687,-43.55499587862249],[172.536371193429,-43.5549214502297]]]]}}]}