{"type":"FeatureCollection","features":[{"type":"Feature","properties":{"gml_id":"vwRatingUnit.11209","RatingUnitID":11209,"ValuationVisitOrder":"16800","drvRatingUnitLocation":null,"StreetAddressID":138442,"OccupationLevelDescription":"Ground Floor and Above","StreetAddress":"2/2 Bowen Street","LocalityName":"Upper Riccarton","ValuationRollNumber":"21896"},"geometry":{"type":"MultiPolygon","coordinates":[[[[172.573570602537,-43.5293939558943],[172.57358096486396,-43.5293931397955],[172.573589072983,-43.5293925012291],[172.57358747861,-43.5296204936975],[172.573390424851,-43.5296360232684],[172.573387093948,-43.5296135176612],[172.573383575528,-43.5295897321771],[172.573378954152,-43.529558490366],[172.573377669477,-43.5295498055952],[172.573357103023,-43.52941077011959],[172.573360087743,-43.5294105350598],[172.57336457417298,-43.5294101817335],[172.573406874514,-43.5294068503854],[172.573420416944,-43.529405783852894],[172.57346145053,-43.5294025522475],[172.57347625970598,-43.5294013859452],[172.573516026537,-43.529398254083794],[172.57353210246,-43.5293969880105],[172.573570602537,-43.5293939558943]]]]}}]}