{"type":"FeatureCollection","features":[{"type":"Feature","properties":{"gml_id":"vwRatingUnit.116760","RatingUnitID":116760,"ValuationVisitOrder":"63400","drvRatingUnitLocation":null,"StreetAddressID":32864,"OccupationLevelDescription":"Ground Floor and Above","StreetAddress":"1/22 Patterson Terrace","LocalityName":"Oaklands","ValuationRollNumber":"23441"},"geometry":{"type":"MultiPolygon","coordinates":[[[[172.55622449967896,-43.57714879297129],[172.556437859284,-43.5771987343132],[172.556434630263,-43.57720595362739],[172.556432911288,-43.5772097971356],[172.55642833801,-43.57722002331229],[172.556427007534,-43.5772229975996],[172.55642204539797,-43.5772340927354],[172.55641815172,-43.57724279816439],[172.556415752781,-43.5772481624181],[172.556412247959,-43.5772559986276],[172.556409460161,-43.5772622321004],[172.55640634419598,-43.5772691990904],[172.55640316753897,-43.5772763017824],[172.55640044043,-43.577282399553],[172.556396874916,-43.577290371204],[172.556394536662,-43.5772956000152],[172.556390582287,-43.5773044408852],[172.556388632891,-43.57730880047699],[172.556384290014,-43.5773185105674],[172.556382728763,-43.5773220006773],[172.556378207076,-43.5773321111283],[172.556371821447,-43.5773306016785],[172.556245641461,-43.5773007735461],[172.55616504678397,-43.5772817150569],[172.55618309691297,-43.5772413596939],[172.55622449967896,-43.57714879297129]]]]}}]}