{"type":"FeatureCollection","features":[{"type":"Feature","properties":{"gml_id":"vwRatingUnit.116927","RatingUnitID":116927,"ValuationVisitOrder":"77500","drvRatingUnitLocation":null,"StreetAddressID":87374,"OccupationLevelDescription":"Ground Floor and Above","StreetAddress":"4 Baronet Lane","LocalityName":"Wentworth Park","ValuationRollNumber":"23441"},"geometry":{"type":"MultiPolygon","coordinates":[[[[172.552523283584,-43.5716572469182],[172.552612824584,-43.5717128322063],[172.552805733912,-43.5718325799375],[172.552670211599,-43.5719480115915],[172.552620968014,-43.57198995329549],[172.552315904065,-43.571800607818],[172.551866118046,-43.572183716950896],[172.551857333937,-43.5721745650107],[172.552344952703,-43.5717592359094],[172.55237884169796,-43.5717802763022],[172.552523283584,-43.5716572469182]]]]}}]}