{"type":"FeatureCollection","features":[{"type":"Feature","properties":{"gml_id":"vwRatingUnit.105692","RatingUnitID":105692,"ValuationVisitOrder":"21700","drvRatingUnitLocation":null,"StreetAddressID":16533,"OccupationLevelDescription":"Ground Floor and Above","StreetAddress":"18 Dalkeith Street","LocalityName":"Hoon Hay","ValuationRollNumber":"22952"},"geometry":{"type":"MultiPolygon","coordinates":[[[[172.600297942392,-43.56132605059639],[172.600719616109,-43.5617068470284],[172.600564503773,-43.5617976765467],[172.600142830382,-43.5614168795541],[172.600297942392,-43.56132605059639]]]]}}]}