{"type":"FeatureCollection","features":[{"type":"Feature","properties":{"gml_id":"vwRatingUnit.10649","RatingUnitID":10649,"ValuationVisitOrder":"38200","drvRatingUnitLocation":null,"StreetAddressID":125058,"OccupationLevelDescription":"Ground Floor and Above","StreetAddress":"83 Avonhead Road","LocalityName":"Avonhead","ValuationRollNumber":"21895"},"geometry":{"type":"MultiPolygon","coordinates":[[[[172.560002245119,-43.5220360991234],[172.559974793874,-43.522699901249595],[172.560777323532,-43.5227220590018],[172.560766927179,-43.5227400661286],[172.55971646426096,-43.522711073094],[172.559742182929,-43.5221214408772],[172.55977684438196,-43.5221073700861],[172.559824152915,-43.5220805213795],[172.559848598044,-43.5220680586421],[172.559875373123,-43.5220583950961],[172.559938152455,-43.522043972784],[172.559970026455,-43.5220390632006],[172.560002245119,-43.5220360991234]]]]}}]}