{"type":"FeatureCollection","features":[{"type":"Feature","properties":{"gml_id":"vwRatingUnit.114606","RatingUnitID":114606,"ValuationVisitOrder":"41000","drvRatingUnitLocation":null,"StreetAddressID":69138,"OccupationLevelDescription":"Ground Floor and Above","StreetAddress":"29 Boston Avenue","LocalityName":"Hornby","ValuationRollNumber":"23433"},"geometry":{"type":"MultiPolygon","coordinates":[[[[172.528258657252,-43.5549909967016],[172.52840601246598,-43.55507185178679],[172.52810614657,-43.5553605154319],[172.527958844242,-43.5552791831427],[172.528258657252,-43.5549909967016]]]]}}]}