{"type":"FeatureCollection","features":[{"type":"Feature","properties":{"gml_id":"vwRatingUnit.114388","RatingUnitID":114388,"ValuationVisitOrder":"18000","drvRatingUnitLocation":null,"StreetAddressID":107676,"OccupationLevelDescription":"Ground Floor and Above","StreetAddress":"58 Brynley Street","LocalityName":"Hornby","ValuationRollNumber":"23433"},"geometry":{"type":"MultiPolygon","coordinates":[[[[172.531618118308,-43.5476062429153],[172.531895765802,-43.5474238809625],[172.532002255253,-43.547427851194],[172.532083670424,-43.5474935103452],[172.531751700204,-43.5477112850874],[172.531618118308,-43.5476062429153]]]]}}]}