{"type":"FeatureCollection","features":[{"type":"Feature","properties":{"gml_id":"vwRatingUnit.106430","RatingUnitID":106430,"ValuationVisitOrder":"26600","drvRatingUnitLocation":null,"StreetAddressID":111612,"OccupationLevelDescription":"Ground Floor and Above","StreetAddress":"61 Kaiwara Street","LocalityName":"Hoon Hay","ValuationRollNumber":"22960"},"geometry":{"type":"MultiPolygon","coordinates":[[[[172.607846096224,-43.5711697477491],[172.607961281439,-43.5712800286113],[172.607564679433,-43.5714990900252],[172.607449457492,-43.5713887906437],[172.607846096224,-43.5711697477491]]]]}}]}