{"type":"FeatureCollection","features":[{"type":"Feature","properties":{"gml_id":"vwRatingUnit.11041","RatingUnitID":11041,"ValuationVisitOrder":"73100","drvRatingUnitLocation":null,"StreetAddressID":7140,"OccupationLevelDescription":"Ground Floor and Above","StreetAddress":"131A Avonhead Road","LocalityName":"Avonhead","ValuationRollNumber":"21895"},"geometry":{"type":"MultiPolygon","coordinates":[[[[172.561968727865,-43.5196299899115],[172.561970976536,-43.5196260937595],[172.561983896094,-43.519630047674],[172.562172199053,-43.5196876758747],[172.562172106807,-43.5197005213155],[172.56216589025,-43.519704998109],[172.562165857931,-43.519709498442595],[172.562159641373,-43.5197139752358],[172.562159576735,-43.519722975902795],[172.562153360175,-43.5197274526957],[172.562153327856,-43.51973195302929],[172.562147111294,-43.5197364298218],[172.562147078974,-43.5197409301553],[172.562128429283,-43.519754360530996],[172.562128396962,-43.5197588608645],[172.562122180396,-43.5197633376557],[172.562122115753,-43.5197723383226],[172.56211589918496,-43.519776815113495],[172.56211586686297,-43.5197813154469],[172.562109650293,-43.5197857922375],[172.562109617971,-43.5197902925709],[172.5621034014,-43.5197947693611],[172.562103336754,-43.5198037700279],[172.562097120182,-43.5198082468179],[172.562097087858,-43.5198127471513],[172.562072221557,-43.5198306543074],[172.562072205395,-43.5198329044741],[172.562072189232,-43.5198351546407],[172.562074118061,-43.5198365730237],[172.562047076168,-43.5198283083414],[172.56204253505297,-43.51982692046159],[172.562032165,-43.51982375111],[172.562032007385,-43.519823702939],[172.56201725383397,-43.5198191938767],[172.562010952054,-43.5198172678908],[172.56200234267098,-43.5198146366414],[172.56200042439,-43.5198140503653],[172.561987431509,-43.5198100794041],[172.561958313745,-43.5198011802533],[172.561957609194,-43.5198009649238],[172.561884620159,-43.5197786575198],[172.561883178202,-43.519778216818395],[172.561883199886,-43.519778179246394],[172.561887068313,-43.5197714766666],[172.561887114748,-43.5197713962107],[172.561891490073,-43.51976381535799],[172.561893377133,-43.5197605457671],[172.561895911832,-43.5197561540491],[172.561899639515,-43.5197496953231],[172.56190475534797,-43.5197408314308],[172.56190590189397,-43.5197388448787],[172.561909177104,-43.5197331701213],[172.561912164272,-43.51972799443399],[172.561913598858,-43.5197255088117],[172.561918426647,-43.5197171439889],[172.561922442365,-43.51971018619199],[172.561924689021,-43.5197062935435],[172.561926864116,-43.5197025248818],[172.561930951391,-43.5196954430978],[172.561935707616,-43.519687202261],[172.56193721376,-43.5196845926516],[172.561940129364,-43.51967954095039],[172.561943476127,-43.51967374220509],[172.56194455111196,-43.5196718796395],[172.561949738491,-43.5196628917583],[172.561953394603,-43.5196565570173],[172.56195600085297,-43.5196520413111],[172.561957816346,-43.51964889570589],[172.561968525571,-43.5196303404156],[172.561968727865,-43.5196299899115]]]]}}]}