{"type":"FeatureCollection","features":[{"type":"Feature","properties":{"gml_id":"vwRatingUnit.101147","RatingUnitID":101147,"ValuationVisitOrder":"54500","drvRatingUnitLocation":null,"StreetAddressID":87369,"OccupationLevelDescription":"Ground Floor and Above","StreetAddress":"4 Balmoral Lane","LocalityName":"Redcliffs","ValuationRollNumber":"22900"},"geometry":{"type":"MultiPolygon","coordinates":[[[[172.731046223156,-43.55690968873749],[172.731393025991,-43.5572326437073],[172.73132091572097,-43.5572680370839],[172.731351011755,-43.5572995640285],[172.731299219096,-43.5574005016456],[172.731192284407,-43.55752533333],[172.731085222984,-43.5574624942197],[172.730603660499,-43.5574950516499],[172.730509105243,-43.5573972920492],[172.730585209641,-43.5573179318181],[172.730563721837,-43.5572849396684],[172.730958623311,-43.55714894422619],[172.73093229004698,-43.5570696420335],[172.730834148665,-43.55697125329],[172.731046223156,-43.55690968873749]]]]}}]}