{"type":"FeatureCollection","features":[{"type":"Feature","properties":{"gml_id":"vwRatingUnit.117346","RatingUnitID":117346,"ValuationVisitOrder":"16700","drvRatingUnitLocation":null,"StreetAddressID":99809,"OccupationLevelDescription":"Ground Floor and Above","StreetAddress":"5 Cobra Street","LocalityName":"Oaklands","ValuationRollNumber":"23443"},"geometry":{"type":"MultiPolygon","coordinates":[[[[172.568525308693,-43.5719518583472],[172.568712907049,-43.5720148093259],[172.568628028623,-43.5721485763211],[172.568544589536,-43.572280071443394],[172.568461162533,-43.5724115575489],[172.56827345211,-43.5723485607553],[172.568525308693,-43.5719518583472]]]]}}]}