{"type":"FeatureCollection","features":[{"type":"Feature","properties":{"gml_id":"vwRatingUnit.117243","RatingUnitID":117243,"ValuationVisitOrder":"5200","drvRatingUnitLocation":null,"StreetAddressID":129667,"OccupationLevelDescription":"Ground Floor and Above","StreetAddress":"286E Halswell Road","LocalityName":"Halswell","ValuationRollNumber":"23443"},"geometry":{"type":"MultiPolygon","coordinates":[[[[172.568627639359,-43.5746407332972],[172.568574272131,-43.5746228292119],[172.568599365226,-43.5745827166642],[172.56865297874498,-43.5746008016746],[172.568702356135,-43.574617448700394],[172.568677066802,-43.5746573085145],[172.568627639359,-43.5746407332972]]]]}}]}