{"type":"FeatureCollection","features":[{"type":"Feature","properties":{"gml_id":"vwRatingUnit.104537","RatingUnitID":104537,"ValuationVisitOrder":"68600","drvRatingUnitLocation":null,"StreetAddressID":159350,"OccupationLevelDescription":"Ground Floor and Above","StreetAddress":"4C Stoke Street","LocalityName":"Sumner","ValuationRollNumber":"22920"},"geometry":{"type":"MultiPolygon","coordinates":[[[[172.760969677377,-43.5696417699754],[172.76102757370998,-43.5696760914587],[172.76141352209297,-43.5699048885213],[172.761389933018,-43.5699259189289],[172.76100399693098,-43.56969713081519],[172.760980432655,-43.5697181341909],[172.760922548756,-43.5696837947093],[172.76094605097097,-43.5696628362191],[172.760969677377,-43.5696417699754]]]]}}]}