{"type":"FeatureCollection","features":[{"type":"Feature","properties":{"gml_id":"vwRatingUnit.100314","RatingUnitID":100314,"ValuationVisitOrder":"5803","drvRatingUnitLocation":null,"StreetAddressID":42897,"OccupationLevelDescription":"Ground Floor and Above","StreetAddress":"105A Bay View Road","LocalityName":"Moncks Bay","ValuationRollNumber":"22900"},"geometry":{"type":"MultiPolygon","coordinates":[[[[172.73962946384296,-43.5692584457033],[172.739724878574,-43.5695050763573],[172.739530778566,-43.5695844644985],[172.73951481294,-43.56954318821799],[172.739430553226,-43.5693252941381],[172.73962946384296,-43.5692584457033]]]]}}]}