{"type":"FeatureCollection","features":[{"type":"Feature","properties":{"gml_id":"vwRatingUnit.102912","RatingUnitID":102912,"ValuationVisitOrder":"501","drvRatingUnitLocation":null,"StreetAddressID":81925,"OccupationLevelDescription":"Ground Floor and Above","StreetAddress":"35 Panorama Road","LocalityName":"Clifton","ValuationRollNumber":"22911"},"geometry":{"type":"MultiPolygon","coordinates":[[[[172.75120214783,-43.56824118662579],[172.751439585931,-43.5683024958159],[172.751472030797,-43.5685364252294],[172.751245328931,-43.5685528764307],[172.75120214783,-43.56824118662579]]]]}}]}