{"type":"FeatureCollection","features":[{"type":"Feature","properties":{"gml_id":"vwRatingUnit.110859","RatingUnitID":110859,"ValuationVisitOrder":"49200","drvRatingUnitLocation":null,"StreetAddressID":98605,"OccupationLevelDescription":"Ground Floor and Above","StreetAddress":"48A Middlepark Road","LocalityName":"Upper Riccarton","ValuationRollNumber":"23414"},"geometry":{"type":"MultiPolygon","coordinates":[[[[172.556710798301,-43.53182793320969],[172.556714057633,-43.5318241097099],[172.556722630328,-43.5318279787808],[172.556913722349,-43.531914223069],[172.55691364979796,-43.5319142227897],[172.556910540707,-43.5319164610431],[172.55691044259896,-43.5319299620019],[172.556904224415,-43.531934438508394],[172.556904191712,-43.531938938828],[172.556897973526,-43.5319434153342],[172.556897908119,-43.531952415973294],[172.556860598979,-43.5319792750035],[172.556860533566,-43.5319882756425],[172.556854315372,-43.5319927521464],[172.556854282665,-43.5319972524659],[172.55684806447,-43.5320017289694],[172.556847999056,-43.5320107296084],[172.556810689858,-43.532037588622394],[172.556810657148,-43.53204208894189],[172.556804438945,-43.5320465654431],[172.55680440623397,-43.5320510657625],[172.556803301369,-43.5320518611578],[172.556598638586,-43.5319595066561],[172.556710798301,-43.53182793320969]]]]}}]}