{"type":"FeatureCollection","features":[{"type":"Feature","properties":{"gml_id":"vwRatingUnit.107203","RatingUnitID":107203,"ValuationVisitOrder":"30400","drvRatingUnitLocation":null,"StreetAddressID":74901,"OccupationLevelDescription":"Ground Floor and Above","StreetAddress":"30 Barrowclough Street","LocalityName":"Hoon Hay","ValuationRollNumber":"22970"},"geometry":{"type":"MultiPolygon","coordinates":[[[[172.58538664538,-43.561588798997796],[172.58568668967197,-43.5618739328804],[172.5855392508,-43.561955921897095],[172.585230065343,-43.5616790984536],[172.58527277762497,-43.5616538699664],[172.585348478075,-43.5616100295336],[172.58538664538,-43.561588798997796]]]]}}]}