{"type":"FeatureCollection","features":[{"type":"Feature","properties":{"gml_id":"vwRatingUnit.10584","RatingUnitID":10584,"ValuationVisitOrder":"32900","drvRatingUnitLocation":null,"StreetAddressID":22034,"OccupationLevelDescription":"Ground Floor and Above","StreetAddress":"15 Harrowdale Drive","LocalityName":"Avonhead","ValuationRollNumber":"21895"},"geometry":{"type":"MultiPolygon","coordinates":[[[[172.55441940044798,-43.5220511180032],[172.554648450888,-43.5221092958209],[172.55452224025998,-43.52237257909939],[172.55429320131296,-43.5223144010894],[172.55441940044798,-43.5220511180032]]]]}}]}