{"type":"FeatureCollection","features":[{"type":"Feature","properties":{"gml_id":"vwRatingUnit.113534","RatingUnitID":113534,"ValuationVisitOrder":"49800","drvRatingUnitLocation":null,"StreetAddressID":108886,"OccupationLevelDescription":"Ground Floor and Above","StreetAddress":"6 Denise Crescent","LocalityName":"Hornby","ValuationRollNumber":"23431"},"geometry":{"type":"MultiPolygon","coordinates":[[[[172.517150130861,-43.5474492448272],[172.517182171675,-43.5474754188119],[172.517180987637,-43.5478077998224],[172.516991176249,-43.5478074360189],[172.516992456503,-43.547448979734],[172.517150130861,-43.5474492448272]]]]}}]}