{"type":"FeatureCollection","features":[{"type":"Feature","properties":{"gml_id":"vwRatingUnit.112281","RatingUnitID":112281,"ValuationVisitOrder":"31800","drvRatingUnitLocation":null,"StreetAddressID":76418,"OccupationLevelDescription":"Ground Floor and Above","StreetAddress":"31 Aurora Street","LocalityName":"Hei Hei","ValuationRollNumber":"23421"},"geometry":{"type":"MultiPolygon","coordinates":[[[[172.523073431648,-43.5298305401574],[172.523275079886,-43.529892024099496],[172.523068037022,-43.530251321408],[172.522866387795,-43.5301898371166],[172.523073431648,-43.5298305401574]]]]}}]}