{"type":"FeatureCollection","features":[{"type":"Feature","properties":{"gml_id":"vwRatingUnit.114869","RatingUnitID":114869,"ValuationVisitOrder":"69400","drvRatingUnitLocation":null,"StreetAddressID":93864,"OccupationLevelDescription":"Ground Floor and Above","StreetAddress":"43 Oriana Crescent","LocalityName":"Hornby","ValuationRollNumber":"23433"},"geometry":{"type":"MultiPolygon","coordinates":[[[[172.527048562022,-43.551817372174],[172.527058029276,-43.55183012930159],[172.527139621859,-43.5519400590994],[172.52671101655298,-43.5521083528847],[172.526619957391,-43.5519856566206],[172.527048562022,-43.551817372174]]]]}}]}