{"type":"FeatureCollection","features":[{"type":"Feature","properties":{"gml_id":"vwRatingUnit.104540","RatingUnitID":104540,"ValuationVisitOrder":"68900","drvRatingUnitLocation":null,"StreetAddressID":123658,"OccupationLevelDescription":"Ground Floor and Above","StreetAddress":"8 Stoke Street","LocalityName":"Sumner","ValuationRollNumber":"22920"},"geometry":{"type":"MultiPolygon","coordinates":[[[[172.761301002976,-43.5700016173556],[172.761303426981,-43.5700030543533],[172.761300988867,-43.5700052286795],[172.761218330983,-43.570078943402],[172.761216933505,-43.5700801896773],[172.761214820946,-43.570078936151795],[172.761014967844,-43.56996034927959],[172.761047494856,-43.5699368330383],[172.761047530057,-43.5699278326431],[172.76105373690498,-43.5699233452387],[172.761053754505,-43.5699188450411],[172.76110224363697,-43.56988378850729],[172.761301002976,-43.5700016173556]]]]}}]}