{"type":"FeatureCollection","features":[{"type":"Feature","properties":{"gml_id":"vwRatingUnit.103671","RatingUnitID":103671,"ValuationVisitOrder":"5802","drvRatingUnitLocation":null,"StreetAddressID":1061,"OccupationLevelDescription":"Ground Floor and Above","StreetAddress":"2/58 Wakefield Avenue","LocalityName":"Sumner","ValuationRollNumber":"22920"},"geometry":{"type":"MultiPolygon","coordinates":[[[[172.75809732534097,-43.5729892917285],[172.75807074067,-43.5729875300431],[172.757868954192,-43.5729741575878],[172.757871297474,-43.5729554739674],[172.757872849329,-43.5729430997226],[172.757877486065,-43.5729061271738],[172.757879240581,-43.5728921351795],[172.757884293324,-43.5728518458033],[172.757885632181,-43.57284117037619],[172.75789033608,-43.572803663340295],[172.757890442391,-43.5728028157501],[172.75790365541,-43.5728036912297],[172.758114740342,-43.5728176787877],[172.758120660421,-43.5728180710791],[172.75809732534097,-43.5729892917285]]]]}}]}