{"type":"FeatureCollection","features":[{"type":"Feature","properties":{"gml_id":"vwRatingUnit.112167","RatingUnitID":112167,"ValuationVisitOrder":"21000","drvRatingUnitLocation":null,"StreetAddressID":64604,"OccupationLevelDescription":"Ground Floor and Above","StreetAddress":"26 Aurora Street","LocalityName":"Hei Hei","ValuationRollNumber":"23421"},"geometry":{"type":"MultiPolygon","coordinates":[[[[172.523927514504,-43.5295257488907],[172.524118746389,-43.5295840469364],[172.523924763159,-43.5299208793659],[172.523896797025,-43.5299123657809],[172.523886764073,-43.5299298041238],[172.523723485033,-43.5298800192878],[172.523927514504,-43.5295257488907]]]]}}]}