{"type":"FeatureCollection","features":[{"type":"Feature","properties":{"gml_id":"vwRatingUnit.11556","RatingUnitID":11556,"ValuationVisitOrder":"48500","drvRatingUnitLocation":null,"StreetAddressID":37790,"OccupationLevelDescription":"Ground Floor and Above","StreetAddress":"1/65 Brodie Street","LocalityName":"Upper Riccarton","ValuationRollNumber":"21896"},"geometry":{"type":"MultiPolygon","coordinates":[[[[172.568150581984,-43.5249911512839],[172.56814748959698,-43.5249911396768],[172.568143923006,-43.5249885175612],[172.56815256062197,-43.5249911587106],[172.568164992396,-43.5249949600096],[172.56816746179697,-43.5249957150849],[172.568175527093,-43.5249981812324],[172.56818236297298,-43.525000271457195],[172.56819659648997,-43.525004623675],[172.568197264152,-43.5250048278276],[172.56820713119,-43.525007844894795],[172.568212165333,-43.525009384196],[172.568238735297,-43.5250175085485],[172.568241967702,-43.525018496927],[172.568270339413,-43.5250271721934],[172.568271770079,-43.5250276096502],[172.568280874121,-43.5250303934063],[172.568286671271,-43.5250321660088],[172.568312478251,-43.5250400570395],[172.568316473662,-43.5250412787203],[172.568344082391,-43.525049720663894],[172.568346276062,-43.5250503914239],[172.568375686541,-43.5250593842795],[172.56837607847,-43.5250595041198],[172.568449429596,-43.5250819326817],[172.56845058453,-43.5250822858252],[172.56845916531898,-43.5250849095672],[172.56846414295296,-43.5250864315747],[172.568459092644,-43.5250951777205],[172.568383523432,-43.5252260484884],[172.56838222722897,-43.5252282932471],[172.568374778827,-43.5252260156837],[172.56805612396596,-43.525128577169895],[172.56805683799,-43.5251280629454],[172.56805686987198,-43.5251235626204],[172.568059978206,-43.5251213240675],[172.56806616299397,-43.5251213472864],[172.568075487995,-43.5251146316266],[172.568075519875,-43.5251101313017],[172.56808173654,-43.5251056541948],[172.568081800299,-43.5250966535449],[172.568088016963,-43.5250921764377],[172.568088048842,-43.5250876761127],[172.568094265505,-43.5250831990051],[172.568094297384,-43.5250786986802],[172.568100514045,-43.5250742215722],[172.568100577801,-43.5250652209223],[172.568106794461,-43.525060743814],[172.568106826338,-43.525056243489],[172.56812547631,-43.52504281216219],[172.568125508186,-43.5250383118372],[172.568131724841,-43.5250338347275],[172.568131756717,-43.5250293344025],[172.56813797337,-43.5250248572926],[172.568138005245,-43.5250203569676],[172.568144221897,-43.5250158798573],[172.56814428564698,-43.5250068792072],[172.568150502298,-43.5250024020965],[172.568150581984,-43.5249911512839]]]]}}]}