{"type":"FeatureCollection","features":[{"type":"Feature","properties":{"gml_id":"vwRatingUnit.104009","RatingUnitID":104009,"ValuationVisitOrder":"26101","drvRatingUnitLocation":null,"StreetAddressID":38117,"OccupationLevelDescription":"Ground Floor and Above","StreetAddress":"1/7 Whitfield Street","LocalityName":"Sumner","ValuationRollNumber":"22920"},"geometry":{"type":"MultiPolygon","coordinates":[[[[172.759941016452,-43.5743210399289],[172.759955614462,-43.57443364681139],[172.759915740877,-43.5744365416372],[172.759678856887,-43.5744537390302],[172.759663342131,-43.5743412188547],[172.75971388842,-43.5743375456473],[172.759715086684,-43.5743374584697],[172.759774093761,-43.5743331704657],[172.759777197947,-43.5743329448185],[172.75989450369997,-43.5743244200069],[172.759897613248,-43.5743241941077],[172.759941016452,-43.5743210399289]]]]}}]}