{"type":"FeatureCollection","features":[{"type":"Feature","properties":{"gml_id":"vwRatingUnit.110385","RatingUnitID":110385,"ValuationVisitOrder":"8001","drvRatingUnitLocation":null,"StreetAddressID":127198,"OccupationLevelDescription":"Ground Floor and Above","StreetAddress":"8A Middlepark Road","LocalityName":"Upper Riccarton","ValuationRollNumber":"23414"},"geometry":{"type":"MultiPolygon","coordinates":[[[[172.557653549917,-43.5284590497287],[172.558244346889,-43.5286397980321],[172.558241954231,-43.5286439202588],[172.557875902735,-43.5285319114242],[172.557797496034,-43.5286669026508],[172.55775865182798,-43.5286550162062],[172.557572725633,-43.5285981269252],[172.557653549917,-43.5284590497287]]]]}}]}