{"type":"FeatureCollection","features":[{"type":"Feature","properties":{"gml_id":"vwRatingUnit.103752","RatingUnitID":103752,"ValuationVisitOrder":"9509","drvRatingUnitLocation":null,"StreetAddressID":67007,"OccupationLevelDescription":"Ground Floor and Above","StreetAddress":"27 Truro Street","LocalityName":"Sumner","ValuationRollNumber":"22920"},"geometry":{"type":"MultiPolygon","coordinates":[[[[172.759035416266,-43.5784780665732],[172.75904143351,-43.5784816383583],[172.75915675945097,-43.5785500909368],[172.75915756552996,-43.5785505695413],[172.759156754718,-43.5785512919494],[172.759132649598,-43.5785727611392],[172.759125694559,-43.5785789557947],[172.759105911115,-43.5785965762034],[172.759100846769,-43.5786010869697],[172.75907917261,-43.5786203915213],[172.759069786916,-43.5786287510606],[172.759052434085,-43.5786442065732],[172.759044938728,-43.5786508822228],[172.759025695182,-43.57866802161799],[172.759020090879,-43.5786730133803],[172.758998956615,-43.5786918366574],[172.758982818893,-43.5787062101062],[172.758982747858,-43.5787062731152],[172.758981853681,-43.5787057420849],[172.758866266126,-43.578637086706],[172.759035416266,-43.5784780665732]]]]}}]}