{"type":"FeatureCollection","features":[{"type":"Feature","properties":{"gml_id":"vwRatingUnit.104384","RatingUnitID":104384,"ValuationVisitOrder":"58500","drvRatingUnitLocation":null,"StreetAddressID":53008,"OccupationLevelDescription":"Ground Floor and Above","StreetAddress":"2/91 Nayland Street","LocalityName":"Sumner","ValuationRollNumber":"22920"},"geometry":{"type":"MultiPolygon","coordinates":[[[[172.763684808844,-43.571785509322495],[172.763757755346,-43.5718690039434],[172.76376058200097,-43.5718665136575],[172.763810720327,-43.5719163506893],[172.763740941062,-43.5719785144552],[172.763722944706,-43.5719945467453],[172.763681714092,-43.5719400597915],[172.76367328298,-43.5719425832781],[172.763600766911,-43.571860369022],[172.763602427559,-43.5718588896844],[172.76361056725398,-43.5718516385844],[172.763666241873,-43.5718020475198],[172.763684808844,-43.571785509322495]]]]}}]}