{"type":"FeatureCollection","features":[{"type":"Feature","properties":{"gml_id":"vwRatingUnit.104280","RatingUnitID":104280,"ValuationVisitOrder":"50200","drvRatingUnitLocation":null,"StreetAddressID":25732,"OccupationLevelDescription":"Ground Floor and Above","StreetAddress":"14 Heberden Avenue","LocalityName":"Sumner","ValuationRollNumber":"22920"},"geometry":{"type":"MultiPolygon","coordinates":[[[[172.767063654433,-43.5755420712663],[172.76692793324298,-43.57546151389659],[172.76721298696398,-43.57520837445],[172.767396681988,-43.5753174693829],[172.767063654433,-43.5755420712663]]]]}}]}