{"type":"FeatureCollection","features":[{"type":"Feature","properties":{"gml_id":"vwRatingUnit.110303","RatingUnitID":110303,"ValuationVisitOrder":"800","drvRatingUnitLocation":null,"StreetAddressID":117426,"OccupationLevelDescription":"Ground Floor and Above","StreetAddress":"7 Bucknell Street","LocalityName":"Upper Riccarton","ValuationRollNumber":"23414"},"geometry":{"type":"MultiPolygon","coordinates":[[[[172.556988497604,-43.5284193806311],[172.557331563887,-43.5285243462069],[172.557261542612,-43.5286454550065],[172.556916586654,-43.5285437565927],[172.556988497604,-43.5284193806311]]]]}}]}