{"type":"FeatureCollection","features":[{"type":"Feature","properties":{"gml_id":"vwRatingUnit.111057","RatingUnitID":111057,"ValuationVisitOrder":"21800","drvRatingUnitLocation":null,"StreetAddressID":79444,"OccupationLevelDescription":"Ground Floor and Above","StreetAddress":"33 Malabar Crescent","LocalityName":"Broomfield","ValuationRollNumber":"23415"},"geometry":{"type":"MultiPolygon","coordinates":[[[[172.529109088969,-43.5291182359412],[172.529353397758,-43.5294277967879],[172.529293751004,-43.5294527194721],[172.529191088008,-43.5294956120514],[172.528946779764,-43.5291860508618],[172.529109088969,-43.5291182359412]]]]}}]}