{"type":"FeatureCollection","features":[{"type":"Feature","properties":{"gml_id":"vwRatingUnit.117984","RatingUnitID":117984,"ValuationVisitOrder":"18100","drvRatingUnitLocation":null,"StreetAddressID":113751,"OccupationLevelDescription":"Ground Floor and Above","StreetAddress":"65 Fern Drive","LocalityName":"Oaklands","ValuationRollNumber":"23444"},"geometry":{"type":"MultiPolygon","coordinates":[[[[172.561351811392,-43.57689011990699],[172.561531460582,-43.5769715307758],[172.561400306111,-43.5771245420781],[172.561222372025,-43.57704114223199],[172.561351811392,-43.57689011990699]]]]}}]}