{"type":"FeatureCollection","features":[{"type":"Feature","properties":{"gml_id":"vwRatingUnit.101589","RatingUnitID":101589,"ValuationVisitOrder":"32700","drvRatingUnitLocation":null,"StreetAddressID":62954,"OccupationLevelDescription":"Ground Floor and Above","StreetAddress":"25 Cannon Hill Crescent","LocalityName":"St Andrews Hill","ValuationRollNumber":"22901"},"geometry":{"type":"MultiPolygon","coordinates":[[[[172.71020407261,-43.5594223629841],[172.710496710817,-43.5598150090351],[172.71018783239998,-43.5600511021707],[172.710192046724,-43.559888148406095],[172.710196248527,-43.5597252216038],[172.710200462689,-43.5595622948246],[172.71020407261,-43.5594223629841]]]]}}]}