{"type":"FeatureCollection","features":[{"type":"Feature","properties":{"gml_id":"vwRatingUnit.105908","RatingUnitID":105908,"ValuationVisitOrder":"43200","drvRatingUnitLocation":null,"StreetAddressID":12331,"OccupationLevelDescription":"Ground Floor and Above","StreetAddress":"19 Gainsborough Street","LocalityName":"Hoon Hay","ValuationRollNumber":"22952"},"geometry":{"type":"MultiPolygon","coordinates":[[[[172.602895081629,-43.5633323728897],[172.603099447619,-43.5635169700518],[172.60328816241497,-43.563687426871],[172.603133445598,-43.5637819784719],[172.60273770705996,-43.5634245386246],[172.602895081629,-43.5633323728897]]]]}}]}