{"type":"FeatureCollection","features":[{"type":"Feature","properties":{"gml_id":"vwRatingUnit.110279","RatingUnitID":110279,"ValuationVisitOrder":"70400","drvRatingUnitLocation":null,"StreetAddressID":3829,"OccupationLevelDescription":"Ground Floor and Above","StreetAddress":"2/27 O'Briens Road","LocalityName":"Sockburn","ValuationRollNumber":"23413"},"geometry":{"type":"MultiPolygon","coordinates":[[[[172.546655614659,-43.5346253384541],[172.546677805638,-43.5346478631008],[172.54617143914,-43.5349118534739],[172.54606161451,-43.5348003673008],[172.54628695817698,-43.5346828907118],[172.546289935568,-43.53469855185309],[172.546368542187,-43.534781315737995],[172.546655614659,-43.5346253384541]]]]}}]}