{"type":"FeatureCollection","features":[{"type":"Feature","properties":{"gml_id":"vwRatingUnit.111250","RatingUnitID":111250,"ValuationVisitOrder":"39100","drvRatingUnitLocation":null,"StreetAddressID":80632,"OccupationLevelDescription":"Ground Floor and Above","StreetAddress":"34 Kintyre Drive","LocalityName":"Broomfield","ValuationRollNumber":"23415"},"geometry":{"type":"MultiPolygon","coordinates":[[[[172.532307714727,-43.5250081089503],[172.53237039078,-43.5251003624252],[172.532407902705,-43.5251527834012],[172.532170227601,-43.5252347699913],[172.53197504393796,-43.5253021133852],[172.531937887312,-43.5251776681026],[172.531922523011,-43.5251262101664],[172.532307714727,-43.5250081089503]]]]}}]}