{"type":"FeatureCollection","features":[{"type":"Feature","properties":{"gml_id":"vwRatingUnit.112581","RatingUnitID":112581,"ValuationVisitOrder":"60400","drvRatingUnitLocation":null,"StreetAddressID":71539,"OccupationLevelDescription":"Ground Floor and Above","StreetAddress":"3 Ngata Place","LocalityName":"Hei Hei","ValuationRollNumber":"23421"},"geometry":{"type":"MultiPolygon","coordinates":[[[[172.520377673702,-43.5370999621658],[172.520621036409,-43.5371743154972],[172.520836640655,-43.5372401908965],[172.520763614096,-43.5373666651531],[172.520304658722,-43.5372264361935],[172.520377673702,-43.5370999621658]]]]}}]}