{"type":"FeatureCollection","features":[{"type":"Feature","properties":{"gml_id":"vwRatingUnit.101066","RatingUnitID":101066,"ValuationVisitOrder":"51965","drvRatingUnitLocation":null,"StreetAddressID":154816,"OccupationLevelDescription":"Ground Floor and Above","StreetAddress":"9 Egnot Heights","LocalityName":"Redcliffs","ValuationRollNumber":"22900"},"geometry":{"type":"MultiPolygon","coordinates":[[[[172.734664163736,-43.5636736267996],[172.734416855735,-43.563547402131],[172.734513500598,-43.5634301044363],[172.734747138779,-43.5633380617837],[172.734869226475,-43.5634326135756],[172.734798367625,-43.5635805005459],[172.734664163736,-43.5636736267996]]]]}}]}