{"type":"FeatureCollection","features":[{"type":"Feature","properties":{"gml_id":"vwRatingUnit.115837","RatingUnitID":115837,"ValuationVisitOrder":"2433","drvRatingUnitLocation":null,"StreetAddressID":11398,"OccupationLevelDescription":"Ground Floor and Above","StreetAddress":"2 Henry Wigram Drive","LocalityName":"Hornby","ValuationRollNumber":"23435"},"geometry":{"type":"MultiPolygon","coordinates":[[[[172.543822288903,-43.54531872490029],[172.544062146338,-43.5450805753563],[172.544069829798,-43.5450740621347],[172.544078842341,-43.54506852626919],[172.54408894792698,-43.5450640928373],[172.544099885768,-43.5450608868187],[172.544111395411,-43.5450589881901],[172.54412316724796,-43.5450584317292],[172.544134916416,-43.5450592523121],[172.544146333913,-43.545061403711],[172.544157135346,-43.5450648577979],[172.544165015727,-43.5450684173336],[172.544214020447,-43.545092760644195],[172.54426404845597,-43.5451159558701],[172.544317789339,-43.5451390667548],[172.54426808056,-43.5452006430949],[172.544081579314,-43.5454555028989],[172.543822288903,-43.54531872490029]]]]}}]}