{"type":"FeatureCollection","features":[{"type":"Feature","properties":{"gml_id":"vwRatingUnit.101205","RatingUnitID":101205,"ValuationVisitOrder":"55110","drvRatingUnitLocation":null,"StreetAddressID":75725,"OccupationLevelDescription":"Ground Floor and Above","StreetAddress":"30 Glenstrae Road","LocalityName":"Balmoral Hill","ValuationRollNumber":"22900"},"geometry":{"type":"MultiPolygon","coordinates":[[[[172.729532054527,-43.5606729158275],[172.730006333272,-43.5608155141223],[172.729955828411,-43.5610830540663],[172.729416396877,-43.5608816194385],[172.729532054527,-43.5606729158275]]]]}}]}