{"type":"FeatureCollection","features":[{"type":"Feature","properties":{"gml_id":"vwRatingUnit.100278","RatingUnitID":100278,"ValuationVisitOrder":"4400","drvRatingUnitLocation":null,"StreetAddressID":17180,"OccupationLevelDescription":"Ground Floor and Above","StreetAddress":"17 Bay View Road","LocalityName":"Moncks Bay","ValuationRollNumber":"22900"},"geometry":{"type":"MultiPolygon","coordinates":[[[[172.742068167338,-43.5670182892575],[172.742758345306,-43.5671850590515],[172.742713033246,-43.5672839997013],[172.742022928504,-43.5671172388151],[172.742068167338,-43.5670182892575]]]]}}]}