{"type":"FeatureCollection","features":[{"type":"Feature","properties":{"gml_id":"vwRatingUnit.105097","RatingUnitID":105097,"ValuationVisitOrder":"10401","drvRatingUnitLocation":null,"StreetAddressID":25122,"OccupationLevelDescription":"Ground Floor and Above","StreetAddress":"139A Hoon Hay Road","LocalityName":"Hoon Hay","ValuationRollNumber":"22951"},"geometry":{"type":"MultiPolygon","coordinates":[[[[172.606944965146,-43.5613166404913],[172.607082299105,-43.56139975302639],[172.607251011096,-43.5615018647514],[172.607265744457,-43.5615107806276],[172.607128408057,-43.56162210205],[172.607035720793,-43.5615616344937],[172.606953127915,-43.5615500662095],[172.606717061727,-43.5617414002328],[172.606689428182,-43.5617233675718],[172.606940462354,-43.5615198976168],[172.606854049069,-43.56146351961479],[172.606898927956,-43.5614271475922],[172.606848899325,-43.561394502474],[172.606944965146,-43.5613166404913]]]]}}]}