{"type":"FeatureCollection","features":[{"type":"Feature","properties":{"gml_id":"vwRatingUnit.111885","RatingUnitID":111885,"ValuationVisitOrder":"90400","drvRatingUnitLocation":null,"StreetAddressID":29822,"OccupationLevelDescription":"Ground Floor and Above","StreetAddress":"1/109 Racecourse Road","LocalityName":"Riccarton Park","ValuationRollNumber":"23415"},"geometry":{"type":"MultiPolygon","coordinates":[[[[172.546098473759,-43.5332880548728],[172.546186741918,-43.5335069122966],[172.546075162181,-43.533565057600896],[172.545987614858,-43.5333612915298],[172.546098473759,-43.5332880548728]]]]}}]}