{"type":"FeatureCollection","features":[{"type":"Feature","properties":{"gml_id":"vwRatingUnit.118199","RatingUnitID":118199,"ValuationVisitOrder":"39900","drvRatingUnitLocation":null,"StreetAddressID":40603,"OccupationLevelDescription":"Ground Floor and Above","StreetAddress":"10 Oldham Crescent","LocalityName":"Oaklands","ValuationRollNumber":"23444"},"geometry":{"type":"MultiPolygon","coordinates":[[[[172.55758501878796,-43.5791016437772],[172.557892976332,-43.5793312547799],[172.557951741245,-43.5792895633819],[172.558588247806,-43.5795595571714],[172.558565628309,-43.5797596746442],[172.558575993259,-43.57986206199519],[172.55855127596,-43.5798627144879],[172.558199648629,-43.5798720164574],[172.557930528366,-43.579785658353096],[172.557884567357,-43.5797535565223],[172.557641165133,-43.5795098728648],[172.557687485354,-43.57947701764079],[172.557838977836,-43.579369553125],[172.557530995406,-43.5791399598864],[172.55758501878796,-43.5791016437772]]]]}}]}