{"type":"FeatureCollection","features":[{"type":"Feature","properties":{"gml_id":"vwRatingUnit.102211","RatingUnitID":102211,"ValuationVisitOrder":"7600","drvRatingUnitLocation":null,"StreetAddressID":14382,"OccupationLevelDescription":"Ground Floor and Above","StreetAddress":"180 Soleares Avenue","LocalityName":"McCormacks Bay","ValuationRollNumber":"22902"},"geometry":{"type":"MultiPolygon","coordinates":[[[[172.72003747527,-43.566749129941],[172.720060084699,-43.566701670891696],[172.72009765677896,-43.566711428510295],[172.720374879485,-43.5667834291281],[172.720307141679,-43.5669331960971],[172.720365125642,-43.5669672234876],[172.720523165344,-43.566919318046],[172.72051548721797,-43.5669228366817],[172.720498250525,-43.5669323535502],[172.720482209665,-43.5669429263724],[172.720467501209,-43.5669544654737],[172.72045422455,-43.56696689009049],[172.720442466746,-43.5669801104285],[172.72043235207096,-43.5669940187824],[172.720423918115,-43.5670085162377],[172.72034876638497,-43.5671554301111],[172.720299894209,-43.5670994184651],[172.720065530983,-43.5670850979863],[172.719831514361,-43.5670707958714],[172.719995355911,-43.5668375391487],[172.72003747527,-43.566749129941]]]]}}]}