{"type":"FeatureCollection","features":[{"type":"Feature","properties":{"gml_id":"vwRatingUnit.117711","RatingUnitID":117711,"ValuationVisitOrder":"51700","drvRatingUnitLocation":null,"StreetAddressID":123111,"OccupationLevelDescription":"Ground Floor and Above","StreetAddress":"8 Pethig Place","LocalityName":"Oaklands","ValuationRollNumber":"23443"},"geometry":{"type":"MultiPolygon","coordinates":[[[[172.561753739934,-43.5725580096141],[172.561778921099,-43.5725664670178],[172.561938529675,-43.5726200609328],[172.561729937056,-43.5729487419207],[172.561712643902,-43.57294168260249],[172.561697122387,-43.5729327128489],[172.561690140057,-43.572927573872896],[172.56167799079796,-43.572916186722296],[172.56166044085498,-43.5728914578946],[172.561654501148,-43.5728842166969],[172.561640646447,-43.5728706988769],[172.561632805276,-43.57286448554039],[172.561615467505,-43.5728533036815],[172.561606044857,-43.5728483804438],[172.561596185442,-43.5728439415872],[172.56157660139098,-43.5728369815492],[172.561753739934,-43.5725580096141]]]]}}]}