{"type":"FeatureCollection","features":[{"type":"Feature","properties":{"gml_id":"vwRatingUnit.103791","RatingUnitID":103791,"ValuationVisitOrder":"10901","drvRatingUnitLocation":null,"StreetAddressID":83896,"OccupationLevelDescription":"Ground Floor and Above","StreetAddress":"37 Campbell Street","LocalityName":"Sumner","ValuationRollNumber":"22920"},"geometry":{"type":"MultiPolygon","coordinates":[[[[172.761664074425,-43.5788945374129],[172.761967904343,-43.578623772639],[172.762184530643,-43.5787523934624],[172.761883354354,-43.5788728028782],[172.761781034268,-43.5789638927079],[172.761664074425,-43.5788945374129]]]]}}]}