{"type":"FeatureCollection","features":[{"type":"Feature","properties":{"gml_id":"vwRatingUnit.113033","RatingUnitID":113033,"ValuationVisitOrder":"2200","drvRatingUnitLocation":null,"StreetAddressID":71154,"OccupationLevelDescription":"Ground Floor and Above","StreetAddress":"3 Fulham Street","LocalityName":"Islington","ValuationRollNumber":"23431"},"geometry":{"type":"MultiPolygon","coordinates":[[[[172.511250526557,-43.5402773439969],[172.511406837507,-43.5405241923746],[172.511180680665,-43.5405998665021],[172.511024456173,-43.5403531261924],[172.511250526557,-43.5402773439969]]]]}}]}