{"type":"FeatureCollection","features":[{"type":"Feature","properties":{"gml_id":"vwRatingUnit.114500","RatingUnitID":114500,"ValuationVisitOrder":"29600","drvRatingUnitLocation":null,"StreetAddressID":1510,"OccupationLevelDescription":"Ground Floor and Above","StreetAddress":"2/62 Brynley Street","LocalityName":"Hornby","ValuationRollNumber":"23433"},"geometry":{"type":"MultiPolygon","coordinates":[[[[172.53217223841,-43.5478059493229],[172.53229944808,-43.5479077256474],[172.532097405578,-43.5480402672379],[172.53197157257998,-43.5479375876433],[172.53217223841,-43.5478059493229]]]]}}]}