{"type":"FeatureCollection","features":[{"type":"Feature","properties":{"gml_id":"vwRatingUnit.104170","RatingUnitID":104170,"ValuationVisitOrder":"41400","drvRatingUnitLocation":null,"StreetAddressID":69754,"OccupationLevelDescription":"Ground Floor and Above","StreetAddress":"29 Stoke Street","LocalityName":"Sumner","ValuationRollNumber":"22920"},"geometry":{"type":"MultiPolygon","coordinates":[[[[172.759802822633,-43.57162651058889],[172.760030534572,-43.5717617114053],[172.759921863032,-43.5718585018053],[172.759694138623,-43.571723291753],[172.759802822633,-43.57162651058889]]]]}}]}