{"type":"FeatureCollection","features":[{"type":"Feature","properties":{"gml_id":"vwRatingUnit.106078","RatingUnitID":106078,"ValuationVisitOrder":"61200","drvRatingUnitLocation":null,"StreetAddressID":95778,"OccupationLevelDescription":"Ground Floor and Above","StreetAddress":"45 Victors Road","LocalityName":"Hoon Hay","ValuationRollNumber":"22952"},"geometry":{"type":"MultiPolygon","coordinates":[[[[172.59603860264,-43.564313141277],[172.596164354335,-43.5644301143606],[172.595673904183,-43.5647088945716],[172.59557027193298,-43.564612484229194],[172.595548152901,-43.564591911958196],[172.59603860264,-43.564313141277]]]]}}]}