{"type":"FeatureCollection","features":[{"type":"Feature","properties":{"gml_id":"vwRatingUnit.103571","RatingUnitID":103571,"ValuationVisitOrder":"93900","drvRatingUnitLocation":null,"StreetAddressID":17326,"OccupationLevelDescription":"Ground Floor and Above","StreetAddress":"17 Clifton Terrace","LocalityName":"Clifton","ValuationRollNumber":"22911"},"geometry":{"type":"MultiPolygon","coordinates":[[[[172.75451323126998,-43.5665975241068],[172.754652606578,-43.5666561252497],[172.754588449579,-43.5667305940553],[172.754596786983,-43.5667350039979],[172.754581736687,-43.5667500838537],[172.754583106326,-43.5667511578202],[172.754570539515,-43.5667642718422],[172.754566054752,-43.566765252371],[172.754550105929,-43.5667821484126],[172.75453817166,-43.5667887834243],[172.754515028302,-43.5668156457188],[172.75444442918797,-43.5667744085064],[172.754374914173,-43.5667129314585],[172.754356314359,-43.5666964840359],[172.75451323126998,-43.5665975241068]]]]}}]}