{"type":"FeatureCollection","features":[{"type":"Feature","properties":{"gml_id":"vwRatingUnit.117178","RatingUnitID":117178,"ValuationVisitOrder":"91200","drvRatingUnitLocation":null,"StreetAddressID":15541,"OccupationLevelDescription":"Ground Floor and Above","StreetAddress":"173 Halswell Junction Road","LocalityName":"Halswell","ValuationRollNumber":"23562"},"geometry":{"type":"MultiPolygon","coordinates":[[[[172.555660128397,-43.5790754075913],[172.555684054584,-43.57909664255249],[172.55537759802,-43.5792790236399],[172.55552831470897,-43.5794127887985],[172.555679044444,-43.5795465537969],[172.555503923551,-43.5796507742145],[172.555178563682,-43.579361999592095],[172.555660128397,-43.5790754075913]]]]}}]}