{"type":"FeatureCollection","features":[{"type":"Feature","properties":{"gml_id":"vwRatingUnit.117298","RatingUnitID":117298,"ValuationVisitOrder":"11500","drvRatingUnitLocation":null,"StreetAddressID":30370,"OccupationLevelDescription":"Ground Floor and Above","StreetAddress":"1/12 Cobra Street","LocalityName":"Oaklands","ValuationRollNumber":"23443"},"geometry":{"type":"MultiPolygon","coordinates":[[[[172.568080022177,-43.5716513441186],[172.568195582618,-43.57145531349019],[172.568227391356,-43.5714454326835],[172.568361995253,-43.5714930510357],[172.568229677002,-43.5717015656016],[172.568080022177,-43.5716513441186]]]]}}]}