{"type":"FeatureCollection","features":[{"type":"Feature","properties":{"gml_id":"vwRatingUnit.117143","RatingUnitID":117143,"ValuationVisitOrder":"79328","drvRatingUnitLocation":null,"StreetAddressID":85610,"OccupationLevelDescription":"Ground Floor and Above","StreetAddress":"38 Marquess Avenue","LocalityName":"Wentworth Park","ValuationRollNumber":"23441"},"geometry":{"type":"MultiPolygon","coordinates":[[[[172.55129645552597,-43.5700945584668],[172.551606628236,-43.57028787809589],[172.55145421430598,-43.5704127565201],[172.551148886174,-43.57021545899],[172.55129645552597,-43.5700945584668]]]]}}]}