{"type":"FeatureCollection","features":[{"type":"Feature","properties":{"gml_id":"vwRatingUnit.113085","RatingUnitID":113085,"ValuationVisitOrder":"6200","drvRatingUnitLocation":null,"StreetAddressID":65112,"OccupationLevelDescription":"Ground Floor and Above","StreetAddress":"26 Mortlake Street","LocalityName":"Islington","ValuationRollNumber":"23431"},"geometry":{"type":"MultiPolygon","coordinates":[[[[172.507610166591,-43.5387063325133],[172.507801087057,-43.5388417042509],[172.507409714381,-43.5389728845075],[172.507305577272,-43.5388084234107],[172.507610166591,-43.5387063325133]]]]}}]}