{"type":"FeatureCollection","features":[{"type":"Feature","properties":{"gml_id":"vwRatingUnit.116330","RatingUnitID":116330,"ValuationVisitOrder":"11600","drvRatingUnitLocation":null,"StreetAddressID":59210,"OccupationLevelDescription":"Ground Floor and Above","StreetAddress":"22E Lancewood Drive","LocalityName":"Westlake","ValuationRollNumber":"23441"},"geometry":{"type":"MultiPolygon","coordinates":[[[[172.559078489607,-43.5681277689169],[172.559120554875,-43.5681359764738],[172.559158073015,-43.56814476068299],[172.559109342893,-43.5682571472942],[172.55903025037,-43.56823901427309],[172.559078489607,-43.5681277689169]]]]}}]}