{"type":"FeatureCollection","features":[{"type":"Feature","properties":{"gml_id":"vwRatingUnit.103899","RatingUnitID":103899,"ValuationVisitOrder":"17700","drvRatingUnitLocation":null,"StreetAddressID":13987,"OccupationLevelDescription":"Ground Floor and Above","StreetAddress":"18 van Asch Street","LocalityName":"Sumner","ValuationRollNumber":"22920"},"geometry":{"type":"MultiPolygon","coordinates":[[[[172.760617362804,-43.5762829575392],[172.760812252423,-43.5763986025104],[172.760615517436,-43.5765739202842],[172.76042061523998,-43.5764582749624],[172.760617362804,-43.5762829575392]]]]}}]}