{"type":"FeatureCollection","features":[{"type":"Feature","properties":{"gml_id":"vwRatingUnit.103233","RatingUnitID":103233,"ValuationVisitOrder":"56900","drvRatingUnitLocation":null,"StreetAddressID":67392,"OccupationLevelDescription":"Ground Floor and Above","StreetAddress":"276 Main Road","LocalityName":"Clifton","ValuationRollNumber":"22911"},"geometry":{"type":"MultiPolygon","coordinates":[[[[172.748781581769,-43.5648692429288],[172.749370743642,-43.5652460592626],[172.749193567394,-43.56537322087],[172.749036560123,-43.56527590858149],[172.748822168331,-43.5651430183693],[172.748633087024,-43.5650258166799],[172.748781581769,-43.5648692429288]]]]}}]}