{"type":"FeatureCollection","features":[{"type":"Feature","properties":{"gml_id":"vwRatingUnit.103575","RatingUnitID":103575,"ValuationVisitOrder":"94400","drvRatingUnitLocation":null,"StreetAddressID":67773,"OccupationLevelDescription":"Ground Floor and Above","StreetAddress":"28 Clifton Terrace","LocalityName":"Clifton","ValuationRollNumber":"22911"},"geometry":{"type":"MultiPolygon","coordinates":[[[[172.753756365828,-43.5659262054262],[172.754077980771,-43.5659501385946],[172.754071620753,-43.5660387528776],[172.754018200802,-43.5661518023257],[172.753755540506,-43.56613706714],[172.753756130925,-43.5659875432643],[172.753756365828,-43.5659262054262]]]]}}]}