{"type":"FeatureCollection","features":[{"type":"Feature","properties":{"gml_id":"vwRatingUnit.112517","RatingUnitID":112517,"ValuationVisitOrder":"53200","drvRatingUnitLocation":null,"StreetAddressID":111035,"OccupationLevelDescription":"Ground Floor and Above","StreetAddress":"60 Gilberthorpes Road","LocalityName":"Hei Hei","ValuationRollNumber":"23421"},"geometry":{"type":"MultiPolygon","coordinates":[[[[172.51846222603297,-43.5357914461726],[172.519036139342,-43.5359664296926],[172.519002584234,-43.5360246696251],[172.518940052325,-43.53613321175679],[172.518870315037,-43.53611219112479],[172.518366012285,-43.5359584432735],[172.51846222603297,-43.5357914461726]]]]}}]}