{"type":"FeatureCollection","features":[{"type":"Feature","properties":{"gml_id":"vwRatingUnit.102480","RatingUnitID":102480,"ValuationVisitOrder":"37000","drvRatingUnitLocation":null,"StreetAddressID":9591,"OccupationLevelDescription":"Ground Floor and Above","StreetAddress":"2/11 Basil Place","LocalityName":"McCormacks Bay","ValuationRollNumber":"22902"},"geometry":{"type":"MultiPolygon","coordinates":[[[[172.727625685671,-43.5612139217126],[172.727843555011,-43.561200301815],[172.72784781183697,-43.5612000358243],[172.72784784455996,-43.5612003119238],[172.727867682797,-43.5613681407458],[172.727819962144,-43.5613712566052],[172.727815543658,-43.5613715450858],[172.72760858118497,-43.5613850583686],[172.727600966317,-43.5613855558629],[172.727580127256,-43.5612167696673],[172.727625685671,-43.5612139217126]]]]}}]}