{"type":"FeatureCollection","features":[{"type":"Feature","properties":{"gml_id":"vwRatingUnit.116078","RatingUnitID":116078,"ValuationVisitOrder":"22100","drvRatingUnitLocation":null,"StreetAddressID":34903,"OccupationLevelDescription":"Ground Floor and Above","StreetAddress":"1/35 Oakley Crescent","LocalityName":"Hornby","ValuationRollNumber":"23435"},"geometry":{"type":"MultiPolygon","coordinates":[[[[172.53308000125196,-43.5553949300982],[172.533082521177,-43.55539421714819],[172.533086126058,-43.555393197804],[172.533098208233,-43.55538978050279],[172.533098528787,-43.55538968979089],[172.533113895289,-43.5553853435953],[172.533117133415,-43.5553844277708],[172.533364889297,-43.555314353312795],[172.533369717284,-43.5553129877646],[172.533370335305,-43.55531437536839],[172.533382858057,-43.5553424917241],[172.533402964993,-43.5553802149343],[172.533425975136,-43.55541703160759],[172.533447184332,-43.5554466222924],[172.53345077788,-43.5554511947578],[172.533455764183,-43.5554575390023],[172.533452230969,-43.5554587208367],[172.533444512426,-43.55546130305449],[172.533438939039,-43.5554631674885],[172.533432104785,-43.5554654538611],[172.533425647107,-43.5554676141387],[172.53341969678496,-43.5554696046649],[172.533412354816,-43.555472060786],[172.533407288783,-43.5554737554674],[172.533399062881,-43.5554765074332],[172.53339488077899,-43.5554779062685],[172.533385770586,-43.5554809540774],[172.53338247313098,-43.5554820570698],[172.533372478647,-43.5554854007216],[172.533370065122,-43.5554862081282],[172.533359186707,-43.5554898471044],[172.53335145310996,-43.5554924341935],[172.533345894407,-43.555494293744],[172.533339045456,-43.5554965849901],[172.533332602461,-43.5554987403836],[172.533326637443,-43.555500735783895],[172.533319310514,-43.5555031870217],[172.533314229428,-43.555504886576394],[172.533306018208,-43.5555076336567],[172.533301821767,-43.555509037629],[172.533292726256,-43.55551208029169],[172.53328941374897,-43.55551318841879],[172.533279433946,-43.555516526923796],[172.533270801719,-43.5555194144712],[172.533266141993,-43.5555209732958],[172.533258394054,-43.555523565259094],[172.533252850036,-43.5555254199262],[172.53324598602796,-43.5555277163042],[172.533239557719,-43.5555298665537],[172.53323357800298,-43.5555318670881],[172.53322626575797,-43.5555343131811],[172.533221169975,-43.5555360178706],[172.533212973796,-43.5555387598069],[172.533208762303,-43.5555401686532],[172.53319968147298,-43.5555432064298],[172.533190150257,-43.5555463946926],[172.53318638950697,-43.5555476530526],[172.533182065864,-43.55554909939159],[172.53308000125196,-43.5553949300982]]]]}}]}