{"type":"FeatureCollection","features":[{"type":"Feature","properties":{"gml_id":"vwRatingUnit.114536","RatingUnitID":114536,"ValuationVisitOrder":"33400","drvRatingUnitLocation":null,"StreetAddressID":23596,"OccupationLevelDescription":"Ground Floor and Above","StreetAddress":"140 Springs Road","LocalityName":"Hornby","ValuationRollNumber":"23433"},"geometry":{"type":"MultiPolygon","coordinates":[[[[172.533649095589,-43.5522608327901],[172.53367128420797,-43.5522787173462],[172.533684394626,-43.5523671050427],[172.53339684469,-43.5527332846526],[172.533352971781,-43.5526978955163],[172.533186938732,-43.552564009866295],[172.533649095589,-43.5522608327901]]]]}}]}