{"type":"FeatureCollection","features":[{"type":"Feature","properties":{"gml_id":"vwRatingUnit.104628","RatingUnitID":104628,"ValuationVisitOrder":"70800","drvRatingUnitLocation":null,"StreetAddressID":95918,"OccupationLevelDescription":"Ground Floor and Above","StreetAddress":"45/11 Marriner Street","LocalityName":"Sumner","ValuationRollNumber":"22920"},"geometry":{"type":"MultiPolygon","coordinates":[[[[172.758015399214,-43.56742614321839],[172.758018493712,-43.5674261496975],[172.758018484799,-43.5674283997987],[172.75806168300298,-43.5674599919144],[172.75806166518,-43.5674644921168],[172.758074007533,-43.5674735184324],[172.758073989711,-43.567478018634795],[172.758181985466,-43.5675569988379],[172.75818507997,-43.567557005312494],[172.75818507106297,-43.5675592554136],[172.758175760828,-43.5675659862928],[172.758172666324,-43.5675659798179],[172.758169571819,-43.567565973342994],[172.758058490475,-43.5674847365494],[172.758052301474,-43.5674847235932],[172.75799984650098,-43.5674463617324],[172.757999855415,-43.5674441116312],[172.75799988215698,-43.5674373613276],[172.758015399214,-43.56742614321839]]]]}}]}