{"type":"FeatureCollection","features":[{"type":"Feature","properties":{"gml_id":"vwRatingUnit.108296","RatingUnitID":108296,"ValuationVisitOrder":"53000","drvRatingUnitLocation":null,"StreetAddressID":28870,"OccupationLevelDescription":"Ground Floor and Above","StreetAddress":"1 West-Watson Avenue","LocalityName":"Hillmorton","ValuationRollNumber":"22980"},"geometry":{"type":"MultiPolygon","coordinates":[[[[172.58255106927498,-43.5592506595335],[172.582585279292,-43.5592813320621],[172.582538441718,-43.559309001833796],[172.582645389883,-43.5594048693619],[172.582358311612,-43.559574430232],[172.58234905945596,-43.55957901410579],[172.58233561404498,-43.5595832317542],[172.582321243051,-43.5595852498578],[172.582306602986,-43.5595849897883],[172.582292387004,-43.5595824450567],[172.582279250199,-43.5595777440481],[172.582273280958,-43.5595746531507],[172.582262886231,-43.5595671538356],[172.58216451230197,-43.5594789856968],[172.58255106927498,-43.5592506595335]]]]}}]}