{"type":"FeatureCollection","features":[{"type":"Feature","properties":{"gml_id":"vwRatingUnit.118128","RatingUnitID":118128,"ValuationVisitOrder":"32300","drvRatingUnitLocation":null,"StreetAddressID":109785,"OccupationLevelDescription":"Ground Floor and Above","StreetAddress":"6 Shamrock Place","LocalityName":"Oaklands","ValuationRollNumber":"23444"},"geometry":{"type":"MultiPolygon","coordinates":[[[[172.560468814356,-43.5793353271543],[172.560870799172,-43.5794229861622],[172.560807077289,-43.5795773676912],[172.560430420284,-43.5794952414367],[172.56040511616996,-43.5794897265676],[172.560468814356,-43.5793353271543]]]]}}]}