{"type":"FeatureCollection","features":[{"type":"Feature","properties":{"gml_id":"vwRatingUnit.116331","RatingUnitID":116331,"ValuationVisitOrder":"11700","drvRatingUnitLocation":null,"StreetAddressID":57840,"OccupationLevelDescription":"Ground Floor and Above","StreetAddress":"22 Lancewood Drive","LocalityName":"Westlake","ValuationRollNumber":"23441"},"geometry":{"type":"MultiPolygon","coordinates":[[[[172.55882922868,-43.5681060956608],[172.558907191961,-43.5681091751754],[172.558961250506,-43.5681124692321],[172.558988156037,-43.5681149663527],[172.55904160808498,-43.5681216783536],[172.559078489607,-43.5681277689169],[172.55903025037,-43.56823901427309],[172.559109342893,-43.5682571472942],[172.559034415709,-43.5684299550368],[172.559033871256,-43.5684299259524],[172.55880577150998,-43.5684209526988],[172.55882922868,-43.5681060956608]]]]}}]}