{"type":"FeatureCollection","features":[{"type":"Feature","properties":{"gml_id":"vwRatingUnit.106738","RatingUnitID":106738,"ValuationVisitOrder":"53400","drvRatingUnitLocation":null,"StreetAddressID":53792,"OccupationLevelDescription":"Ground Floor and Above","StreetAddress":"20 Hurunui Street","LocalityName":"Hoon Hay Valley","ValuationRollNumber":"22960"},"geometry":{"type":"MultiPolygon","coordinates":[[[[172.613913104181,-43.5747610979052],[172.61398115048,-43.5751143232037],[172.61379125561098,-43.5751336876282],[172.61372319801,-43.5747804621699],[172.613795183969,-43.5747731244309],[172.613913104181,-43.5747610979052]]]]}}]}