{"type":"FeatureCollection","features":[{"type":"Feature","properties":{"gml_id":"vwRatingUnit.107685","RatingUnitID":107685,"ValuationVisitOrder":"6200","drvRatingUnitLocation":null,"StreetAddressID":124302,"OccupationLevelDescription":"Ground Floor and Above","StreetAddress":"80 Tankerville Road","LocalityName":"Hoon Hay","ValuationRollNumber":"22980"},"geometry":{"type":"MultiPolygon","coordinates":[[[[172.594491509312,-43.5601945938561],[172.594619476538,-43.5603116847049],[172.594210720131,-43.5605544819376],[172.59408274067297,-43.5604374085979],[172.594491509312,-43.5601945938561]]]]}}]}