{"type":"FeatureCollection","features":[{"type":"Feature","properties":{"gml_id":"vwRatingUnit.115906","RatingUnitID":115906,"ValuationVisitOrder":"3554","drvRatingUnitLocation":null,"StreetAddressID":69247,"OccupationLevelDescription":"Ground Floor and Above","StreetAddress":"29 De Lange Street","LocalityName":"Hornby","ValuationRollNumber":"23435"},"geometry":{"type":"MultiPolygon","coordinates":[[[[172.538253864963,-43.552141487441695],[172.538570039547,-43.5523974158775],[172.538403574801,-43.5525022932389],[172.538113882389,-43.5522678025929],[172.538081461233,-43.5522886986414],[172.537874870467,-43.5524218751131],[172.53785006131,-43.5524017846585],[172.538229166742,-43.5521574099999],[172.538253864963,-43.552141487441695]]]]}}]}