{"type":"FeatureCollection","features":[{"type":"Feature","properties":{"gml_id":"vwRatingUnit.116840","RatingUnitID":116840,"ValuationVisitOrder":"71500","drvRatingUnitLocation":null,"StreetAddressID":107012,"OccupationLevelDescription":"Ground Floor and Above","StreetAddress":"57 Patterson Terrace","LocalityName":"Oaklands","ValuationRollNumber":"23441"},"geometry":{"type":"MultiPolygon","coordinates":[[[[172.55425373170897,-43.5763780567125],[172.554394967331,-43.5765033982178],[172.554047957815,-43.5767100022461],[172.553906722418,-43.5765846603206],[172.55425373170897,-43.5763780567125]]]]}}]}