{"type":"FeatureCollection","features":[{"type":"Feature","properties":{"gml_id":"vwRatingUnit.114689","RatingUnitID":114689,"ValuationVisitOrder":"50100","drvRatingUnitLocation":null,"StreetAddressID":40619,"OccupationLevelDescription":"Ground Floor and Above","StreetAddress":"10 Oriana Crescent","LocalityName":"Hornby","ValuationRollNumber":"23433"},"geometry":{"type":"MultiPolygon","coordinates":[[[[172.526637854952,-43.5491938862564],[172.526996137213,-43.549445340031],[172.526864825568,-43.5495443866799],[172.526506506343,-43.5492929053494],[172.526606175533,-43.5492177614632],[172.526637854952,-43.5491938862564]]]]}}]}