{"type":"FeatureCollection","features":[{"type":"Feature","properties":{"gml_id":"vwRatingUnit.101939","RatingUnitID":101939,"ValuationVisitOrder":"74400","drvRatingUnitLocation":null,"StreetAddressID":105542,"OccupationLevelDescription":"Ground Floor and Above","StreetAddress":"54E Cannon Hill Crescent","LocalityName":"St Andrews Hill","ValuationRollNumber":"22901"},"geometry":{"type":"MultiPolygon","coordinates":[[[[172.711538190878,-43.5608788367423],[172.71155912386,-43.5608937669718],[172.711538285012,-43.5609113020215],[172.711517066387,-43.5608965780876],[172.711538190878,-43.5608788367423]]]]}}]}