{"type":"FeatureCollection","features":[{"type":"Feature","properties":{"gml_id":"vwRatingUnit.114760","RatingUnitID":114760,"ValuationVisitOrder":"57100","drvRatingUnitLocation":null,"StreetAddressID":44414,"OccupationLevelDescription":"Ground Floor and Above","StreetAddress":"11 Fairmont Place","LocalityName":"Hornby","ValuationRollNumber":"23433"},"geometry":{"type":"MultiPolygon","coordinates":[[[[172.529462593632,-43.5541577486776],[172.529515050335,-43.554200060024094],[172.52955138967897,-43.554228453178695],[172.529585871655,-43.5542537694372],[172.529244523654,-43.554504930971596],[172.529107643151,-43.5543946598686],[172.529462593632,-43.5541577486776]]]]}}]}