{"type":"FeatureCollection","features":[{"type":"Feature","properties":{"gml_id":"vwRatingUnit.116031","RatingUnitID":116031,"ValuationVisitOrder":"16100","drvRatingUnitLocation":null,"StreetAddressID":225347,"OccupationLevelDescription":"Ground Floor and Above","StreetAddress":"18 Awatea Road","LocalityName":"Hornby","ValuationRollNumber":"23435"},"geometry":{"type":"MultiPolygon","coordinates":[[[[172.536042339663,-43.5526648092185],[172.536116224927,-43.55261620097609],[172.536119799702,-43.5526138490796],[172.536122757416,-43.5526162272789],[172.536250001128,-43.5527185409702],[172.53625489431997,-43.5527224752863],[172.536251428014,-43.55272475562639],[172.53623128995,-43.552738004438794],[172.53623103099,-43.552738174942],[172.53622507099297,-43.5527420959799],[172.536224231623,-43.5527426480449],[172.536218852036,-43.5527461872607],[172.53621743261198,-43.5527471211489],[172.536212633079,-43.5527502785412],[172.536210633602,-43.5527515939927],[172.536206414119,-43.5527543700813],[172.53620383458897,-43.55275606709579],[172.536200195161,-43.5527584613611],[172.53619703557598,-43.55276054019859],[172.536193976201,-43.5527625526406],[172.536190236203,-43.5527650132996],[172.536187757596,-43.5527666441812],[172.536183437188,-43.5527694864016],[172.53618153863496,-43.552770735459994],[172.536176638171,-43.5527739595032],[172.536156662778,-43.5527871010919],[172.536156240759,-43.5527873785443],[172.536150443812,-43.552791192369],[172.536149441738,-43.5527918516443],[172.536144225204,-43.5527952836473],[172.536142642716,-43.552796324743895],[172.536138006234,-43.5527993751837],[172.536135843693,-43.5528007978431],[172.536131787267,-43.5528034664599],[172.53612904466897,-43.552805270941896],[172.536125568298,-43.5528075577357],[172.536122245287,-43.5528097440389],[172.536119349326,-43.5528116492711],[172.536115446263,-43.552814216877],[172.536113130356,-43.5528157405463],[172.536108647236,-43.5528186899746],[172.536088254819,-43.55283210616479],[172.536088249792,-43.5528321092636],[172.536082035845,-43.5528361974383],[172.536081450762,-43.5528365823596],[172.536075816869,-43.5528402887115],[172.53607465173,-43.5528410554552],[172.536069597891,-43.5528443802442],[172.536067852699,-43.5528455282906],[172.536063378914,-43.5528484715167],[172.536061053665,-43.5528500013853],[172.536057160293,-43.5528525627903],[172.536054254273,-43.5528544744783],[172.536050941312,-43.55285665432199],[172.536047455237,-43.5528589475724],[172.536013627776,-43.5528812024672],[172.536013459687,-43.552881312775],[172.536007408791,-43.5528852937367],[172.536006660645,-43.5528857858667],[172.536001189805,-43.5528893850058],[172.53599986160296,-43.5528902589579],[172.535994970817,-43.5528934765345],[172.535993062559,-43.5528947320487],[172.53598875182996,-43.552897567803],[172.535986263156,-43.55289920513769],[172.53598253284,-43.5529016593311],[172.535979464111,-43.5529036782277],[172.535966323755,-43.552912323021],[172.535883587781,-43.5528523866047],[172.535883122778,-43.5528263350333],[172.536081795084,-43.5526925451051],[172.536042339663,-43.5526648092185]]]]}}]}