{"type":"FeatureCollection","features":[{"type":"Feature","properties":{"gml_id":"vwRatingUnit.108017","RatingUnitID":108017,"ValuationVisitOrder":"33200","drvRatingUnitLocation":null,"StreetAddressID":63283,"OccupationLevelDescription":"Ground Floor and Above","StreetAddress":"25 Kinnaird Place","LocalityName":"Hillmorton","ValuationRollNumber":"22980"},"geometry":{"type":"MultiPolygon","coordinates":[[[[172.587331076456,-43.5550869320043],[172.587371351051,-43.5550681565845],[172.587415699817,-43.555054499179],[172.58747709745097,-43.5550416048494],[172.587569421356,-43.5550288841809],[172.587661849838,-43.555020826216],[172.587703783037,-43.5550184740355],[172.587735428152,-43.5550184972431],[172.587782869166,-43.5550233923629],[172.587806433564,-43.5550287961127],[172.587829820601,-43.55503663843399],[172.587844772261,-43.5550437395197],[172.587865910927,-43.5550601425327],[172.587878505906,-43.555077181045],[172.587892051062,-43.555111117413496],[172.587907673449,-43.5551654929732],[172.587920816134,-43.5551912281896],[172.587930215762,-43.5552031248257],[172.587942071797,-43.55521413916739],[172.58776764125997,-43.5553172132845],[172.587868145584,-43.5554071394957],[172.588176724246,-43.5555288530511],[172.5881690366,-43.5555346670821],[172.588159748147,-43.555542950605194],[172.587589137676,-43.5553178887201],[172.587331076456,-43.5550869320043]]]]}}]}