{"type":"FeatureCollection","features":[{"type":"Feature","properties":{"gml_id":"vwRatingUnit.102697","RatingUnitID":102697,"ValuationVisitOrder":"64100","drvRatingUnitLocation":null,"StreetAddressID":23307,"OccupationLevelDescription":"Ground Floor and Above","StreetAddress":"14 Luxton Place","LocalityName":"Mt Pleasant","ValuationRollNumber":"22902"},"geometry":{"type":"MultiPolygon","coordinates":[[[[172.72246417872398,-43.5662826913077],[172.72255370717596,-43.5662883876881],[172.722599323805,-43.5663311147707],[172.722798601577,-43.5663354003475],[172.72286046050297,-43.5663367278348],[172.722825263511,-43.5665944997055],[172.72276959345598,-43.5665931420513],[172.72248533946998,-43.5665862311882],[172.722488480648,-43.5665187617245],[172.722449984622,-43.5664535143691],[172.722453884299,-43.566368954709],[172.72246417872398,-43.5662826913077]]]]}}]}