{"type":"FeatureCollection","features":[{"type":"Feature","properties":{"gml_id":"vwRatingUnit.107178","RatingUnitID":107178,"ValuationVisitOrder":"27900","drvRatingUnitLocation":null,"StreetAddressID":48706,"OccupationLevelDescription":"Ground Floor and Above","StreetAddress":"12 Northcroft Street","LocalityName":"Hoon Hay","ValuationRollNumber":"22970"},"geometry":{"type":"MultiPolygon","coordinates":[[[[172.586845257276,-43.5635754901855],[172.586964252212,-43.563682125487],[172.586583439748,-43.5639068056008],[172.586464445152,-43.5638001519097],[172.586845257276,-43.5635754901855]]]]}}]}