{"type":"FeatureCollection","features":[{"type":"Feature","properties":{"gml_id":"vwRatingUnit.109669","RatingUnitID":109669,"ValuationVisitOrder":"18200","drvRatingUnitLocation":null,"StreetAddressID":37176,"OccupationLevelDescription":"Ground Floor and Above","StreetAddress":"1/57 Colman Avenue","LocalityName":"Upper Riccarton","ValuationRollNumber":"23413"},"geometry":{"type":"MultiPolygon","coordinates":[[[[172.56012383817196,-43.5312126296152],[172.560296742847,-43.5313371246277],[172.56009616573,-43.5314437606664],[172.559975395586,-43.531321643212195],[172.56012383817196,-43.5312126296152]]]]}}]}