{"type":"FeatureCollection","features":[{"type":"Feature","properties":{"gml_id":"vwRatingUnit.10151","RatingUnitID":10151,"ValuationVisitOrder":"90100","drvRatingUnitLocation":null,"StreetAddressID":34517,"OccupationLevelDescription":"Ground Floor and Above","StreetAddress":"1/318 Withells Road","LocalityName":"Avonhead","ValuationRollNumber":"21894"},"geometry":{"type":"MultiPolygon","coordinates":[[[[172.56020752587597,-43.50412076954069],[172.560493668605,-43.50420840098139],[172.560406196231,-43.50435840885309],[172.560120723233,-43.504270978349],[172.56020752587597,-43.50412076954069]]]]}}]}