{"type":"FeatureCollection","features":[{"type":"Feature","properties":{"gml_id":"vwRatingUnit.105978","RatingUnitID":105978,"ValuationVisitOrder":"51100","drvRatingUnitLocation":null,"StreetAddressID":61899,"OccupationLevelDescription":"Ground Floor and Above","StreetAddress":"24 Victors Road","LocalityName":"Hoon Hay","ValuationRollNumber":"22952"},"geometry":{"type":"MultiPolygon","coordinates":[[[[172.597888469694,-43.5657398964817],[172.598378880697,-43.56546110680619],[172.598501575847,-43.5655752313406],[172.598011152181,-43.5658540124888],[172.597888469694,-43.5657398964817]]]]}}]}