{"type":"FeatureCollection","features":[{"type":"Feature","properties":{"gml_id":"vwRatingUnit.100522","RatingUnitID":100522,"ValuationVisitOrder":"22500","drvRatingUnitLocation":null,"StreetAddressID":105000,"OccupationLevelDescription":"Ground Floor and Above","StreetAddress":"54 Celia Street","LocalityName":"Redcliffs","ValuationRollNumber":"22900"},"geometry":{"type":"MultiPolygon","coordinates":[[[[172.736107170179,-43.5574531461973],[172.736518708972,-43.5571730442052],[172.736632041241,-43.557260878023],[172.736220440741,-43.5575409262689],[172.736107170179,-43.5574531461973]]]]}}]}