{"type":"FeatureCollection","features":[{"type":"Feature","properties":{"gml_id":"vwRatingUnit.113189","RatingUnitID":113189,"ValuationVisitOrder":"14000","drvRatingUnitLocation":null,"StreetAddressID":142971,"OccupationLevelDescription":"Ground Floor and Above","StreetAddress":"1/4 Brixton Street","LocalityName":"Islington","ValuationRollNumber":"23431"},"geometry":{"type":"MultiPolygon","coordinates":[[[[172.50630433975,-43.5413543083958],[172.50638781793998,-43.5414865112638],[172.506384686238,-43.5414875614304],[172.506379285566,-43.5414893725323],[172.506371434994,-43.5414920051346],[172.50636762149,-43.5414932839665],[172.50635818410697,-43.5414964485789],[172.50635595741298,-43.5414971953994],[172.506344932859,-43.54150089228],[172.506344293333,-43.5415011068312],[172.506291928562,-43.541518667072495],[172.506285972913,-43.5415206642323],[172.506278677304,-43.541523110766],[172.50627430882398,-43.54152457565709],[172.506265426046,-43.5415275541981],[172.506262644735,-43.5415284870806],[172.506252175142,-43.5415319978902],[172.506250980643,-43.5415323985029],[172.506238923878,-43.5415364415792],[172.506227652456,-43.5415402213442],[172.506225672613,-43.5415408852666],[172.506215988361,-43.541544132763],[172.506212421702,-43.54154532895409],[172.506204324263,-43.5415480441807],[172.506199170433,-43.5415497726386],[172.506192660164,-43.5415519555972],[172.506185919161,-43.5415542163215],[172.50617032439098,-43.54155944582679],[172.506169818839,-43.5415586475236],[172.506086649241,-43.5414273488153],[172.506286959769,-43.541360139808],[172.50630433975,-43.5413543083958]]]]}}]}