{"type":"FeatureCollection","features":[{"type":"Feature","properties":{"gml_id":"vwRatingUnit.105294","RatingUnitID":105294,"ValuationVisitOrder":"28800","drvRatingUnitLocation":null,"StreetAddressID":106896,"OccupationLevelDescription":"Ground Floor and Above","StreetAddress":"57 Greenpark Street","LocalityName":"Hoon Hay","ValuationRollNumber":"22951"},"geometry":{"type":"MultiPolygon","coordinates":[[[[172.607790293783,-43.559902604672196],[172.607943945976,-43.5599883909308],[172.607651343676,-43.5602655636829],[172.607497691128,-43.56017978604339],[172.607790293783,-43.559902604672196]]]]}}]}