{"type":"FeatureCollection","features":[{"type":"Feature","properties":{"gml_id":"vwRatingUnit.106650","RatingUnitID":106650,"ValuationVisitOrder":"44900","drvRatingUnitLocation":null,"StreetAddressID":100708,"OccupationLevelDescription":"Ground Floor and Above","StreetAddress":"5 Rydal Street","LocalityName":"Hoon Hay","ValuationRollNumber":"22960"},"geometry":{"type":"MultiPolygon","coordinates":[[[[172.60852856553896,-43.56520500859929],[172.608638588848,-43.5653697079038],[172.607789688553,-43.5656344078306],[172.607773211365,-43.5656096898583],[172.608211764259,-43.56547295576409],[172.608109884048,-43.5653202186542],[172.608312002103,-43.5652645964573],[172.60852856553896,-43.56520500859929]]]]}}]}