{"type":"FeatureCollection","features":[{"type":"Feature","properties":{"gml_id":"vwRatingUnit.116160","RatingUnitID":116160,"ValuationVisitOrder":"28500","drvRatingUnitLocation":null,"StreetAddressID":128227,"OccupationLevelDescription":"Ground Floor and Above","StreetAddress":"9 McKellar Place","LocalityName":"Hornby","ValuationRollNumber":"23435"},"geometry":{"type":"MultiPolygon","coordinates":[[[[172.535720175144,-43.5547066702258],[172.536082915905,-43.5548855294508],[172.535981544436,-43.5550481179764],[172.535619113928,-43.5547959206144],[172.535637882182,-43.55478209891379],[172.535670236201,-43.5547556767385],[172.535700175743,-43.5547277776828],[172.535720175144,-43.5547066702258]]]]}}]}