{"type":"FeatureCollection","features":[{"type":"Feature","properties":{"gml_id":"vwRatingUnit.107491","RatingUnitID":107491,"ValuationVisitOrder":"54800","drvRatingUnitLocation":null,"StreetAddressID":69394,"OccupationLevelDescription":"Ground Floor and Above","StreetAddress":"29 Haslam Crescent","LocalityName":"Hoon Hay","ValuationRollNumber":"22970"},"geometry":{"type":"MultiPolygon","coordinates":[[[[172.589830189154,-43.5657139074278],[172.589898070299,-43.5657747329021],[172.58991065225098,-43.5657849214921],[172.589924565108,-43.565794151734],[172.589937058778,-43.565800901722],[172.589640992662,-43.566110977239],[172.589573751228,-43.5660507209444],[172.589448878144,-43.5659388201574],[172.589830189154,-43.5657139074278]]]]}}]}