{"type":"FeatureCollection","features":[{"type":"Feature","properties":{"gml_id":"vwRatingUnit.106347","RatingUnitID":106347,"ValuationVisitOrder":"18500","drvRatingUnitLocation":null,"StreetAddressID":128218,"OccupationLevelDescription":"Ground Floor and Above","StreetAddress":"9 Mavin Road","LocalityName":"Hoon Hay","ValuationRollNumber":"22960"},"geometry":{"type":"MultiPolygon","coordinates":[[[[172.61170475355797,-43.5731932600771],[172.611822169746,-43.5733320675848],[172.61134090403496,-43.5735472748679],[172.61132470709,-43.57352463760299],[172.6112372068,-43.5734023746026],[172.61170475355797,-43.5731932600771]]]]}}]}