{"type":"FeatureCollection","features":[{"type":"Feature","properties":{"gml_id":"vwRatingUnit.100262","RatingUnitID":100262,"ValuationVisitOrder":"2900","drvRatingUnitLocation":null,"StreetAddressID":11552,"OccupationLevelDescription":"Ground Floor and Above","StreetAddress":"2 Moncks Bay Lane","LocalityName":"Moncks Bay","ValuationRollNumber":"22900"},"geometry":{"type":"MultiPolygon","coordinates":[[[[172.744063980355,-43.5662969085481],[172.744134251642,-43.5663318871255],[172.743918508095,-43.5667089982806],[172.743799664739,-43.5666741639068],[172.743795025103,-43.5666825150865],[172.74369170952198,-43.5666522242804],[172.74369633675397,-43.5666438820777],[172.74358508438598,-43.5666112694404],[172.743604859331,-43.5665770844079],[172.743454091777,-43.5665309191991],[172.743465325853,-43.5665115030534],[172.743534961738,-43.566391212895596],[172.743785814131,-43.5664704878149],[172.743715848258,-43.5665928204995],[172.743918231212,-43.56665399559619],[172.744088362211,-43.5663566088865],[172.744092275792,-43.5663472300295],[172.74409352302,-43.5663390693354],[172.744092901352,-43.5663308685001],[172.744090422226,-43.5663228525616],[172.744086146587,-43.5663152466671],[172.74408019731,-43.5663082671009],[172.74407273455097,-43.5663020942273],[172.744063980355,-43.5662969085481]]]]}}]}