{"type":"FeatureCollection","features":[{"type":"Feature","properties":{"gml_id":"vwRatingUnit.100648","RatingUnitID":100648,"ValuationVisitOrder":"28900","drvRatingUnitLocation":null,"StreetAddressID":12558,"OccupationLevelDescription":"Ground Floor and Above","StreetAddress":"19 Main Road","LocalityName":"Redcliffs","ValuationRollNumber":"22900"},"geometry":{"type":"MultiPolygon","coordinates":[[[[172.733174015639,-43.5573632670265],[172.73355755343,-43.557101804888596],[172.73364489034697,-43.5571417078043],[172.733748632284,-43.5572198197902],[172.733344365068,-43.557495338532895],[172.733174015639,-43.5573632670265]]]]}}]}