{"type":"FeatureCollection","features":[{"type":"Feature","properties":{"gml_id":"vwRatingUnit.103397","RatingUnitID":103397,"ValuationVisitOrder":"77200","drvRatingUnitLocation":null,"StreetAddressID":80501,"OccupationLevelDescription":"Ground Floor and Above","StreetAddress":"34 Evans Pass Road","LocalityName":"Sumner","ValuationRollNumber":"22911"},"geometry":{"type":"MultiPolygon","coordinates":[[[[172.754686073004,-43.5833641073469],[172.755241566469,-43.5835700976449],[172.755140900529,-43.583713612679794],[172.75489779387496,-43.5836234896403],[172.75463702122397,-43.5835268213027],[172.754660420488,-43.583379128697494],[172.754686073004,-43.5833641073469]]]]}}]}