{"type":"FeatureCollection","features":[{"type":"Feature","properties":{"gml_id":"vwRatingUnit.106456","RatingUnitID":106456,"ValuationVisitOrder":"28704","drvRatingUnitLocation":null,"StreetAddressID":30043,"OccupationLevelDescription":"Ground Floor and Above","StreetAddress":"1/111 Kaiwara Street","LocalityName":"Hoon Hay","ValuationRollNumber":"22960"},"geometry":{"type":"MultiPolygon","coordinates":[[[[172.60966341664596,-43.5700835424166],[172.60966529169698,-43.5700933787932],[172.60968787560697,-43.5702118656637],[172.60969086211,-43.5702275339418],[172.609687773487,-43.5702278307136],[172.60945876216,-43.570249826711],[172.60945693020798,-43.5702402099811],[172.609432028499,-43.5701094905334],[172.60966341664596,-43.5700835424166]]]]}}]}