{"type":"FeatureCollection","features":[{"type":"Feature","properties":{"gml_id":"vwRatingUnit.109476","RatingUnitID":109476,"ValuationVisitOrder":"1700","drvRatingUnitLocation":null,"StreetAddressID":94068,"OccupationLevelDescription":"Ground Floor and Above","StreetAddress":"43 Yaldhurst Road","LocalityName":"Upper Riccarton","ValuationRollNumber":"23413"},"geometry":{"type":"MultiPolygon","coordinates":[[[[172.567073790458,-43.5305712435008],[172.567257299599,-43.5306273700671],[172.56701625784396,-43.5310444191603],[172.566832772401,-43.5309882923175],[172.566930805746,-43.530818661697396],[172.567073790458,-43.5305712435008]]]]}}]}