{"type":"FeatureCollection","features":[{"type":"Feature","properties":{"gml_id":"vwRatingUnit.114183","RatingUnitID":114183,"ValuationVisitOrder":"77800","drvRatingUnitLocation":null,"StreetAddressID":78988,"OccupationLevelDescription":"Ground Floor and Above","StreetAddress":"32A Amyes Road","LocalityName":"Hornby","ValuationRollNumber":"23432"},"geometry":{"type":"MultiPolygon","coordinates":[[[[172.526715504481,-43.5470701184752],[172.526866226439,-43.5471909395714],[172.526680881589,-43.547312520495396],[172.526678122473,-43.5473143304057],[172.526675853296,-43.5473124998313],[172.526527921296,-43.54719316387289],[172.526709216174,-43.5470742433026],[172.526715504481,-43.5470701184752]]]]}}]}