{"type":"FeatureCollection","features":[{"type":"Feature","properties":{"gml_id":"vwRatingUnit.109195","RatingUnitID":109195,"ValuationVisitOrder":"34200","drvRatingUnitLocation":null,"StreetAddressID":26167,"OccupationLevelDescription":"Ground Floor and Above","StreetAddress":"14 Roche Avenue","LocalityName":"Upper Riccarton","ValuationRollNumber":"23412"},"geometry":{"type":"MultiPolygon","coordinates":[[[[172.572588672587,-43.5359248128158],[172.57264864393997,-43.536333845210294],[172.572431276757,-43.5363515618514],[172.572371319279,-43.5359425203797],[172.572517665734,-43.535930597734],[172.572588672587,-43.5359248128158]]]]}}]}