{"type":"FeatureCollection","features":[{"type":"Feature","properties":{"gml_id":"vwRatingUnit.10331","RatingUnitID":10331,"ValuationVisitOrder":"10400","drvRatingUnitLocation":null,"StreetAddressID":28947,"OccupationLevelDescription":"Ground Floor and Above","StreetAddress":"1 Elsom Lane","LocalityName":"Avonhead","ValuationRollNumber":"21895"},"geometry":{"type":"MultiPolygon","coordinates":[[[[172.54922638789,-43.52388356518339],[172.549259426889,-43.5238936768226],[172.549446072501,-43.5239508065927],[172.549349061415,-43.5241227539377],[172.54911957432398,-43.5240694389644],[172.548742027488,-43.5239538269477],[172.548747791385,-43.5239438673614],[172.549124757796,-43.5240593242531],[172.54922638789,-43.52388356518339]]]]}}]}