{"type":"FeatureCollection","features":[{"type":"Feature","properties":{"gml_id":"vwRatingUnit.113093","RatingUnitID":113093,"ValuationVisitOrder":"6900","drvRatingUnitLocation":null,"StreetAddressID":30292,"OccupationLevelDescription":"Ground Floor and Above","StreetAddress":"1/12 Mortlake Street","LocalityName":"Islington","ValuationRollNumber":"23431"},"geometry":{"type":"MultiPolygon","coordinates":[[[[172.508050911199,-43.5399853293115],[172.508265948625,-43.5399181940879],[172.508349361021,-43.5400535036504],[172.508138789211,-43.54012408263749],[172.508050911199,-43.5399853293115]]]]}}]}