{"type":"FeatureCollection","features":[{"type":"Feature","properties":{"gml_id":"vwRatingUnit.104959","RatingUnitID":104959,"ValuationVisitOrder":"40013","drvRatingUnitLocation":null,"StreetAddressID":85569,"OccupationLevelDescription":"Ground Floor and Above","StreetAddress":"38 Godley Drive","LocalityName":"Scarborough","ValuationRollNumber":"22931"},"geometry":{"type":"MultiPolygon","coordinates":[[[[172.771070136539,-43.5776178643606],[172.771074462422,-43.5776207278054],[172.77107009826196,-43.5776280845224],[172.771059823304,-43.577645405133794],[172.771039534066,-43.5776846337481],[172.771030496229,-43.5777045430272],[172.771014708818,-43.577744860711],[172.771007959705,-43.5777652423468],[172.770996799589,-43.5778063702133],[172.77099238908,-43.5778270803184],[172.770988271393,-43.5778525902681],[172.770987230357,-43.5778590397035],[172.77097672480997,-43.5778525674112],[172.770646440025,-43.5776490832583],[172.770652205392,-43.5776449146058],[172.770658395418,-43.57764492687699],[172.77073598172697,-43.5775888279561],[172.77073601548497,-43.5775798275908],[172.770841532621,-43.5775035329746],[172.770841549492,-43.5774990327919],[172.770847756374,-43.5774945448703],[172.77084777324498,-43.5774900446876],[172.770850876685,-43.5774878007267],[172.770857066695,-43.5774878129873],[172.770860170135,-43.5774855690261],[172.770860187005,-43.5774810688434],[172.77086175923,-43.5774799320363],[172.771070136539,-43.5776178643606]]]]}}]}