{"type":"FeatureCollection","features":[{"type":"Feature","properties":{"gml_id":"vwRatingUnit.116026","RatingUnitID":116026,"ValuationVisitOrder":"15800","drvRatingUnitLocation":null,"StreetAddressID":142730,"OccupationLevelDescription":"Ground Floor and Above","StreetAddress":"24 Awatea Road","LocalityName":"Hornby","ValuationRollNumber":"23435"},"geometry":{"type":"MultiPolygon","coordinates":[[[[172.536417591388,-43.5533042895294],[172.536126899455,-43.5532277191826],[172.536107286828,-43.553224093871],[172.536464024383,-43.5529868805769],[172.536529550341,-43.5529433099461],[172.536567521871,-43.5529738406382],[172.536715336842,-43.553092697588596],[172.536417591388,-43.5533042895294]]]]}}]}