{"type":"FeatureCollection","features":[{"type":"Feature","properties":{"gml_id":"vwRatingUnit.117852","RatingUnitID":117852,"ValuationVisitOrder":"3200","drvRatingUnitLocation":null,"StreetAddressID":94022,"OccupationLevelDescription":"Ground Floor and Above","StreetAddress":"43 Wales Street","LocalityName":"Oaklands","ValuationRollNumber":"23444"},"geometry":{"type":"MultiPolygon","coordinates":[[[[172.56367671771497,-43.5790666258113],[172.563966240529,-43.5794673539627],[172.56378987505397,-43.5795347060148],[172.563645702121,-43.5793351451117],[172.56350036545,-43.57913397746759],[172.56367671771497,-43.5790666258113]]]]}}]}