{"type":"FeatureCollection","features":[{"type":"Feature","properties":{"gml_id":"vwRatingUnit.104030","RatingUnitID":104030,"ValuationVisitOrder":"27601","drvRatingUnitLocation":null,"StreetAddressID":87558,"OccupationLevelDescription":"Ground Floor and Above","StreetAddress":"4 Colenso Street","LocalityName":"Sumner","ValuationRollNumber":"22920"},"geometry":{"type":"MultiPolygon","coordinates":[[[[172.758944580112,-43.5732984416391],[172.75922093301898,-43.57346236679919],[172.759123053736,-43.5735492874042],[172.758927412853,-43.5735361980401],[172.75891683131,-43.5735354919436],[172.758944580112,-43.5732984416391]]]]}}]}