{"type":"FeatureCollection","features":[{"type":"Feature","properties":{"gml_id":"vwRatingUnit.105631","RatingUnitID":105631,"ValuationVisitOrder":"16000","drvRatingUnitLocation":null,"StreetAddressID":76855,"OccupationLevelDescription":"Ground Floor and Above","StreetAddress":"31 Mathers Road","LocalityName":"Hoon Hay","ValuationRollNumber":"22952"},"geometry":{"type":"MultiPolygon","coordinates":[[[[172.597584769276,-43.5592516064892],[172.59799135102196,-43.559613397191],[172.597822761757,-43.5597135364841],[172.597432865296,-43.5593665916995],[172.597416180329,-43.5593517451946],[172.597584769276,-43.5592516064892]]]]}}]}