{"type":"FeatureCollection","features":[{"type":"Feature","properties":{"gml_id":"vwRatingUnit.106819","RatingUnitID":106819,"ValuationVisitOrder":"59906","drvRatingUnitLocation":null,"StreetAddressID":20895,"OccupationLevelDescription":"Ground Floor and Above","StreetAddress":"159 Cashmere Road","LocalityName":"Hoon Hay Valley","ValuationRollNumber":"22960"},"geometry":{"type":"MultiPolygon","coordinates":[[[[172.616145852644,-43.5740761748428],[172.616048298091,-43.5743480670224],[172.615796830367,-43.5743003908747],[172.615867117111,-43.5741046169344],[172.616145852644,-43.5740761748428]]]]}}]}