{"type":"FeatureCollection","features":[{"type":"Feature","properties":{"gml_id":"vwRatingUnit.116964","RatingUnitID":116964,"ValuationVisitOrder":"77805","drvRatingUnitLocation":null,"StreetAddressID":28849,"OccupationLevelDescription":"Ground Floor and Above","StreetAddress":"1 Viceroy Place","LocalityName":"Wentworth Park","ValuationRollNumber":"23441"},"geometry":{"type":"MultiPolygon","coordinates":[[[[172.549905926318,-43.5730019336201],[172.550238370695,-43.5730287118173],[172.550249612019,-43.5730303127932],[172.550263187763,-43.57303431708329],[172.550275275372,-43.573040349749],[172.550285307455,-43.57304812955349],[172.55029280394,-43.5730572855927],[172.550297446081,-43.5730673935868],[172.550298989675,-43.5730779935434],[172.550280542866,-43.5732040767779],[172.549879133201,-43.5731768855609],[172.549905926318,-43.5730019336201]]]]}}]}