{"type":"FeatureCollection","features":[{"type":"Feature","properties":{"gml_id":"vwRatingUnit.118157","RatingUnitID":118157,"ValuationVisitOrder":"35800","drvRatingUnitLocation":null,"StreetAddressID":118720,"OccupationLevelDescription":"Ground Floor and Above","StreetAddress":"71 Wales Street","LocalityName":"Oaklands","ValuationRollNumber":"23444"},"geometry":{"type":"MultiPolygon","coordinates":[[[[172.56113726829497,-43.5799505175532],[172.561352709369,-43.5802486769007],[172.561136647018,-43.58033120230069],[172.560980262088,-43.5800041228144],[172.561008892783,-43.5799964550963],[172.56104192529,-43.5799861578948],[172.561074174354,-43.579974615598594],[172.56113726829497,-43.5799505175532]]]]}}]}