{"type":"FeatureCollection","features":[{"type":"Feature","properties":{"gml_id":"vwRatingUnit.11135","RatingUnitID":11135,"ValuationVisitOrder":"8900","drvRatingUnitLocation":null,"StreetAddressID":73183,"OccupationLevelDescription":"Ground Floor and Above","StreetAddress":"3/21 Bowen Street","LocalityName":"Upper Riccarton","ValuationRollNumber":"21896"},"geometry":{"type":"MultiPolygon","coordinates":[[[[172.571094271382,-43.5298661699579],[172.571322802886,-43.52993863495139],[172.571273860947,-43.53002338239439],[172.571044313368,-43.5299526812276],[172.571094271382,-43.5298661699579]]]]}}]}