{"type":"FeatureCollection","features":[{"type":"Feature","properties":{"gml_id":"vwRatingUnit.107666","RatingUnitID":107666,"ValuationVisitOrder":"4500","drvRatingUnitLocation":null,"StreetAddressID":98253,"OccupationLevelDescription":"Ground Floor and Above","StreetAddress":"48 Tankerville Road","LocalityName":"Hoon Hay","ValuationRollNumber":"22980"},"geometry":{"type":"MultiPolygon","coordinates":[[[[172.592731954402,-43.558584563500894],[172.592860517622,-43.5587022075912],[172.59239060525,-43.5589737108395],[172.592280642337,-43.5588730624561],[172.59226207942,-43.55885607536279],[172.592384984314,-43.5587850620325],[172.592731954402,-43.558584563500894]]]]}}]}