{"type":"FeatureCollection","features":[{"type":"Feature","properties":{"gml_id":"vwRatingUnit.101334","RatingUnitID":101334,"ValuationVisitOrder":"3100","drvRatingUnitLocation":null,"StreetAddressID":85262,"OccupationLevelDescription":"Ground Floor and Above","StreetAddress":"38 Main Road","LocalityName":"St Andrews Hill","ValuationRollNumber":"22901"},"geometry":{"type":"MultiPolygon","coordinates":[[[[172.713165905258,-43.55637798907869],[172.713170413813,-43.5566879801249],[172.71316235565797,-43.5567620168388],[172.71315752655997,-43.5567915087261],[172.713158392951,-43.5568125632248],[172.713164451675,-43.5568348097007],[172.713203167454,-43.556905173384],[172.712967754107,-43.556888576257],[172.712942503185,-43.5567367457607],[172.712983119278,-43.5566608368893],[172.712947808318,-43.556448146472],[172.712982265253,-43.5564318691025],[172.713165905258,-43.55637798907869]]]]}}]}