{"type":"FeatureCollection","features":[{"type":"Feature","properties":{"gml_id":"vwRatingUnit.105556","RatingUnitID":105556,"ValuationVisitOrder":"9200","drvRatingUnitLocation":null,"StreetAddressID":26515,"OccupationLevelDescription":"Ground Floor and Above","StreetAddress":"13 Cedars Street","LocalityName":"Hoon Hay","ValuationRollNumber":"22952"},"geometry":{"type":"MultiPolygon","coordinates":[[[[172.599869183918,-43.5595031642183],[172.599884786465,-43.5595170795256],[172.600057904322,-43.5596714040294],[172.600076903185,-43.5596883373414],[172.599863897987,-43.55981467965929],[172.599625904563,-43.5599558580354],[172.599418496686,-43.5597704511705],[172.59939457583,-43.5597491622836],[172.599447347956,-43.559753369005],[172.599869183918,-43.5595031642183]]]]}}]}