{"type":"FeatureCollection","features":[{"type":"Feature","properties":{"gml_id":"vwRatingUnit.104483","RatingUnitID":104483,"ValuationVisitOrder":"65600","drvRatingUnitLocation":null,"StreetAddressID":90180,"OccupationLevelDescription":"Ground Floor and Above","StreetAddress":"4/59 Nayland Street","LocalityName":"Sumner","ValuationRollNumber":"22920"},"geometry":{"type":"MultiPolygon","coordinates":[[[[172.760536732709,-43.5698272035622],[172.760634330894,-43.5697402179479],[172.760638191661,-43.5697367769902],[172.760644024632,-43.56974023801989],[172.76076945468398,-43.569814667544],[172.76077326203,-43.5698169267284],[172.760796233782,-43.569830557989],[172.760801578192,-43.569833728984094],[172.760831071951,-43.56985123021699],[172.76082499400997,-43.56985664993589],[172.760739795457,-43.5699326216505],[172.76072845811396,-43.5699427308776],[172.760725279718,-43.5699455650353],[172.760536732709,-43.5698272035622]]]]}}]}