{"type":"FeatureCollection","features":[{"type":"Feature","properties":{"gml_id":"vwRatingUnit.100988","RatingUnitID":100988,"ValuationVisitOrder":"48803","drvRatingUnitLocation":null,"StreetAddressID":17156,"OccupationLevelDescription":"Ground Floor and Above","StreetAddress":"17 Augusta Street","LocalityName":"Redcliffs","ValuationRollNumber":"22900"},"geometry":{"type":"MultiPolygon","coordinates":[[[[172.737520725054,-43.5631842152682],[172.737859515349,-43.5634466837511],[172.737852535498,-43.5634810588999],[172.73770279042,-43.5635310048815],[172.737579759988,-43.5635222829652],[172.73732331013,-43.563318855342],[172.737520725054,-43.5631842152682]]]]}}]}