{"type":"FeatureCollection","features":[{"type":"Feature","properties":{"gml_id":"vwRatingUnit.111984","RatingUnitID":111984,"ValuationVisitOrder":"7100","drvRatingUnitLocation":null,"StreetAddressID":99538,"OccupationLevelDescription":"Ground Floor and Above","StreetAddress":"5 Ariki Place","LocalityName":"Hei Hei","ValuationRollNumber":"23421"},"geometry":{"type":"MultiPolygon","coordinates":[[[[172.529760316986,-43.5318107582605],[172.529951610682,-43.53186909168209],[172.52976794863,-43.5321879107257],[172.529576654102,-43.5321295770103],[172.529760316986,-43.5318107582605]]]]}}]}