{"type":"FeatureCollection","features":[{"type":"Feature","properties":{"gml_id":"vwRatingUnit.104691","RatingUnitID":104691,"ValuationVisitOrder":"400","drvRatingUnitLocation":null,"StreetAddressID":105277,"OccupationLevelDescription":"Ground Floor and Above","StreetAddress":"54 Taylors Mistake Road","LocalityName":"Scarborough","ValuationRollNumber":"22931"},"geometry":{"type":"MultiPolygon","coordinates":[[[[172.773058559777,-43.5739277897162],[172.773331577099,-43.5741040496605],[172.77327925078598,-43.5741436930354],[172.773132329785,-43.5743643296945],[172.772792981116,-43.5741452409323],[172.772907467789,-43.5740514921971],[172.773058559777,-43.5739277897162]]]]}}]}