{"type":"FeatureCollection","features":[{"type":"Feature","properties":{"gml_id":"vwRatingUnit.112954","RatingUnitID":112954,"ValuationVisitOrder":"18001","drvRatingUnitLocation":null,"StreetAddressID":51128,"OccupationLevelDescription":"Ground Floor and Above","StreetAddress":"129E Waterloo Road","LocalityName":"Sockburn","ValuationRollNumber":"23422"},"geometry":{"type":"MultiPolygon","coordinates":[[[[172.533670018001,-43.5384011021849],[172.533669970745,-43.538434783416],[172.533639076091,-43.5384347932861],[172.5336391612,-43.5384042535274],[172.533670018001,-43.5384011021849]]]]}}]}