{"type":"FeatureCollection","features":[{"type":"Feature","properties":{"gml_id":"vwRatingUnit.105969","RatingUnitID":105969,"ValuationVisitOrder":"50400","drvRatingUnitLocation":null,"StreetAddressID":85499,"OccupationLevelDescription":"Ground Floor and Above","StreetAddress":"38 Victors Road","LocalityName":"Hoon Hay","ValuationRollNumber":"22952"},"geometry":{"type":"MultiPolygon","coordinates":[[[[172.597703985574,-43.5648333561096],[172.597721651955,-43.564849781083296],[172.597829741534,-43.56495032732119],[172.59733933213,-43.5652291056853],[172.597213588901,-43.565112133987796],[172.597703985574,-43.5648333561096]]]]}}]}