{"type":"FeatureCollection","features":[{"type":"Feature","properties":{"gml_id":"vwRatingUnit.113170","RatingUnitID":113170,"ValuationVisitOrder":"12300","drvRatingUnitLocation":null,"StreetAddressID":60995,"OccupationLevelDescription":"Ground Floor and Above","StreetAddress":"23B Wilson Street","LocalityName":"Islington","ValuationRollNumber":"23431"},"geometry":{"type":"MultiPolygon","coordinates":[[[[172.505852787245,-43.53932738495929],[172.505870582025,-43.5393554817839],[172.50569762424,-43.5394114594028],[172.50576905722298,-43.5395259070816],[172.505545068566,-43.5396009981298],[172.505489789102,-43.5395136764084],[172.50545603492,-43.5394603807454],[172.505852787245,-43.53932738495929]]]]}}]}