{"type":"FeatureCollection","features":[{"type":"Feature","properties":{"gml_id":"vwRatingUnit.101576","RatingUnitID":101576,"ValuationVisitOrder":"31400","drvRatingUnitLocation":null,"StreetAddressID":83025,"OccupationLevelDescription":"Ground Floor and Above","StreetAddress":"36 Marama Crescent","LocalityName":"St Andrews Hill","ValuationRollNumber":"22901"},"geometry":{"type":"MultiPolygon","coordinates":[[[[172.715559270465,-43.5594201902009],[172.715633313172,-43.5594268349896],[172.715720377738,-43.559536766266596],[172.715655720332,-43.5599145587267],[172.715494371706,-43.5599000393893],[172.71540856329,-43.5598923124528],[172.71548861141,-43.55942578546999],[172.715559270465,-43.5594201902009]]]]}}]}