{"type":"FeatureCollection","features":[{"type":"Feature","properties":{"gml_id":"vwRatingUnit.107718","RatingUnitID":107718,"ValuationVisitOrder":"9500","drvRatingUnitLocation":null,"StreetAddressID":122698,"OccupationLevelDescription":"Ground Floor and Above","StreetAddress":"8 Hussar Place","LocalityName":"Hoon Hay","ValuationRollNumber":"22980"},"geometry":{"type":"MultiPolygon","coordinates":[[[[172.592604035761,-43.55981789946309],[172.592765670348,-43.5599655339793],[172.592617101578,-43.5600539094846],[172.592542990935,-43.5600980032726],[172.592336774975,-43.5599095993722],[172.592414766279,-43.559864493351],[172.592422628882,-43.5598602997971],[172.592435810855,-43.5598546579272],[172.592449851072,-43.5598502341926],[172.592464526332,-43.5598470908091],[172.592479613436,-43.5598452899926],[172.592512875957,-43.5598444265006],[172.592530574466,-43.55984264390959],[172.592547922948,-43.559839527966695],[172.592564710881,-43.559835095929195],[172.592580776947,-43.5598294102327],[172.592595922758,-43.559822524180596],[172.592604035761,-43.55981789946309]]]]}}]}