{"type":"FeatureCollection","features":[{"type":"Feature","properties":{"gml_id":"vwRatingUnit.117859","RatingUnitID":117859,"ValuationVisitOrder":"3900","drvRatingUnitLocation":null,"StreetAddressID":53985,"OccupationLevelDescription":"Ground Floor and Above","StreetAddress":"20 Nicholls Road","LocalityName":"Halswell","ValuationRollNumber":"23444"},"geometry":{"type":"MultiPolygon","coordinates":[[[[172.564318982746,-43.5793326400999],[172.56460852344,-43.579733366607],[172.56443214554,-43.579800719591695],[172.564142618057,-43.5793999926886],[172.564318982746,-43.5793326400999]]]]}}]}