{"type":"FeatureCollection","features":[{"type":"Feature","properties":{"gml_id":"vwRatingUnit.114710","RatingUnitID":114710,"ValuationVisitOrder":"51900","drvRatingUnitLocation":null,"StreetAddressID":79116,"OccupationLevelDescription":"Ground Floor and Above","StreetAddress":"33 Branston Street","LocalityName":"Hornby","ValuationRollNumber":"23433"},"geometry":{"type":"MultiPolygon","coordinates":[[[[172.525387140674,-43.5497245902352],[172.525994588522,-43.5498237161574],[172.525992354198,-43.5498309616877],[172.525950435472,-43.5499668557724],[172.525342986262,-43.5498677296317],[172.525387140674,-43.5497245902352]]]]}}]}