{"type":"FeatureCollection","features":[{"type":"Feature","properties":{"gml_id":"vwRatingUnit.101971","RatingUnitID":101971,"ValuationVisitOrder":"77600","drvRatingUnitLocation":null,"StreetAddressID":99346,"OccupationLevelDescription":"Ground Floor and Above","StreetAddress":"4A Cannon Hill Crescent","LocalityName":"St Andrews Hill","ValuationRollNumber":"22901"},"geometry":{"type":"MultiPolygon","coordinates":[[[[172.70998580475,-43.5627196232302],[172.710488483672,-43.5629879582466],[172.71049342735697,-43.5630234148552],[172.709954368766,-43.5630630597892],[172.709954673657,-43.5627331448968],[172.70998580475,-43.5627196232302]]]]}}]}