{"type":"FeatureCollection","features":[{"type":"Feature","properties":{"gml_id":"vwRatingUnit.116747","RatingUnitID":116747,"ValuationVisitOrder":"62100","drvRatingUnitLocation":null,"StreetAddressID":12769,"OccupationLevelDescription":"Ground Floor and Above","StreetAddress":"19 Ridder Place","LocalityName":"Oaklands","ValuationRollNumber":"23441"},"geometry":{"type":"MultiPolygon","coordinates":[[[[172.554838719277,-43.5752951725312],[172.555113329164,-43.5753893811185],[172.55557267027,-43.575717286158],[172.555544862228,-43.5757226694892],[172.555131435522,-43.5754275242609],[172.554830356598,-43.5756081604707],[172.554622601423,-43.575423760512294],[172.554838719277,-43.5752951725312]]]]}}]}