{"type":"FeatureCollection","features":[{"type":"Feature","properties":{"gml_id":"vwRatingUnit.102012","RatingUnitID":102012,"ValuationVisitOrder":"81900","drvRatingUnitLocation":null,"StreetAddressID":20513,"OccupationLevelDescription":"Ground Floor and Above","StreetAddress":"155 Major Hornbrook Road","LocalityName":"Mt Pleasant","ValuationRollNumber":"22901"},"geometry":{"type":"MultiPolygon","coordinates":[[[[172.716414738515,-43.566564242832996],[172.716958784309,-43.5670138311536],[172.716692000284,-43.567184367499],[172.716511144167,-43.5670349108462],[172.71643559349997,-43.5669724776667],[172.71665739886097,-43.5668305613249],[172.71636987106498,-43.5665929524197],[172.716414738515,-43.566564242832996]]]]}}]}