{"type":"FeatureCollection","features":[{"type":"Feature","properties":{"gml_id":"vwRatingUnit.10838","RatingUnitID":10838,"ValuationVisitOrder":"55300","drvRatingUnitLocation":null,"StreetAddressID":125223,"OccupationLevelDescription":"Ground Floor and Above","StreetAddress":"83 Staveley Street","LocalityName":"Avonhead","ValuationRollNumber":"21895"},"geometry":{"type":"MultiPolygon","coordinates":[[[[172.553793577197,-43.5192419698353],[172.553988529139,-43.5192915649867],[172.553783431498,-43.5197189976607],[172.553588478348,-43.5196694021769],[172.553793577197,-43.5192419698353]]]]}}]}