{"type":"FeatureCollection","features":[{"type":"Feature","properties":{"gml_id":"vwRatingUnit.111967","RatingUnitID":111967,"ValuationVisitOrder":"5600","drvRatingUnitLocation":null,"StreetAddressID":123577,"OccupationLevelDescription":"Ground Floor and Above","StreetAddress":"8 Ariki Place","LocalityName":"Hei Hei","ValuationRollNumber":"23421"},"geometry":{"type":"MultiPolygon","coordinates":[[[[172.530645485973,-43.5319588443524],[172.530658280434,-43.5320881575873],[172.530660970677,-43.5321486296518],[172.530636133185,-43.5321482796529],[172.530631599927,-43.532165618165095],[172.530307878167,-43.5320669736093],[172.530315412607,-43.5320524858464],[172.530322146921,-43.5320358705967],[172.53032706519096,-43.5320189239019],[172.530330117172,-43.532001744567495],[172.530331314405,-43.531984440652],[172.53033076406,-43.5319707659833],[172.530645485973,-43.5319588443524]]]]}}]}