{"type":"FeatureCollection","features":[{"type":"Feature","properties":{"gml_id":"vwRatingUnit.110564","RatingUnitID":110564,"ValuationVisitOrder":"23000","drvRatingUnitLocation":null,"StreetAddressID":9018,"OccupationLevelDescription":"Ground Floor and Above","StreetAddress":"2/1 Iona Place","LocalityName":"Upper Riccarton","ValuationRollNumber":"23414"},"geometry":{"type":"MultiPolygon","coordinates":[[[[172.55553664507,-43.528136284431],[172.555779494222,-43.5282105433513],[172.555704574842,-43.5283400523789],[172.555460319292,-43.5282679674859],[172.55553664507,-43.528136284431]]]]}}]}