{"type":"FeatureCollection","features":[{"type":"Feature","properties":{"gml_id":"vwRatingUnit.113687","RatingUnitID":113687,"ValuationVisitOrder":"10600","drvRatingUnitLocation":null,"StreetAddressID":109597,"OccupationLevelDescription":"Ground Floor and Above","StreetAddress":"6 Parker Street","LocalityName":"Islington","ValuationRollNumber":"23432"},"geometry":{"type":"MultiPolygon","coordinates":[[[[172.516544967006,-43.5439032936006],[172.51656149735396,-43.5439658564589],[172.516580550517,-43.5440379708902],[172.516092552441,-43.5441063265377],[172.516084167887,-43.54407764134069],[172.516056165122,-43.5439717177168],[172.516300560018,-43.5439375058914],[172.516544967006,-43.5439032936006]]]]}}]}