{"type":"FeatureCollection","features":[{"type":"Feature","properties":{"gml_id":"vwRatingUnit.115059","RatingUnitID":115059,"ValuationVisitOrder":"6600","drvRatingUnitLocation":null,"StreetAddressID":81691,"OccupationLevelDescription":"Ground Floor and Above","StreetAddress":"35 Garvins Road","LocalityName":"Hornby","ValuationRollNumber":"23434"},"geometry":{"type":"MultiPolygon","coordinates":[[[[172.54204362314798,-43.5453343841703],[172.542213851112,-43.54546651882149],[172.541850433484,-43.5457139660918],[172.541680242928,-43.5455818040573],[172.54204362314798,-43.5453343841703]]]]}}]}