{"type":"FeatureCollection","features":[{"type":"Feature","properties":{"gml_id":"vwRatingUnit.108146","RatingUnitID":108146,"ValuationVisitOrder":"42441","drvRatingUnitLocation":null,"StreetAddressID":118298,"OccupationLevelDescription":"Ground Floor and Above","StreetAddress":"70 Warren Crescent","LocalityName":"Hillmorton","ValuationRollNumber":"22980"},"geometry":{"type":"MultiPolygon","coordinates":[[[[172.581737155898,-43.5541105472442],[172.581785533932,-43.5544172267555],[172.581743900404,-43.5544210179925],[172.581670552019,-43.5544295815128],[172.581634069993,-43.5544347145279],[172.581570039632,-43.5544452199821],[172.581463663873,-43.5541285818701],[172.581737155898,-43.5541105472442]]]]}}]}