{"type":"FeatureCollection","features":[{"type":"Feature","properties":{"gml_id":"vwRatingUnit.118189","RatingUnitID":118189,"ValuationVisitOrder":"39000","drvRatingUnitLocation":null,"StreetAddressID":33268,"OccupationLevelDescription":"Ground Floor and Above","StreetAddress":"1/24 Oldham Crescent","LocalityName":"Oaklands","ValuationRollNumber":"23444"},"geometry":{"type":"MultiPolygon","coordinates":[[[[172.558452408891,-43.5785760675891],[172.55827279265398,-43.5785410179102],[172.558272650918,-43.5785409903364],[172.558203924904,-43.5785275793917],[172.558222264286,-43.5784672363703],[172.55823295699298,-43.5784063060278],[172.55851802558496,-43.5784234969507],[172.558452408891,-43.5785760675891]]]]}}]}