{"type":"FeatureCollection","features":[{"type":"Feature","properties":{"gml_id":"vwRatingUnit.113120","RatingUnitID":113120,"ValuationVisitOrder":"9000","drvRatingUnitLocation":null,"StreetAddressID":63395,"OccupationLevelDescription":"Ground Floor and Above","StreetAddress":"25 Mortlake Street","LocalityName":"Islington","ValuationRollNumber":"23431"},"geometry":{"type":"MultiPolygon","coordinates":[[[[172.507079385345,-43.5388839813356],[172.507183534422,-43.5390484336897],[172.50673134165498,-43.539200071509],[172.506628256311,-43.5390373064792],[172.50662719353,-43.539035618745096],[172.507079385345,-43.5388839813356]]]]}}]}