{"type":"FeatureCollection","features":[{"type":"Feature","properties":{"gml_id":"vwRatingUnit.111651","RatingUnitID":111651,"ValuationVisitOrder":"74300","drvRatingUnitLocation":null,"StreetAddressID":71357,"OccupationLevelDescription":"Ground Floor and Above","StreetAddress":"3 Kinross Street","LocalityName":"Riccarton Park","ValuationRollNumber":"23415"},"geometry":{"type":"MultiPolygon","coordinates":[[[[172.537060953735,-43.5325369909968],[172.537142154524,-43.532395940065],[172.537535929569,-43.5324916006099],[172.537506438925,-43.532553192438094],[172.537488746281,-43.5325876308802],[172.537451138705,-43.5326558957632],[172.537240308801,-43.5325916457894],[172.537060953735,-43.5325369909968]]]]}}]}