{"type":"FeatureCollection","features":[{"type":"Feature","properties":{"gml_id":"vwRatingUnit.108297","RatingUnitID":108297,"ValuationVisitOrder":"53100","drvRatingUnitLocation":null,"StreetAddressID":25104,"OccupationLevelDescription":"Ground Floor and Above","StreetAddress":"139 Warren Crescent","LocalityName":"Hillmorton","ValuationRollNumber":"22980"},"geometry":{"type":"MultiPolygon","coordinates":[[[[172.582409899219,-43.55912412829299],[172.58255106927498,-43.5592506595335],[172.58216451230197,-43.5594789856968],[172.582023342508,-43.5593524539884],[172.582409899219,-43.55912412829299]]]]}}]}