{"type":"FeatureCollection","features":[{"type":"Feature","properties":{"gml_id":"vwRatingUnit.104735","RatingUnitID":104735,"ValuationVisitOrder":"6100","drvRatingUnitLocation":null,"StreetAddressID":49813,"OccupationLevelDescription":"Ground Floor and Above","StreetAddress":"121 Scarborough Road","LocalityName":"Scarborough","ValuationRollNumber":"22931"},"geometry":{"type":"MultiPolygon","coordinates":[[[[172.772025694185,-43.5736567352422],[172.771953278199,-43.57361941165039],[172.77197454834598,-43.5735988425782],[172.77207085137997,-43.5733719782689],[172.772126982236,-43.5732748301026],[172.772092070706,-43.5732455008708],[172.772107815871,-43.5732126352813],[172.772047857653,-43.57318425572569],[172.771730631122,-43.5730341146495],[172.771843437586,-43.57287304030779],[172.771866648449,-43.5728399014617],[172.772240083342,-43.5729913499507],[172.772120322428,-43.5732415693463],[172.772158405482,-43.5732735689487],[172.772097477712,-43.573379015085],[172.771996641284,-43.5736165450016],[172.772045235743,-43.573641590016],[172.772025694185,-43.5736567352422]]]]}}]}