{"type":"FeatureCollection","features":[{"type":"Feature","properties":{"gml_id":"vwRatingUnit.112115","RatingUnitID":112115,"ValuationVisitOrder":"17700","drvRatingUnitLocation":null,"StreetAddressID":142951,"OccupationLevelDescription":"Ground Floor and Above","StreetAddress":"180 Waterloo Road","LocalityName":"Hornby","ValuationRollNumber":"23421"},"geometry":{"type":"MultiPolygon","coordinates":[[[[172.524682609205,-43.5385937360928],[172.524668636633,-43.5374816673587],[172.524419799931,-43.537405643882195],[172.524554412264,-43.5371724456652],[172.524679391584,-43.536955922248],[172.52476611775998,-43.5368056766763],[172.524408332753,-43.5366979340649],[172.524411126519,-43.5366934811431],[172.524417330251,-43.536676954053],[172.524777781532,-43.5367854727245],[172.524949426538,-43.53648810623],[172.525182207251,-43.5360850956571],[172.525336878468,-43.5358173166409],[172.525480048039,-43.5355694630775],[172.525504528311,-43.53552707056989],[172.52565503303,-43.5352665106955],[172.525829614874,-43.5349642674554],[172.525878085209,-43.534880344354],[172.52614721849798,-43.5349528300082],[172.526171454403,-43.53517263362439],[172.526188664203,-43.535328618671],[172.526294275543,-43.5353265870782],[172.526279999955,-43.5354043864192],[172.526517853032,-43.53539165659589],[172.526850874366,-43.5353738359306],[172.5271125286,-43.5353598255674],[172.52715582642398,-43.5356986095387],[172.52717899155,-43.5358799114649],[172.52760790834,-43.5358625634347],[172.527773933005,-43.5358558458662],[172.527778848294,-43.5358553889806],[172.527991913012,-43.5358357406999],[172.528273630209,-43.5358097576959],[172.528357090445,-43.53580206184909],[172.528498117733,-43.53586963350379],[172.528462050675,-43.535911511111],[172.528336258714,-43.53605757590929],[172.528328243805,-43.5360668770334],[172.52836931588897,-43.5362432925166],[172.528273042873,-43.536410198316595],[172.528842681281,-43.5365919016727],[172.528899676223,-43.536610073778],[172.527919111121,-43.5383099682876],[172.527908743773,-43.5383242282452],[172.527895060264,-43.5383369264441],[172.527878496829,-43.5383476506296],[172.52785957568196,-43.5383560699079],[172.527838905157,-43.5383619167449],[172.527816783515,-43.5383650213456],[172.524682609205,-43.5385937360928]]]]}}]}