{"type":"FeatureCollection","features":[{"type":"Feature","properties":{"gml_id":"vwRatingUnit.111324","RatingUnitID":111324,"ValuationVisitOrder":"47100","drvRatingUnitLocation":null,"StreetAddressID":122319,"OccupationLevelDescription":"Ground Floor and Above","StreetAddress":"8 Coronado Place","LocalityName":"Masham","ValuationRollNumber":"23415"},"geometry":{"type":"MultiPolygon","coordinates":[[[[172.535240907459,-43.5214992461777],[172.53519935767,-43.5215708339137],[172.53508524841598,-43.5217674847029],[172.534728105752,-43.52166105363969],[172.53474273117797,-43.5216523008572],[172.534765601688,-43.5216409891432],[172.534773977464,-43.5216358924721],[172.534781837043,-43.5216303616671],[172.534795783869,-43.5216181407658],[172.53480182116,-43.5216115134746],[172.53481182429,-43.5215973954237],[172.534818915231,-43.521582365500194],[172.53482263435,-43.5215683030455],[172.535240907459,-43.5214992461777]]]]}}]}