{"type":"FeatureCollection","features":[{"type":"Feature","properties":{"gml_id":"vwRatingUnit.109849","RatingUnitID":109849,"ValuationVisitOrder":"37900","drvRatingUnitLocation":null,"StreetAddressID":111572,"OccupationLevelDescription":"Ground Floor and Above","StreetAddress":"61 Gladson Avenue","LocalityName":"Upper Riccarton","ValuationRollNumber":"23413"},"geometry":{"type":"MultiPolygon","coordinates":[[[[172.558012390351,-43.53110342422319],[172.558384620527,-43.53112803042],[172.558362221628,-43.5313083583147],[172.55799002773097,-43.5312837161951],[172.558002746414,-43.5311811638862],[172.558012390351,-43.53110342422319]]]]}}]}