{"type":"FeatureCollection","features":[{"type":"Feature","properties":{"gml_id":"vwRatingUnit.112807","RatingUnitID":112807,"ValuationVisitOrder":"109","drvRatingUnitLocation":null,"StreetAddressID":121941,"OccupationLevelDescription":"Ground Floor and Above","StreetAddress":"3/7B Buchanans Road","LocalityName":"Hornby","ValuationRollNumber":"23422"},"geometry":{"type":"MultiPolygon","coordinates":[[[[172.545102237728,-43.53592803217159],[172.545104386245,-43.5359314852636],[172.545107127774,-43.535932319528],[172.544936998461,-43.536058833928294],[172.544910033846,-43.5360506180972],[172.544887142179,-43.53598970850759],[172.544883755119,-43.5359806958389],[172.545102237728,-43.53592803217159]]]]}}]}