{"type":"FeatureCollection","features":[{"type":"Feature","properties":{"gml_id":"vwRatingUnit.109777","RatingUnitID":109777,"ValuationVisitOrder":"28800","drvRatingUnitLocation":null,"StreetAddressID":105671,"OccupationLevelDescription":"Ground Floor and Above","StreetAddress":"55 English Street","LocalityName":"Upper Riccarton","ValuationRollNumber":"23413"},"geometry":{"type":"MultiPolygon","coordinates":[[[[172.560831483685,-43.5304598785911],[172.561280743654,-43.5305981715527],[172.56120652672297,-43.53072581821229],[172.560757303541,-43.530587462109196],[172.560831483685,-43.5304598785911]]]]}}]}