{"type":"FeatureCollection","features":[{"type":"Feature","properties":{"gml_id":"vwRatingUnit.105838","RatingUnitID":105838,"ValuationVisitOrder":"34900","drvRatingUnitLocation":null,"StreetAddressID":127655,"OccupationLevelDescription":"Ground Floor and Above","StreetAddress":"9 Copenhagen Place","LocalityName":"Hoon Hay","ValuationRollNumber":"22952"},"geometry":{"type":"MultiPolygon","coordinates":[[[[172.600048369561,-43.56411841103089],[172.600235273556,-43.56440178098379],[172.600306831035,-43.564465808087995],[172.600298691495,-43.56447070329029],[172.600286203299,-43.5644799937849],[172.600275132619,-43.5644901892624],[172.600265591621,-43.56450117310239],[172.600257692528,-43.56451281968359],[172.60025151037297,-43.5645250122571],[172.60025028669196,-43.5645285273034],[172.600106636102,-43.5645331958677],[172.599892609902,-43.564208688025],[172.59993694232,-43.5641829917505],[172.600048369561,-43.56411841103089]]]]}}]}