{"type":"FeatureCollection","features":[{"type":"Feature","properties":{"gml_id":"vwRatingUnit.112295","RatingUnitID":112295,"ValuationVisitOrder":"33000","drvRatingUnitLocation":null,"StreetAddressID":49989,"OccupationLevelDescription":"Ground Floor and Above","StreetAddress":"122 Gilberthorpes Road","LocalityName":"Hei Hei","ValuationRollNumber":"23421"},"geometry":{"type":"MultiPolygon","coordinates":[[[[172.521246993623,-43.5309574017107],[172.521364612429,-43.5307532019267],[172.521365001769,-43.5307525259345],[172.521367255566,-43.5307532129194],[172.521542934606,-43.53080677249209],[172.521432715479,-43.5309912376643],[172.52138823122797,-43.5309993396757],[172.521246993623,-43.5309574017107]]]]}}]}