{"type":"FeatureCollection","features":[{"type":"Feature","properties":{"gml_id":"vwRatingUnit.112315","RatingUnitID":112315,"ValuationVisitOrder":"34900","drvRatingUnitLocation":null,"StreetAddressID":162805,"OccupationLevelDescription":"Ground Floor and Above","StreetAddress":"82 Gilberthorpes Road","LocalityName":"Hei Hei","ValuationRollNumber":"23421"},"geometry":{"type":"MultiPolygon","coordinates":[[[[172.519623197771,-43.5337762411124],[172.519969024362,-43.5338816808821],[172.520224569055,-43.5339595874495],[172.52031179132797,-43.53398617974659],[172.520245563606,-43.534101142873794],[172.52022535138298,-43.5341362345367],[172.519958765098,-43.534050706102],[172.51999345805697,-43.5339870912625],[172.519956005976,-43.5339201596998],[172.519601956783,-43.53381311124999],[172.519623197771,-43.5337762411124]]]]}}]}