{"type":"FeatureCollection","features":[{"type":"Feature","properties":{"gml_id":"vwRatingUnit.118000","RatingUnitID":118000,"ValuationVisitOrder":"19700","drvRatingUnitLocation":null,"StreetAddressID":8387,"OccupationLevelDescription":"Ground Floor and Above","StreetAddress":"2 Santa Rosa Avenue","LocalityName":"Oaklands","ValuationRollNumber":"23444"},"geometry":{"type":"MultiPolygon","coordinates":[[[[172.563825641671,-43.5784197463884],[172.564072033691,-43.5787606992887],[172.56391970527596,-43.57881887156739],[172.56390939354,-43.578822126868296],[172.563897863724,-43.5788243154745],[172.563886021602,-43.5788251617862],[172.563874127422,-43.5788246307839],[172.563862502818,-43.578822759686595],[172.563851432352,-43.5788195765722],[172.56384118774997,-43.5788151724758],[172.563832015915,-43.57880964733939],[172.563824163493,-43.578803137107094],[172.563817802522,-43.5787958224446],[172.563662474956,-43.5785808550319],[172.56364218773598,-43.5785542080625],[172.56362028618597,-43.5785282390407],[172.56361414296597,-43.5785216452501],[172.563825641671,-43.5784197463884]]]]}}]}