{"type":"FeatureCollection","features":[{"type":"Feature","properties":{"gml_id":"vwRatingUnit.115724","RatingUnitID":115724,"ValuationVisitOrder":"68600","drvRatingUnitLocation":null,"StreetAddressID":102442,"OccupationLevelDescription":"Ground Floor and Above","StreetAddress":"50 Oakhampton Street","LocalityName":"Hornby","ValuationRollNumber":"23434"},"geometry":{"type":"MultiPolygon","coordinates":[[[[172.533317177459,-43.5467850142152],[172.53346028839198,-43.5469013004933],[172.533256970382,-43.5470347340632],[172.533136979068,-43.5471134736084],[172.532993917465,-43.5469972231374],[172.533317177459,-43.5467850142152]]]]}}]}