{"type":"FeatureCollection","features":[{"type":"Feature","properties":{"gml_id":"vwRatingUnit.103904","RatingUnitID":103904,"ValuationVisitOrder":"18001","drvRatingUnitLocation":null,"StreetAddressID":22823,"OccupationLevelDescription":"Ground Floor and Above","StreetAddress":"15 Whitfield Street","LocalityName":"Sumner","ValuationRollNumber":"22920"},"geometry":{"type":"MultiPolygon","coordinates":[[[[172.759866666889,-43.5757831092941],[172.760070177757,-43.5757674568593],[172.76011099876996,-43.57579144674099],[172.760141473832,-43.5759596294058],[172.75989528826597,-43.5759786405587],[172.759866666889,-43.5757831092941]]]]}}]}