{"type":"FeatureCollection","features":[{"type":"Feature","properties":{"gml_id":"vwRatingUnit.105187","RatingUnitID":105187,"ValuationVisitOrder":"18900","drvRatingUnitLocation":null,"StreetAddressID":121844,"OccupationLevelDescription":"Ground Floor and Above","StreetAddress":"7A McBeath Avenue","LocalityName":"Hoon Hay","ValuationRollNumber":"22951"},"geometry":{"type":"MultiPolygon","coordinates":[[[[172.609464900675,-43.5630499623692],[172.609554748907,-43.5631950430588],[172.60963097435098,-43.5633181428215],[172.609934447894,-43.5632115926246],[172.60999711015697,-43.5631349563168],[172.61001665608498,-43.5631462912884],[172.609951922924,-43.5632254678089],[172.609418727148,-43.5634123730836],[172.609235151993,-43.563138444593896],[172.60925844204,-43.5631294777497],[172.609464900675,-43.5630499623692]]]]}}]}