{"type":"FeatureCollection","features":[{"type":"Feature","properties":{"gml_id":"vwRatingUnit.103778","RatingUnitID":103778,"ValuationVisitOrder":"10601","drvRatingUnitLocation":null,"StreetAddressID":36234,"OccupationLevelDescription":"Ground Floor and Above","StreetAddress":"1/46 Heberden Avenue","LocalityName":"Sumner","ValuationRollNumber":"22920"},"geometry":{"type":"MultiPolygon","coordinates":[[[[172.763885572275,-43.5783364587285],[172.764077030647,-43.57836818744419],[172.764065277379,-43.578540712653],[172.764065087898,-43.5785434916917],[172.764048063589,-43.5785406775453],[172.76383962316598,-43.5785062228345],[172.763885572275,-43.5783364587285]]]]}}]}