{"type":"FeatureCollection","features":[{"type":"Feature","properties":{"gml_id":"vwRatingUnit.11593","RatingUnitID":11593,"ValuationVisitOrder":"50800","drvRatingUnitLocation":null,"StreetAddressID":55497,"OccupationLevelDescription":"Ground Floor and Above","StreetAddress":"21 Brodie Street","LocalityName":"Upper Riccarton","ValuationRollNumber":"21896"},"geometry":{"type":"MultiPolygon","coordinates":[[[[172.566098346142,-43.528061274445],[172.5663173103,-43.5281282293834],[172.566648911272,-43.5282296224707],[172.566567676178,-43.5283702703582],[172.566017109992,-43.5282019219589],[172.566098346142,-43.528061274445]]]]}}]}