{"type":"FeatureCollection","features":[{"type":"Feature","properties":{"gml_id":"vwRatingUnit.105444","RatingUnitID":105444,"ValuationVisitOrder":"100","drvRatingUnitLocation":null,"StreetAddressID":7331,"OccupationLevelDescription":"Ground Floor and Above","StreetAddress":"2/14 Kevin Street","LocalityName":"Hoon Hay","ValuationRollNumber":"22952"},"geometry":{"type":"MultiPolygon","coordinates":[[[[172.597019107078,-43.5618070337204],[172.59702207297,-43.56180527693379],[172.597024036909,-43.5618070509528],[172.597238462172,-43.5620007397421],[172.597237665573,-43.5620013134881],[172.597225288521,-43.5620012702466],[172.597153778738,-43.562052774664195],[172.597153749022,-43.5620572749321],[172.597075759453,-43.5621134462161],[172.596845286555,-43.5619102999903],[172.596845041213,-43.561910083736194],[172.596845288954,-43.5619099370738],[172.597009957692,-43.5618124531726],[172.597019107078,-43.5618070337204]]]]}}]}