{"type":"FeatureCollection","features":[{"type":"Feature","properties":{"gml_id":"vwRatingUnit.111994","RatingUnitID":111994,"ValuationVisitOrder":"8100","drvRatingUnitLocation":null,"StreetAddressID":62859,"OccupationLevelDescription":"Ground Floor and Above","StreetAddress":"25 Ariki Place","LocalityName":"Hei Hei","ValuationRollNumber":"23421"},"geometry":{"type":"MultiPolygon","coordinates":[[[[172.527625690477,-43.5315346078394],[172.527765660363,-43.5312916797465],[172.527773491025,-43.5312805417071],[172.52778188401297,-43.5312718722328],[172.527791742576,-43.5312640548597],[172.527802904778,-43.5312572329383],[172.527815171919,-43.5312515046633],[172.527828345228,-43.53124697722999],[172.527842226216,-43.5312437218316],[172.527856554747,-43.5312417824051],[172.52787110773,-43.531241212041],[172.527885650188,-43.5312420007742],[172.527899922405,-43.5312441385385],[172.527913701915,-43.5312475974184],[172.528035456657,-43.531284730621095],[172.527851761454,-43.5316035556201],[172.527625690477,-43.5315346078394]]]]}}]}