{"type":"FeatureCollection","features":[{"type":"Feature","properties":{"gml_id":"vwRatingUnit.102242","RatingUnitID":102242,"ValuationVisitOrder":"9900","drvRatingUnitLocation":null,"StreetAddressID":46293,"OccupationLevelDescription":"Ground Floor and Above","StreetAddress":"112 Soleares Avenue","LocalityName":"McCormacks Bay","ValuationRollNumber":"22902"},"geometry":{"type":"MultiPolygon","coordinates":[[[[172.720816996699,-43.56402241257209],[172.720839242125,-43.564029855787],[172.72087679437098,-43.5640409092053],[172.720915020848,-43.5640506861632],[172.720953822619,-43.5640591684197],[172.72099312554,-43.5640663287937],[172.72103284305,-43.56407214907439],[172.720964301653,-43.5643527104613],[172.720771993849,-43.5642872978006],[172.720669617722,-43.564252470173],[172.720816996699,-43.56402241257209]]]]}}]}