{"type":"FeatureCollection","features":[{"type":"Feature","properties":{"gml_id":"vwRatingUnit.104608","RatingUnitID":104608,"ValuationVisitOrder":"70800","drvRatingUnitLocation":null,"StreetAddressID":63944,"OccupationLevelDescription":"Ground Floor and Above","StreetAddress":"25/11 Marriner Street","LocalityName":"Sumner","ValuationRollNumber":"22920"},"geometry":{"type":"MultiPolygon","coordinates":[[[[172.758102936161,-43.5672013144752],[172.758106030647,-43.567201320952094],[172.758105861356,-43.5672440728775],[172.758099654558,-43.5672485601263],[172.758099618917,-43.5672575605316],[172.758093412118,-43.5672620477801],[172.758093376476,-43.5672710481853],[172.758087169676,-43.5672755354335],[172.758086911264,-43.5673407883706],[172.758046682853,-43.5673407041589],[172.758040476042,-43.5673451914046],[172.75803738154798,-43.567345184926],[172.758025003575,-43.5673451590109],[172.758025012488,-43.5673429089096],[172.758015755748,-43.5673361391686],[172.758009566762,-43.5673361262101],[172.758003395604,-43.5673316130486],[172.75800030111097,-43.5673316065691],[172.758000310025,-43.5673293564678],[172.757994138868,-43.5673248433058],[172.757994147782,-43.5673225932045],[172.757994156696,-43.5673203431032],[172.758043811168,-43.5672844451484],[172.758043828993,-43.5672799449457],[172.758050035797,-43.5672754576999],[172.758050071446,-43.5672664572947],[172.758056278248,-43.5672619700485],[172.758056296072,-43.5672574698458],[172.758062502873,-43.5672529825993],[172.758062520697,-43.56724848239659],[172.758068727496,-43.5672439951497],[172.75806874531898,-43.5672394949471],[172.758074952118,-43.5672350076999],[172.758074987763,-43.5672260072945],[172.758081194559,-43.567221520047],[172.758081212381,-43.5672170198443],[172.758102936161,-43.5672013144752]]]]}}]}