{"type":"FeatureCollection","features":[{"type":"Feature","properties":{"gml_id":"vwRatingUnit.105938","RatingUnitID":105938,"ValuationVisitOrder":"46500","drvRatingUnitLocation":null,"StreetAddressID":55960,"OccupationLevelDescription":"Ground Floor and Above","StreetAddress":"21 Marion Street","LocalityName":"Hoon Hay","ValuationRollNumber":"22952"},"geometry":{"type":"MultiPolygon","coordinates":[[[[172.599868173004,-43.5657228322301],[172.599886238087,-43.565738988219195],[172.59991033486,-43.5657583783937],[172.59993579946396,-43.5657768192312],[172.59996255792697,-43.5657942654706],[172.599975899743,-43.5658020883852],[172.599606293219,-43.56619196826689],[172.599500253217,-43.56603109002549],[172.599453214289,-43.5659597398737],[172.599868173004,-43.5657228322301]]]]}}]}