{"type":"FeatureCollection","features":[{"type":"Feature","properties":{"gml_id":"vwRatingUnit.114371","RatingUnitID":114371,"ValuationVisitOrder":"16001","drvRatingUnitLocation":null,"StreetAddressID":59103,"OccupationLevelDescription":"Ground Floor and Above","StreetAddress":"22A Brynley Street","LocalityName":"Hornby","ValuationRollNumber":"23433"},"geometry":{"type":"MultiPolygon","coordinates":[[[[172.528866334785,-43.5448984497839],[172.528900804329,-43.5449262505797],[172.52873541619,-43.5450347549025],[172.52864988204598,-43.545104215885],[172.528763805212,-43.5451960863007],[172.528561726582,-43.5453286436765],[172.528519177692,-43.5452943110529],[172.528404221932,-43.5452015810808],[172.528866334785,-43.5448984497839]]]]}}]}