{"type":"FeatureCollection","features":[{"type":"Feature","properties":{"gml_id":"vwRatingUnit.103573","RatingUnitID":103573,"ValuationVisitOrder":"94100","drvRatingUnitLocation":null,"StreetAddressID":139289,"OccupationLevelDescription":"Ground Floor and Above","StreetAddress":"23 Clifton Terrace","LocalityName":"Clifton","ValuationRollNumber":"22911"},"geometry":{"type":"MultiPolygon","coordinates":[[[[172.754033190014,-43.5667512937419],[172.754161647331,-43.5668192507455],[172.753881539896,-43.5669958921216],[172.753835885144,-43.567024686444],[172.753829053844,-43.5668892055623],[172.753859448569,-43.5668813858779],[172.753842763275,-43.5667953236805],[172.753977632335,-43.56672189689199],[172.754056243787,-43.566679095896],[172.754342193969,-43.5665234196533],[172.754360716203,-43.5665314424586],[172.75399438114198,-43.56673076202589],[172.754033190014,-43.5667512937419]]]]}}]}