{"type":"FeatureCollection","features":[{"type":"Feature","properties":{"gml_id":"vwRatingUnit.104805","RatingUnitID":104805,"ValuationVisitOrder":"16005","drvRatingUnitLocation":null,"StreetAddressID":61799,"OccupationLevelDescription":"Ground Floor and Above","StreetAddress":"24 Smugglers Cove","LocalityName":"Scarborough","ValuationRollNumber":"22931"},"geometry":{"type":"MultiPolygon","coordinates":[[[[172.77665132057,-43.5744177105935],[172.77676488557796,-43.5745476890513],[172.77639168631896,-43.574813479993196],[172.776250297086,-43.5745976822372],[172.776294863243,-43.5745841777835],[172.7762662881,-43.5745343321232],[172.77665132057,-43.5744177105935]]]]}}]}