{"type":"FeatureCollection","features":[{"type":"Feature","properties":{"gml_id":"vwRatingUnit.113225","RatingUnitID":113225,"ValuationVisitOrder":"17500","drvRatingUnitLocation":null,"StreetAddressID":118209,"OccupationLevelDescription":"Ground Floor and Above","StreetAddress":"70 Moffett Street","LocalityName":"Islington","ValuationRollNumber":"23431"},"geometry":{"type":"MultiPolygon","coordinates":[[[[172.50769988290398,-43.5377745317417],[172.5079296118,-43.53784420025449],[172.507690205813,-43.5382620094013],[172.507460475604,-43.5381923404284],[172.50769988290398,-43.5377745317417]]]]}}]}