{"type":"FeatureCollection","features":[{"type":"Feature","properties":{"gml_id":"vwRatingUnit.100600","RatingUnitID":100600,"ValuationVisitOrder":"26600","drvRatingUnitLocation":null,"StreetAddressID":139357,"OccupationLevelDescription":"Ground Floor and Above","StreetAddress":"23 Beachville Road","LocalityName":"Redcliffs","ValuationRollNumber":"22900"},"geometry":{"type":"MultiPolygon","coordinates":[[[[172.739068725218,-43.5601343577887],[172.739134850681,-43.5602132707895],[172.73877184703898,-43.5604611348457],[172.738705660387,-43.5603821044952],[172.738639473947,-43.560303065103],[172.739002563067,-43.5600553816597],[172.739068725218,-43.5601343577887]]]]}}]}