{"type":"FeatureCollection","features":[{"type":"Feature","properties":{"gml_id":"vwRatingUnit.113503","RatingUnitID":113503,"ValuationVisitOrder":"46300","drvRatingUnitLocation":null,"StreetAddressID":79633,"OccupationLevelDescription":"Ground Floor and Above","StreetAddress":"33 Skerten Avenue","LocalityName":"Hornby","ValuationRollNumber":"23431"},"geometry":{"type":"MultiPolygon","coordinates":[[[[172.516546641055,-43.5464170526282],[172.516679067471,-43.5465252414984],[172.516325821152,-43.5467539931505],[172.516193407301,-43.5466457949311],[172.516546641055,-43.5464170526282]]]]}}]}