{"type":"FeatureCollection","features":[{"type":"Feature","properties":{"gml_id":"vwRatingUnit.103348","RatingUnitID":103348,"ValuationVisitOrder":"73800","drvRatingUnitLocation":null,"StreetAddressID":88199,"OccupationLevelDescription":"Ground Floor and Above","StreetAddress":"4 Ocean View Terrace","LocalityName":"Sumner","ValuationRollNumber":"22911"},"geometry":{"type":"MultiPolygon","coordinates":[[[[172.75748592489896,-43.5820162712169],[172.757526435686,-43.58215361281739],[172.75720030188,-43.5823820621043],[172.757080901646,-43.582312661123396],[172.75713015211798,-43.5822725595471],[172.756902330536,-43.5820818388282],[172.756964281583,-43.5820672352497],[172.757335981758,-43.5820589609485],[172.75748592489896,-43.5820162712169]]]]}}]}