{"type":"FeatureCollection","features":[{"type":"Feature","properties":{"gml_id":"vwRatingUnit.113022","RatingUnitID":113022,"ValuationVisitOrder":"1100","drvRatingUnitLocation":null,"StreetAddressID":84203,"OccupationLevelDescription":"Ground Floor and Above","StreetAddress":"37 Moffett Street","LocalityName":"Islington","ValuationRollNumber":"23431"},"geometry":{"type":"MultiPolygon","coordinates":[[[[172.511871664332,-43.5397261237008],[172.512112909029,-43.53979927086479],[172.511933419936,-43.5401122921851],[172.511731487112,-43.53997069715489],[172.511871664332,-43.5397261237008]]]]}}]}