{"type":"FeatureCollection","features":[{"type":"Feature","properties":{"gml_id":"vwRatingUnit.115807","RatingUnitID":115807,"ValuationVisitOrder":"75700","drvRatingUnitLocation":null,"StreetAddressID":131257,"OccupationLevelDescription":"Ground Floor and Above","StreetAddress":"95 Brynley Street","LocalityName":"Hornby","ValuationRollNumber":"23434"},"geometry":{"type":"MultiPolygon","coordinates":[[[[172.534430483499,-43.5485846483513],[172.534558196632,-43.5486876485892],[172.534194922187,-43.5489259187271],[172.53406720916,-43.5488229180921],[172.534430483499,-43.5485846483513]]]]}}]}