{"type":"FeatureCollection","features":[{"type":"Feature","properties":{"gml_id":"vwRatingUnit.10886","RatingUnitID":10886,"ValuationVisitOrder":"59500","drvRatingUnitLocation":null,"StreetAddressID":30236,"OccupationLevelDescription":"Ground Floor and Above","StreetAddress":"1/12 Bevington Street","LocalityName":"Avonhead","ValuationRollNumber":"21895"},"geometry":{"type":"MultiPolygon","coordinates":[[[[172.555552737521,-43.52069413251439],[172.555739956536,-43.520743364288],[172.555638672471,-43.5209541575705],[172.555450763365,-43.5209063477231],[172.555552737521,-43.52069413251439]]]]}}]}