{"type":"FeatureCollection","features":[{"type":"Feature","properties":{"gml_id":"vwRatingUnit.103513","RatingUnitID":103513,"ValuationVisitOrder":"88400","drvRatingUnitLocation":null,"StreetAddressID":46684,"OccupationLevelDescription":"Ground Floor and Above","StreetAddress":"114 Wakefield Avenue","LocalityName":"Sumner","ValuationRollNumber":"22911"},"geometry":{"type":"MultiPolygon","coordinates":[[[[172.755427654568,-43.5801086146561],[172.755924011136,-43.5801388783945],[172.755908125318,-43.5802756336706],[172.755411755514,-43.5802453068452],[172.755427654568,-43.5801086146561]]]]}}]}