{"type":"FeatureCollection","features":[{"type":"Feature","properties":{"gml_id":"vwRatingUnit.116864","RatingUnitID":116864,"ValuationVisitOrder":"73700","drvRatingUnitLocation":null,"StreetAddressID":42342,"OccupationLevelDescription":"Ground Floor and Above","StreetAddress":"103 Patterson Terrace","LocalityName":"Oaklands","ValuationRollNumber":"23441"},"geometry":{"type":"MultiPolygon","coordinates":[[[[172.55327586628997,-43.57365503727599],[172.553604595196,-43.57385862979729],[172.553460086073,-43.5739819842646],[172.55313136935297,-43.5737783913872],[172.553159386823,-43.5737544678283],[172.55327586628997,-43.57365503727599]]]]}}]}