{"type":"FeatureCollection","features":[{"type":"Feature","properties":{"gml_id":"vwRatingUnit.114332","RatingUnitID":114332,"ValuationVisitOrder":"12300","drvRatingUnitLocation":null,"StreetAddressID":114626,"OccupationLevelDescription":"Ground Floor and Above","StreetAddress":"67 Trevor Street","LocalityName":"Hornby","ValuationRollNumber":"23433"},"geometry":{"type":"MultiPolygon","coordinates":[[[[172.53097979028797,-43.5473581655521],[172.531309531332,-43.547624098169],[172.53116735987697,-43.5477174798981],[172.530861036427,-43.547470211115495],[172.530875725061,-43.547460549975696],[172.530883538265,-43.5474213108873],[172.53097979028797,-43.5473581655521]]]]}}]}