{"type":"FeatureCollection","features":[{"type":"Feature","properties":{"gml_id":"vwRatingUnit.100784","RatingUnitID":100784,"ValuationVisitOrder":"38300","drvRatingUnitLocation":null,"StreetAddressID":139395,"OccupationLevelDescription":"Ground Floor and Above","StreetAddress":"9 Moncks Spur Road","LocalityName":"Moncks Spur","ValuationRollNumber":"22900"},"geometry":{"type":"MultiPolygon","coordinates":[[[[172.738880900298,-43.56411922065689],[172.738665358215,-43.5639517016476],[172.73867476775098,-43.5639452875637],[172.738802019185,-43.5638586753588],[172.738929270295,-43.5637720540135],[172.739099439085,-43.5639042780488],[172.738994134943,-43.5640078521392],[172.738888743457,-43.5641115069408],[172.738880900298,-43.56411922065689]]]]}}]}