{"type":"FeatureCollection","features":[{"type":"Feature","properties":{"gml_id":"vwRatingUnit.114832","RatingUnitID":114832,"ValuationVisitOrder":"65700","drvRatingUnitLocation":null,"StreetAddressID":61254,"OccupationLevelDescription":"Ground Floor and Above","StreetAddress":"24 Dunstan Crescent","LocalityName":"Hornby","ValuationRollNumber":"23433"},"geometry":{"type":"MultiPolygon","coordinates":[[[[172.526834772268,-43.550870590350094],[172.52729899472,-43.5509164745773],[172.527293780181,-43.5509442029356],[172.527287194944,-43.5509970921679],[172.527285054521,-43.5510241670739],[172.527284352899,-43.55104443420739],[172.526784638248,-43.5510335076298],[172.526791176486,-43.5510122473724],[172.526834772268,-43.550870590350094]]]]}}]}