{"type":"FeatureCollection","features":[{"type":"Feature","properties":{"gml_id":"vwRatingUnit.108962","RatingUnitID":108962,"ValuationVisitOrder":"7200","drvRatingUnitLocation":null,"StreetAddressID":60217,"OccupationLevelDescription":"Ground Floor and Above","StreetAddress":"23 Curletts Road","LocalityName":"Upper Riccarton","ValuationRollNumber":"23412"},"geometry":{"type":"MultiPolygon","coordinates":[[[[172.568053815096,-43.5347047103846],[172.568078596826,-43.534870304973595],[172.568073266015,-43.5348707247227],[172.567950487644,-43.5348803921645],[172.567940253863,-43.534880695804894],[172.567924948098,-43.534879225184696],[172.56791038759596,-43.5348755342867],[172.567897153726,-43.5348697599306],[172.567885825362,-43.5348621387353],[172.567876846355,-43.5348530053218],[172.567870621651,-43.5348427388707],[172.567867396184,-43.5348317637073],[172.56785086290898,-43.5347206940457],[172.568053815096,-43.5347047103846]]]]}}]}