{"type":"FeatureCollection","features":[{"type":"Feature","properties":{"gml_id":"vwRatingUnit.102521","RatingUnitID":102521,"ValuationVisitOrder":"44900","drvRatingUnitLocation":null,"StreetAddressID":132046,"OccupationLevelDescription":"Ground Floor and Above","StreetAddress":"98 McCormacks Bay Road","LocalityName":"McCormacks Bay","ValuationRollNumber":"22902"},"geometry":{"type":"MultiPolygon","coordinates":[[[[172.72607504631,-43.5600825671017],[172.72613013325397,-43.5601187899574],[172.726362033719,-43.5602129544017],[172.726179106177,-43.5604889275612],[172.725908941171,-43.5604542825677],[172.725770140696,-43.5603788434728],[172.72607504631,-43.5600825671017]]]]}}]}