{"type":"FeatureCollection","features":[{"type":"Feature","properties":{"gml_id":"vwRatingUnit.100883","RatingUnitID":100883,"ValuationVisitOrder":"43129","drvRatingUnitLocation":null,"StreetAddressID":100118,"OccupationLevelDescription":"Ground Floor and Above","StreetAddress":"5 Harry Fergus Lane","LocalityName":"Moncks Spur","ValuationRollNumber":"22900"},"geometry":{"type":"MultiPolygon","coordinates":[[[[172.726410020087,-43.5665604812748],[172.726815310378,-43.566649447525],[172.72713394288,-43.5669379743928],[172.727202473537,-43.5669200631725],[172.727271629598,-43.5669034584644],[172.727323954029,-43.56689182728389],[172.72733340271998,-43.5668991940139],[172.727248465754,-43.5669183266539],[172.727179703632,-43.5669354093064],[172.727111579372,-43.5669537805001],[172.727044130184,-43.5669734223231],[172.72691738074798,-43.5670117440561],[172.726338719873,-43.5667379378371],[172.72635375021198,-43.5666819271478],[172.726410020087,-43.5665604812748]]]]}}]}