{"type":"FeatureCollection","features":[{"type":"Feature","properties":{"gml_id":"vwRatingUnit.107819","RatingUnitID":107819,"ValuationVisitOrder":"16000","drvRatingUnitLocation":null,"StreetAddressID":80597,"OccupationLevelDescription":"Ground Floor and Above","StreetAddress":"34 Hoon Hay Road","LocalityName":"Hoon Hay","ValuationRollNumber":"22980"},"geometry":{"type":"MultiPolygon","coordinates":[[[[172.59676145156698,-43.5560614176119],[172.596911074503,-43.5561426328407],[172.596493746614,-43.5565492848843],[172.59636486278,-43.5564479440593],[172.59676145156698,-43.5560614176119]]]]}}]}