{"type":"FeatureCollection","features":[{"type":"Feature","properties":{"gml_id":"vwRatingUnit.107063","RatingUnitID":107063,"ValuationVisitOrder":"16400","drvRatingUnitLocation":null,"StreetAddressID":70768,"OccupationLevelDescription":"Ground Floor and Above","StreetAddress":"3 Barrowclough Street","LocalityName":"Hoon Hay","ValuationRollNumber":"22970"},"geometry":{"type":"MultiPolygon","coordinates":[[[[172.58287127711097,-43.5624823396685],[172.583139808483,-43.5627229113918],[172.582958326864,-43.5628301022021],[172.58281591760797,-43.5627024331188],[172.582689870728,-43.56258942232319],[172.58287127711097,-43.5624823396685]]]]}}]}