{"type":"FeatureCollection","features":[{"type":"Feature","properties":{"gml_id":"vwRatingUnit.110160","RatingUnitID":110160,"ValuationVisitOrder":"62600","drvRatingUnitLocation":null,"StreetAddressID":120855,"OccupationLevelDescription":"Ground Floor and Above","StreetAddress":"77 Epsom Road","LocalityName":"Sockburn","ValuationRollNumber":"23413"},"geometry":{"type":"MultiPolygon","coordinates":[[[[172.548705865065,-43.5345326638423],[172.548820262923,-43.5346486658234],[172.548307283831,-43.5349164109443],[172.548244092568,-43.5348523375949],[172.548192886369,-43.5348004174588],[172.548288793141,-43.534750352817994],[172.548705865065,-43.5345326638423]]]]}}]}