{"type":"FeatureCollection","features":[{"type":"Feature","properties":{"gml_id":"vwRatingUnit.112594","RatingUnitID":112594,"ValuationVisitOrder":"61700","drvRatingUnitLocation":null,"StreetAddressID":40570,"OccupationLevelDescription":"Ground Floor and Above","StreetAddress":"10 Ngata Place","LocalityName":"Hei Hei","ValuationRollNumber":"23421"},"geometry":{"type":"MultiPolygon","coordinates":[[[[172.519507322475,-43.5373323014198],[172.51995934059198,-43.5374703624168],[172.519881958985,-43.5376044147642],[172.519429915226,-43.537466362371994],[172.51945202979897,-43.53742806567009],[172.519507322475,-43.5373323014198]]]]}}]}