{"type":"FeatureCollection","features":[{"type":"Feature","properties":{"gml_id":"vwRatingUnit.103069","RatingUnitID":103069,"ValuationVisitOrder":"28200","drvRatingUnitLocation":null,"StreetAddressID":50338,"OccupationLevelDescription":"Ground Floor and Above","StreetAddress":"124A Panorama Road","LocalityName":"Clifton","ValuationRollNumber":"22911"},"geometry":{"type":"MultiPolygon","coordinates":[[[[172.74721901899,-43.5704718320134],[172.747223227597,-43.5704691831719],[172.74722638565697,-43.5704718481237],[172.747514708085,-43.570715149756],[172.747396285844,-43.5708007373019],[172.747383907156,-43.5708007102494],[172.747331750795,-43.5708384051959],[172.747035087428,-43.5705878690351],[172.74703490198698,-43.5705877124268],[172.747035088563,-43.5705875949992],[172.74721901899,-43.5704718320134]]]]}}]}