{"type":"FeatureCollection","features":[{"type":"Feature","properties":{"gml_id":"vwRatingUnit.107894","RatingUnitID":107894,"ValuationVisitOrder":"21600","drvRatingUnitLocation":null,"StreetAddressID":9677,"OccupationLevelDescription":"Ground Floor and Above","StreetAddress":"19C Tankerville Road","LocalityName":"Hoon Hay","ValuationRollNumber":"22980"},"geometry":{"type":"MultiPolygon","coordinates":[[[[172.591882242452,-43.5565302903226],[172.591693257973,-43.5566447325242],[172.591793977387,-43.556736898827],[172.591911353322,-43.5568443156008],[172.592105151645,-43.55672984574499],[172.592099503481,-43.5567247893501],[172.591882242452,-43.5565302903226]]]]}}]}