{"type":"FeatureCollection","features":[{"type":"Feature","properties":{"gml_id":"vwRatingUnit.112588","RatingUnitID":112588,"ValuationVisitOrder":"61100","drvRatingUnitLocation":null,"StreetAddressID":17874,"OccupationLevelDescription":"Ground Floor and Above","StreetAddress":"17 Ngata Place","LocalityName":"Hei Hei","ValuationRollNumber":"23421"},"geometry":{"type":"MultiPolygon","coordinates":[[[[172.51989484968797,-43.5380194208638],[172.520182239687,-43.538236551538],[172.520139403224,-43.5382792894715],[172.52001489644,-43.53840352344889],[172.519807884793,-43.538356899414],[172.519817169806,-43.53804827793309],[172.51983663435297,-43.5380448307498],[172.519852332812,-43.53804042275729],[172.519867274044,-43.5380347604742],[172.51988124701,-43.538027933029696],[172.51989484968797,-43.5380194208638]]]]}}]}