{"type":"FeatureCollection","features":[{"type":"Feature","properties":{"gml_id":"vwRatingUnit.108579","RatingUnitID":108579,"ValuationVisitOrder":"11800","drvRatingUnitLocation":null,"StreetAddressID":159476,"OccupationLevelDescription":"Ground Floor and Above","StreetAddress":"81 Treffers Road","LocalityName":"Sockburn","ValuationRollNumber":"23411"},"geometry":{"type":"MultiPolygon","coordinates":[[[[172.575413241116,-43.5468302267271],[172.57596830511,-43.5472677040725],[172.574579785057,-43.5480858802218],[172.574533054487,-43.548043916825996],[172.574929368185,-43.5478103955783],[172.574462015569,-43.5473907709277],[172.575413241116,-43.5468302267271]]]]}}]}