{"type":"FeatureCollection","features":[{"type":"Feature","properties":{"gml_id":"vwRatingUnit.107390","RatingUnitID":107390,"ValuationVisitOrder":"49200","drvRatingUnitLocation":null,"StreetAddressID":40625,"OccupationLevelDescription":"Ground Floor and Above","StreetAddress":"10 Ostler Place","LocalityName":"Hoon Hay","ValuationRollNumber":"22970"},"geometry":{"type":"MultiPolygon","coordinates":[[[[172.587410019975,-43.5656335458587],[172.587584096363,-43.5657649045247],[172.587770525784,-43.56590558685059],[172.58771537467,-43.565943174814],[172.587664092503,-43.565976060194],[172.58761157942897,-43.56600791506379],[172.587285005562,-43.5657152393085],[172.587379630089,-43.5656594132786],[172.587410019975,-43.5656335458587]]]]}}]}