{"type":"FeatureCollection","features":[{"type":"Feature","properties":{"gml_id":"vwRatingUnit.115468","RatingUnitID":115468,"ValuationVisitOrder":"47900","drvRatingUnitLocation":null,"StreetAddressID":43001,"OccupationLevelDescription":"Ground Floor and Above","StreetAddress":"106 Neill Street","LocalityName":"Hornby","ValuationRollNumber":"23434"},"geometry":{"type":"MultiPolygon","coordinates":[[[[172.538228361299,-43.549103076648095],[172.538470827863,-43.5493000785395],[172.538455500379,-43.5493680907703],[172.538207388752,-43.54947039045249],[172.538024568984,-43.5492358505553],[172.538228361299,-43.549103076648095]]]]}}]}