{"type":"FeatureCollection","features":[{"type":"Feature","properties":{"gml_id":"vwRatingUnit.105074","RatingUnitID":105074,"ValuationVisitOrder":"8300","drvRatingUnitLocation":null,"StreetAddressID":109811,"OccupationLevelDescription":"Ground Floor and Above","StreetAddress":"6 Smartlea Street","LocalityName":"Hoon Hay","ValuationRollNumber":"22951"},"geometry":{"type":"MultiPolygon","coordinates":[[[[172.60485673204897,-43.5594870646963],[172.604952968978,-43.55943050066859],[172.604965892846,-43.5594243794246],[172.604980276345,-43.5594202973445],[172.604995499543,-43.5594184233189],[172.605010918282,-43.5594188451489],[172.60502590147598,-43.5594215426721],[172.605039818626,-43.55942640572079],[172.60505207705899,-43.5594332162484],[172.605059046913,-43.5594386855588],[172.6054185798,-43.5597621423649],[172.605263676217,-43.5598531768668],[172.60485673204897,-43.5594870646963]]]]}}]}