{"type":"FeatureCollection","features":[{"type":"Feature","properties":{"gml_id":"vwRatingUnit.102428","RatingUnitID":102428,"ValuationVisitOrder":"32700","drvRatingUnitLocation":null,"StreetAddressID":105152,"OccupationLevelDescription":"Ground Floor and Above","StreetAddress":"54 Maffeys Road","LocalityName":"McCormacks Bay","ValuationRollNumber":"22902"},"geometry":{"type":"MultiPolygon","coordinates":[[[[172.723047151334,-43.561322379875],[172.723079108237,-43.56116963619759],[172.723547273948,-43.56121940586049],[172.723486551891,-43.561509303127],[172.723018445472,-43.5614596233915],[172.723047151334,-43.561322379875]]]]}}]}