{"type":"FeatureCollection","features":[{"type":"Feature","properties":{"gml_id":"vwRatingUnit.105362","RatingUnitID":105362,"ValuationVisitOrder":"37700","drvRatingUnitLocation":null,"StreetAddressID":86387,"OccupationLevelDescription":"Ground Floor and Above","StreetAddress":"39 Maryhill Avenue","LocalityName":"Hoon Hay","ValuationRollNumber":"22951"},"geometry":{"type":"MultiPolygon","coordinates":[[[[172.603326039066,-43.56438595959649],[172.603704270934,-43.5647741555712],[172.603536500686,-43.5648447209412],[172.603173059037,-43.564472038536],[172.60318383593597,-43.5644631648816],[172.60319950251497,-43.5644523188819],[172.603219132533,-43.564441081477696],[172.603326039066,-43.56438595959649]]]]}}]}