{"type":"FeatureCollection","features":[{"type":"Feature","properties":{"gml_id":"vwRatingUnit.10850","RatingUnitID":10850,"ValuationVisitOrder":"56203","drvRatingUnitLocation":null,"StreetAddressID":125045,"OccupationLevelDescription":"Ground Floor and Above","StreetAddress":"82B Withells Road","LocalityName":"Avonhead","ValuationRollNumber":"21895"},"geometry":{"type":"MultiPolygon","coordinates":[[[[172.55134720217,-43.51944852994669],[172.552159675096,-43.51965502718189],[172.552206011613,-43.5195973766038],[172.552282020141,-43.5195381313295],[172.55258810833598,-43.5196160102609],[172.552552913402,-43.51968924893539],[172.552518672792,-43.5197605291086],[172.552234410639,-43.519688288543],[172.55192729713,-43.5196102426604],[172.551339998519,-43.5194609771404],[172.55134720217,-43.51944852994669]]]]}}]}