{"type":"FeatureCollection","features":[{"type":"Feature","properties":{"gml_id":"vwRatingUnit.104342","RatingUnitID":104342,"ValuationVisitOrder":"54600","drvRatingUnitLocation":null,"StreetAddressID":51050,"OccupationLevelDescription":"Ground Floor and Above","StreetAddress":"129 Nayland Street","LocalityName":"Sumner","ValuationRollNumber":"22920"},"geometry":{"type":"MultiPolygon","coordinates":[[[[172.766811511217,-43.5739861601257],[172.766715059062,-43.57392888475889],[172.766911730604,-43.5737536015673],[172.767008232351,-43.5738108318712],[172.766909840874,-43.5738985229792],[172.766811511217,-43.5739861601257]]]]}}]}