{"type":"FeatureCollection","features":[{"type":"Feature","properties":{"gml_id":"vwRatingUnit.111402","RatingUnitID":111402,"ValuationVisitOrder":"53800","drvRatingUnitLocation":null,"StreetAddressID":106508,"OccupationLevelDescription":"Ground Floor and Above","StreetAddress":"56 Steadman Road","LocalityName":"Masham","ValuationRollNumber":"23415"},"geometry":{"type":"MultiPolygon","coordinates":[[[[172.53420770518596,-43.525104872013],[172.534493080957,-43.5251890427128],[172.53431862312,-43.525490786543195],[172.535174943739,-43.52574335935189],[172.535154460901,-43.52577878532599],[172.53481818176,-43.5256796039779],[172.534474239175,-43.5255781583907],[172.53401279974298,-43.52544205935659],[172.53420770518596,-43.525104872013]]]]}}]}