{"type":"FeatureCollection","features":[{"type":"Feature","properties":{"gml_id":"vwRatingUnit.115121","RatingUnitID":115121,"ValuationVisitOrder":"13400","drvRatingUnitLocation":null,"StreetAddressID":111228,"OccupationLevelDescription":"Ground Floor and Above","StreetAddress":"60 Springs Road","LocalityName":"Hornby","ValuationRollNumber":"23434"},"geometry":{"type":"MultiPolygon","coordinates":[[[[172.540318280828,-43.5476738156166],[172.540832456099,-43.5479810502897],[172.540685435212,-43.5481270344048],[172.540274466897,-43.5478094820213],[172.540219595909,-43.5477670938818],[172.540318280828,-43.5476738156166]]]]}}]}