{"type":"FeatureCollection","features":[{"type":"Feature","properties":{"gml_id":"vwRatingUnit.113448","RatingUnitID":113448,"ValuationVisitOrder":"40300","drvRatingUnitLocation":null,"StreetAddressID":37116,"OccupationLevelDescription":"Ground Floor and Above","StreetAddress":"1/56 Denise Crescent","LocalityName":"Hornby","ValuationRollNumber":"23431"},"geometry":{"type":"MultiPolygon","coordinates":[[[[172.513089075014,-43.5458036815723],[172.513128660091,-43.545953641241994],[172.512922693631,-43.545979918107],[172.5128852444,-43.5458380672525],[172.512914554899,-43.545830828461895],[172.512947498975,-43.5458241450871],[172.512980791172,-43.5458188043139],[172.513089075014,-43.5458036815723]]]]}}]}