{"type":"FeatureCollection","features":[{"type":"Feature","properties":{"gml_id":"vwRatingUnit.110652","RatingUnitID":110652,"ValuationVisitOrder":"31200","drvRatingUnitLocation":null,"StreetAddressID":95441,"OccupationLevelDescription":"Ground Floor and Above","StreetAddress":"45 Doncaster Street","LocalityName":"Upper Riccarton","ValuationRollNumber":"23414"},"geometry":{"type":"MultiPolygon","coordinates":[[[[172.55383219706,-43.5300952966],[172.553916600223,-43.5301211773491],[172.553953724198,-43.53013318442869],[172.554005420468,-43.5301520526512],[172.554044543108,-43.530168189859],[172.55389364228,-43.5304285681152],[172.553677523575,-43.5303622666215],[172.55383219706,-43.5300952966]]]]}}]}