{"type":"FeatureCollection","features":[{"type":"Feature","properties":{"gml_id":"vwRatingUnit.102259","RatingUnitID":102259,"ValuationVisitOrder":"11500","drvRatingUnitLocation":null,"StreetAddressID":7395,"OccupationLevelDescription":"Ground Floor and Above","StreetAddress":"14B Toledo Place","LocalityName":"McCormacks Bay","ValuationRollNumber":"22902"},"geometry":{"type":"MultiPolygon","coordinates":[[[[172.719956558793,-43.5644688447166],[172.719968235228,-43.5644786745266],[172.719981252678,-43.5644875627149],[172.719982535127,-43.5644882634174],[172.719983734504,-43.564488918694394],[172.719982524015,-43.5644906865138],[172.719849217258,-43.5646853536092],[172.719808362507,-43.5646814751878],[172.719517827393,-43.5646538934667],[172.719506244404,-43.5645159858932],[172.719654596062,-43.5644847930932],[172.71975768768996,-43.5645932800587],[172.719866220283,-43.5645960970169],[172.719956558793,-43.5644688447166]]]]}}]}