{"type":"FeatureCollection","features":[{"type":"Feature","properties":{"gml_id":"vwRatingUnit.114164","RatingUnitID":114164,"ValuationVisitOrder":"65700","drvRatingUnitLocation":null,"StreetAddressID":15150,"OccupationLevelDescription":"Ground Floor and Above","StreetAddress":"17 Goulding Avenue","LocalityName":"Hornby","ValuationRollNumber":"23432"},"geometry":{"type":"MultiPolygon","coordinates":[[[[172.52337327915296,-43.5441977220342],[172.52326686678498,-43.5445695609745],[172.523244542448,-43.5445655740496],[172.52320854596897,-43.5445577472382],[172.523173141262,-43.5445486177328],[172.52313840235797,-43.544538212843],[172.523132171388,-43.54453592781089],[172.52308754798,-43.5445182264923],[172.523314438668,-43.5442025807709],[172.52337327915296,-43.5441977220342]]]]}}]}