{"type":"FeatureCollection","features":[{"type":"Feature","properties":{"gml_id":"vwRatingUnit.117211","RatingUnitID":117211,"ValuationVisitOrder":"2000","drvRatingUnitLocation":null,"StreetAddressID":90701,"OccupationLevelDescription":"Ground Floor and Above","StreetAddress":"40 Ensign Street","LocalityName":"Oaklands","ValuationRollNumber":"23443"},"geometry":{"type":"MultiPolygon","coordinates":[[[[172.568365507747,-43.5739703120547],[172.568932398453,-43.5741604579256],[172.568849182634,-43.5742916030216],[172.568282290956,-43.5741014567559],[172.568365507747,-43.5739703120547]]]]}}]}