{"type":"FeatureCollection","features":[{"type":"Feature","properties":{"gml_id":"vwRatingUnit.111655","RatingUnitID":111655,"ValuationVisitOrder":"74500","drvRatingUnitLocation":null,"StreetAddressID":74479,"OccupationLevelDescription":"Ground Floor and Above","StreetAddress":"3/7 Kinross Street","LocalityName":"Riccarton Park","ValuationRollNumber":"23415"},"geometry":{"type":"MultiPolygon","coordinates":[[[[172.537272681788,-43.5322493407942],[172.537327466668,-43.5320812477716],[172.537484692501,-43.53209957842459],[172.53742950179796,-43.5322762229371],[172.537272681788,-43.5322493407942]]]]}}]}