{"type":"FeatureCollection","features":[{"type":"Feature","properties":{"gml_id":"vwRatingUnit.114698","RatingUnitID":114698,"ValuationVisitOrder":"51100","drvRatingUnitLocation":null,"StreetAddressID":17243,"OccupationLevelDescription":"Ground Floor and Above","StreetAddress":"17 Branston Street","LocalityName":"Hornby","ValuationRollNumber":"23433"},"geometry":{"type":"MultiPolygon","coordinates":[[[[172.526409018244,-43.5487143407307],[172.526653391216,-43.5488838691013],[172.526539519952,-43.5489697017273],[172.52629650379797,-43.5487991435957],[172.526409018244,-43.5487143407307]]]]}}]}