{"type":"FeatureCollection","features":[{"type":"Feature","properties":{"gml_id":"vwRatingUnit.104997","RatingUnitID":104997,"ValuationVisitOrder":"41600","drvRatingUnitLocation":null,"StreetAddressID":129469,"OccupationLevelDescription":"Ground Floor and Above","StreetAddress":"90 Taylors Mistake Road","LocalityName":"Scarborough","ValuationRollNumber":"22931"},"geometry":{"type":"MultiPolygon","coordinates":[[[[172.77392512823397,-43.5764515614919],[172.774112723697,-43.5767355224947],[172.773212150051,-43.5768707020986],[172.77325719183298,-43.5766027935587],[172.77392512823397,-43.5764515614919]]]]}}]}