{"type":"FeatureCollection","features":[{"type":"Feature","properties":{"gml_id":"vwRatingUnit.111352","RatingUnitID":111352,"ValuationVisitOrder":"49700","drvRatingUnitLocation":null,"StreetAddressID":5216,"OccupationLevelDescription":"Ground Floor and Above","StreetAddress":"2/18 Steadman Road","LocalityName":"Masham","ValuationRollNumber":"23415"},"geometry":{"type":"MultiPolygon","coordinates":[[[[172.536877982516,-43.5223931818082],[172.536877352294,-43.5223929885335],[172.536639174719,-43.522319944576694],[172.536636456764,-43.5223191109829],[172.536639217341,-43.5223143364579],[172.536644253481,-43.5223056268147],[172.536645484465,-43.5223034978309],[172.536648685892,-43.5222979611768],[172.536651751589,-43.52229265894359],[172.536653117942,-43.5222902957973],[172.536664234795,-43.522271069595],[172.536664282572,-43.522270986873],[172.536664285811,-43.522270983767],[172.536672150497,-43.5222631715816],[172.536682980816,-43.5222524131918],[172.536688505385,-43.5222469254008],[172.53669544438497,-43.522240032721],[172.53670486061998,-43.5222306794791],[172.536714139729,-43.5222214621421],[172.536721215488,-43.52221443355359],[172.536726602926,-43.5222090819264],[172.53673757034798,-43.5221981876257],[172.536747725458,-43.52218810022309],[172.536751492518,-43.5221892572206],[172.536770153204,-43.5221949882192],[172.536775175359,-43.5221965305324],[172.53678500157596,-43.5221995482605],[172.536785732823,-43.5221997729165],[172.536799850306,-43.5222041085612],[172.536806847397,-43.522206257680395],[172.536814699038,-43.52220866886],[172.536817404864,-43.52220950006159],[172.536844396151,-43.5222177894504],[172.536849076918,-43.5222192269379],[172.536859244889,-43.522222349743394],[172.536859634389,-43.5222224693151],[172.536888942018,-43.5222314700622],[172.536891306454,-43.5222321964396],[172.53691863951,-43.522240590634695],[172.536922978531,-43.5222419232953],[172.536933487902,-43.5222451509165],[172.536933536011,-43.5222451656657],[172.536953934376,-43.5222514303362],[172.53692234445,-43.5223125194141],[172.53688559549698,-43.52237969939429],[172.536877982516,-43.5223931818082]]]]}}]}