{"type":"FeatureCollection","features":[{"type":"Feature","properties":{"gml_id":"vwRatingUnit.113586","RatingUnitID":113586,"ValuationVisitOrder":"64400","drvRatingUnitLocation":null,"StreetAddressID":111533,"OccupationLevelDescription":"Ground Floor and Above","StreetAddress":"61 Denise Crescent","LocalityName":"Hornby","ValuationRollNumber":"23431"},"geometry":{"type":"MultiPolygon","coordinates":[[[[172.513210583626,-43.5470242983163],[172.513423149915,-43.5471114254589],[172.51311402563599,-43.5473884817559],[172.513043882904,-43.54735487277589],[172.512976894667,-43.5473260475831],[172.513210583626,-43.5470242983163]]]]}}]}