{"type":"FeatureCollection","features":[{"type":"Feature","properties":{"gml_id":"vwRatingUnit.111839","RatingUnitID":111839,"ValuationVisitOrder":"90100","drvRatingUnitLocation":null,"StreetAddressID":138837,"OccupationLevelDescription":"Ground Floor and Above","StreetAddress":"1/5 Showgate Avenue","LocalityName":"Riccarton Park","ValuationRollNumber":"23415"},"geometry":{"type":"MultiPolygon","coordinates":[[[[172.545060576047,-43.5336328387953],[172.54504757986098,-43.5336201408972],[172.544949248986,-43.533566348406495],[172.544916737145,-43.53355907429099],[172.545094760422,-43.5333752027377],[172.545261700698,-43.5334261560541],[172.545060576047,-43.5336328387953]]]]}}]}