{"type":"FeatureCollection","features":[{"type":"Feature","properties":{"gml_id":"vwRatingUnit.103235","RatingUnitID":103235,"ValuationVisitOrder":"57100","drvRatingUnitLocation":null,"StreetAddressID":67323,"OccupationLevelDescription":"Ground Floor and Above","StreetAddress":"274 Main Road","LocalityName":"Clifton","ValuationRollNumber":"22911"},"geometry":{"type":"MultiPolygon","coordinates":[[[[172.748822168331,-43.5651430183693],[172.749036560123,-43.56527590858149],[172.748749853935,-43.5654900553941],[172.748574436146,-43.5654421331813],[172.748601578974,-43.5653973877571],[172.74857643108,-43.565390501659],[172.74843751771397,-43.56523386062079],[172.74846061663,-43.5652092855429],[172.748582848038,-43.565347115215],[172.748822168331,-43.5651430183693]]]]}}]}