{"type":"FeatureCollection","features":[{"type":"Feature","properties":{"gml_id":"vwRatingUnit.116698","RatingUnitID":116698,"ValuationVisitOrder":"57200","drvRatingUnitLocation":null,"StreetAddressID":115009,"OccupationLevelDescription":"Ground Floor and Above","StreetAddress":"68 Patterson Terrace","LocalityName":"Wentworth Park","ValuationRollNumber":"23441"},"geometry":{"type":"MultiPolygon","coordinates":[[[[172.553238079389,-43.5744212810937],[172.553567934016,-43.5746255440455],[172.553423435526,-43.5747488805016],[172.553093593152,-43.5745446081919],[172.553238079389,-43.5744212810937]]]]}}]}