{"type":"FeatureCollection","features":[{"type":"Feature","properties":{"gml_id":"vwRatingUnit.118053","RatingUnitID":118053,"ValuationVisitOrder":"25100","drvRatingUnitLocation":null,"StreetAddressID":23845,"OccupationLevelDescription":"Ground Floor and Above","StreetAddress":"142 Wales Street","LocalityName":"Oaklands","ValuationRollNumber":"23444"},"geometry":{"type":"MultiPolygon","coordinates":[[[[172.557326525814,-43.5756745799548],[172.55777080801596,-43.5758257059985],[172.55771544239096,-43.5759129632702],[172.557690708793,-43.5759519408026],[172.55724627579897,-43.575801020903],[172.557326525814,-43.5756745799548]]]]}}]}