{"type":"FeatureCollection","features":[{"type":"Feature","properties":{"gml_id":"vwRatingUnit.100754","RatingUnitID":100754,"ValuationVisitOrder":"36300","drvRatingUnitLocation":null,"StreetAddressID":225262,"OccupationLevelDescription":"Ground Floor and Above","StreetAddress":"21A Taupata Street","LocalityName":"Redcliffs","ValuationRollNumber":"22900"},"geometry":{"type":"MultiPolygon","coordinates":[[[[172.735188553655,-43.5621011575305],[172.735237226649,-43.5620679372709],[172.73523741923597,-43.5620472990924],[172.735317342442,-43.561992739867],[172.735346776824,-43.5619928771766],[172.735421849573,-43.56205102309849],[172.735263445083,-43.5621591603062],[172.735188553655,-43.5621011575305]]]]}}]}