{"type":"FeatureCollection","features":[{"type":"Feature","properties":{"gml_id":"vwRatingUnit.100179","RatingUnitID":100179,"ValuationVisitOrder":"58039","drvRatingUnitLocation":null,"StreetAddressID":33085,"OccupationLevelDescription":"Ground Floor and Above","StreetAddress":"23 Morganwood Street","LocalityName":"Bexley","ValuationRollNumber":"22852"},"geometry":{"type":"MultiPolygon","coordinates":[[[[172.721603697339,-43.5154431404056],[172.72166607723,-43.5156190611413],[172.721666514808,-43.5156202947014],[172.72166607110398,-43.51562040279169],[172.721438807659,-43.5156757370265],[172.721547060008,-43.5159528539238],[172.721556434303,-43.5159768511272],[172.7215299758,-43.515983105589],[172.721519216627,-43.5159555665932],[172.72151005167697,-43.5159321073905],[172.721509329409,-43.5159302589695],[172.72149782680998,-43.5159008163976],[172.72149697252,-43.5158986292519],[172.721485601955,-43.5158695256629],[172.721484615286,-43.5158669995316],[172.72147337747,-43.5158382349274],[172.721472258066,-43.5158353698096],[172.72146115264,-43.5158069441893],[172.721459900858,-43.515803740086],[172.72145504023197,-43.5157912985598],[172.721454957979,-43.515791088091994],[172.721448927825,-43.5157756531897],[172.721447543664,-43.5157721103606],[172.721442815421,-43.5157600078192],[172.72144260079,-43.5157594583659],[172.721436703378,-43.5157443624491],[172.72143518684,-43.5157404806343],[172.721430590981,-43.5157287170778],[172.721430243971,-43.515727828639],[172.721424478586,-43.515713071706],[172.72142282967098,-43.5157088509054],[172.721418366197,-43.5156974260739],[172.721417886808,-43.515696198909396],[172.721411762418,-43.5156805228382],[172.721400284941,-43.515626536054],[172.72138791599497,-43.5155948355954],[172.721386894044,-43.515592216849],[172.721375691439,-43.515563505599],[172.721374559002,-43.5155606030212],[172.721363466895,-43.5155321758609],[172.72136222361397,-43.5155289894507],[172.721357354628,-43.515516510731295],[172.721357289678,-43.51551634371069],[172.721351242721,-43.5155008458621],[172.721349888598,-43.5154973756195],[172.721348171706,-43.5154929754005],[172.721603697339,-43.5154431404056]]]]}}]}