{"type":"FeatureCollection","features":[{"type":"Feature","properties":{"gml_id":"vwRatingUnit.105809","RatingUnitID":105809,"ValuationVisitOrder":"31700","drvRatingUnitLocation":null,"StreetAddressID":128535,"OccupationLevelDescription":"Ground Floor and Above","StreetAddress":"9 Samuel Street","LocalityName":"Hoon Hay","ValuationRollNumber":"22952"},"geometry":{"type":"MultiPolygon","coordinates":[[[[172.602815922087,-43.5620402702756],[172.60320642366696,-43.562392777678696],[172.60316188106296,-43.5624188616028],[172.603043498208,-43.5624881829986],[172.602652996946,-43.56213567505019],[172.602815922087,-43.5620402702756]]]]}}]}