{"type":"FeatureCollection","features":[{"type":"Feature","properties":{"gml_id":"vwRatingUnit.117606","RatingUnitID":117606,"ValuationVisitOrder":"42300","drvRatingUnitLocation":null,"StreetAddressID":66230,"OccupationLevelDescription":"Ground Floor and Above","StreetAddress":"27 Checketts Avenue","LocalityName":"Oaklands","ValuationRollNumber":"23443"},"geometry":{"type":"MultiPolygon","coordinates":[[[[172.564063181281,-43.5749698236608],[172.564244065702,-43.5750305422488],[172.563960350101,-43.575477681299795],[172.56377947700298,-43.5754169623291],[172.564063181281,-43.5749698236608]]]]}}]}