{"type":"FeatureCollection","features":[{"type":"Feature","properties":{"gml_id":"vwRatingUnit.104203","RatingUnitID":104203,"ValuationVisitOrder":"43901","drvRatingUnitLocation":null,"StreetAddressID":51423,"OccupationLevelDescription":"Ground Floor and Above","StreetAddress":"2/66A Nayland Street","LocalityName":"Sumner","ValuationRollNumber":"22920"},"geometry":{"type":"MultiPolygon","coordinates":[[[[172.761346335704,-43.5713997527658],[172.761537906888,-43.5715162011793],[172.761533721707,-43.5715199278701],[172.761433161032,-43.57160946587649],[172.761430823301,-43.5716115473164],[172.761427296497,-43.5716094537754],[172.761397154788,-43.5715915633384],[172.761396863057,-43.5715913901589],[172.76136437218898,-43.5715721048889],[172.761358821463,-43.5715688105621],[172.76133158961,-43.5715526466897],[172.761328388422,-43.5715507466678],[172.761298807051,-43.5715331884809],[172.76129795539896,-43.5715326830252],[172.761237405388,-43.57149674323989],[172.761323338246,-43.5714202294914],[172.761346335704,-43.5713997527658]]]]}}]}