{"type":"FeatureCollection","features":[{"type":"Feature","properties":{"gml_id":"vwRatingUnit.112083","RatingUnitID":112083,"ValuationVisitOrder":"15400","drvRatingUnitLocation":null,"StreetAddressID":74193,"OccupationLevelDescription":"Ground Floor and Above","StreetAddress":"3/52A Hei Hei Road","LocalityName":"Hei Hei","ValuationRollNumber":"23421"},"geometry":{"type":"MultiPolygon","coordinates":[[[[172.52504974215398,-43.5360686464761],[172.525044084801,-43.5360679439567],[172.52494416099697,-43.5360555355588],[172.524881593361,-43.5360477705557],[172.52501473226397,-43.535817132685],[172.525085135559,-43.5358373281464],[172.525113132418,-43.535881700257],[172.52507638626798,-43.5359479845855],[172.52504974215398,-43.5360686464761]]]]}}]}