{"type":"FeatureCollection","features":[{"type":"Feature","properties":{"gml_id":"vwRatingUnit.109491","RatingUnitID":109491,"ValuationVisitOrder":"2400","drvRatingUnitLocation":null,"StreetAddressID":52829,"OccupationLevelDescription":"Ground Floor and Above","StreetAddress":"2/9 Ludecke Place","LocalityName":"Upper Riccarton","ValuationRollNumber":"23413"},"geometry":{"type":"MultiPolygon","coordinates":[[[[172.567029038733,-43.531487684839696],[172.567033969888,-43.5314891937507],[172.56703808994496,-43.5314904542555],[172.567063753138,-43.5314983064775],[172.567069713995,-43.5315001303893],[172.56707864458699,-43.5315028629672],[172.567080255109,-43.531503355851],[172.567101190477,-43.5315097615133],[172.567108427849,-43.5315119759422],[172.567111879173,-43.531513031973],[172.567153102222,-43.53152564538809],[172.567154044368,-43.5315259335412],[172.567182885507,-43.5315347580836],[172.567185668455,-43.5315356096427],[172.56721266879998,-43.5315438710314],[172.567217292195,-43.5315452857341],[172.56722756027,-43.5315484275016],[172.56722783368198,-43.5315485111835],[172.567242451744,-43.5315529839699],[172.567248916302,-43.5315549618181],[172.567257343576,-43.5315575404376],[172.567259457792,-43.5315581872645],[172.567272235056,-43.5315620966421],[172.567280540419,-43.5315646378932],[172.567287126535,-43.53156665310449],[172.56729108155497,-43.5315678633354],[172.567302018374,-43.5315712095664],[172.567312164189,-43.5315743139582],[172.56731690985896,-43.5315757660249],[172.567322705686,-43.5315775393988],[172.567331801345,-43.5315803224815],[172.567333247183,-43.5315807648384],[172.56734669283398,-43.5315848789362],[172.567347641042,-43.5315851689299],[172.567341822679,-43.5315951809182],[172.56727734642,-43.5317061299868],[172.567265247563,-43.5317269493389],[172.567069276465,-43.5316687838996],[172.567069130625,-43.5316690466557],[172.567069072082,-43.5316691521301],[172.566986547235,-43.5316429511005],[172.567024580405,-43.5315845972286],[172.567029038733,-43.531487684839696]]]]}}]}