{"type":"FeatureCollection","features":[{"type":"Feature","properties":{"gml_id":"vwRatingUnit.100492","RatingUnitID":100492,"ValuationVisitOrder":"20700","drvRatingUnitLocation":null,"StreetAddressID":11188,"OccupationLevelDescription":"Ground Floor and Above","StreetAddress":"2 Celia Street","LocalityName":"Redcliffs","ValuationRollNumber":"22900"},"geometry":{"type":"MultiPolygon","coordinates":[[[[172.736922020658,-43.5599991418674],[172.737172157748,-43.5601933848374],[172.736987276975,-43.5603193763827],[172.736783445658,-43.5601613757011],[172.736780177632,-43.56015864109159],[172.736773820556,-43.5601518492022],[172.736769100095,-43.5601443860029],[172.736766151497,-43.5601364588146],[172.736765048089,-43.5601282838172],[172.73676582603096,-43.5601200861064],[172.736768459559,-43.5601120996374],[172.736772873521,-43.560104531251],[172.736778955519,-43.5600976147045],[172.736786519207,-43.5600915115826],[172.736922020658,-43.5599991418674]]]]}}]}