{"type":"FeatureCollection","features":[{"type":"Feature","properties":{"gml_id":"vwRatingUnit.103226","RatingUnitID":103226,"ValuationVisitOrder":"56400","drvRatingUnitLocation":null,"StreetAddressID":139303,"OccupationLevelDescription":"Ground Floor and Above","StreetAddress":"286 Main Road","LocalityName":"Clifton","ValuationRollNumber":"22911"},"geometry":{"type":"MultiPolygon","coordinates":[[[[172.74941211204,-43.5642228371713],[172.749280339834,-43.5641599528009],[172.74940790583997,-43.563990039077694],[172.749530426753,-43.5639425030991],[172.749619706782,-43.5639148850709],[172.749636814754,-43.5639173162795],[172.749627969786,-43.5640157625986],[172.749621494059,-43.5640918118014],[172.74949385429596,-43.564131938366],[172.74941211204,-43.5642228371713]]]]}}]}