{"type":"FeatureCollection","features":[{"type":"Feature","properties":{"gml_id":"vwRatingUnit.101684","RatingUnitID":101684,"ValuationVisitOrder":"42100","drvRatingUnitLocation":null,"StreetAddressID":85441,"OccupationLevelDescription":"Ground Floor and Above","StreetAddress":"38 St Andrews Hill Road","LocalityName":"St Andrews Hill","ValuationRollNumber":"22901"},"geometry":{"type":"MultiPolygon","coordinates":[[[[172.714607594029,-43.5577828435291],[172.714790225963,-43.5581677812049],[172.714719275929,-43.55818561604589],[172.714578503272,-43.5582210093672],[172.714395822918,-43.5578360892314],[172.714607594029,-43.5577828435291]]]]}}]}