{"type":"FeatureCollection","features":[{"type":"Feature","properties":{"gml_id":"vwRatingUnit.113546","RatingUnitID":113546,"ValuationVisitOrder":"60300","drvRatingUnitLocation":null,"StreetAddressID":208981,"OccupationLevelDescription":"Ground Floor and Above","StreetAddress":"74B Shands Road","LocalityName":"Hornby","ValuationRollNumber":"23431"},"geometry":{"type":"MultiPolygon","coordinates":[[[[172.518650212346,-43.54863080996879],[172.518501315379,-43.5485091609112],[172.518513703943,-43.5485011349419],[172.518518592416,-43.5484979679923],[172.518562020419,-43.5484698337054],[172.518581430971,-43.5484572588692],[172.518617238879,-43.5484340610605],[172.518644269087,-43.5484165494506],[172.51866555489,-43.5484027597792],[172.518666557725,-43.548402110014194],[172.518669345331,-43.5484003040511],[172.51869706729997,-43.5484229522609],[172.51872806716,-43.5484482783282],[172.518752804221,-43.548468487969],[172.518783396522,-43.5484934811811],[172.518808541227,-43.5485140233891],[172.518832578525,-43.548533661386],[172.51886064431,-43.5485565904031],[172.518863317531,-43.548558774231196],[172.518864277958,-43.5485595590393],[172.51888176059,-43.5485738418288],[172.518920015129,-43.5486050946628],[172.518930942723,-43.5486140219897],[172.51897575238496,-43.5486506299982],[172.518980124919,-43.5486542023886],[172.519032292511,-43.5486968213136],[172.519035542002,-43.5486994761775],[172.51902923448,-43.5487035994426],[172.519004502594,-43.5487197670217],[172.518799413193,-43.548556818085],[172.518765830717,-43.5485566777793],[172.518650212346,-43.54863080996879]]]]}}]}