{"type":"FeatureCollection","features":[{"type":"Feature","properties":{"gml_id":"vwRatingUnit.108106","RatingUnitID":108106,"ValuationVisitOrder":"42400","drvRatingUnitLocation":null,"StreetAddressID":94482,"OccupationLevelDescription":"Ground Floor and Above","StreetAddress":"44 Charles Upham Avenue","LocalityName":"Hillmorton","ValuationRollNumber":"22980"},"geometry":{"type":"MultiPolygon","coordinates":[[[[172.581926996008,-43.5554888519079],[172.581995407044,-43.5551841894032],[172.582254060727,-43.5552263869492],[172.58214566313,-43.5555239379969],[172.582036873043,-43.5555047408311],[172.581926996008,-43.5554888519079]]]]}}]}