{"type":"FeatureCollection","features":[{"type":"Feature","properties":{"gml_id":"vwRatingUnit.106787","RatingUnitID":106787,"ValuationVisitOrder":"57900","drvRatingUnitLocation":null,"StreetAddressID":84419,"OccupationLevelDescription":"Ground Floor and Above","StreetAddress":"37 Waiau Street","LocalityName":"Hoon Hay Valley","ValuationRollNumber":"22960"},"geometry":{"type":"MultiPolygon","coordinates":[[[[172.613681341934,-43.5774675739874],[172.614061813959,-43.5776932601688],[172.613892926046,-43.5778037638738],[172.613556040622,-43.5775710314889],[172.61361376249596,-43.5775253932202],[172.613643010854,-43.5775010182545],[172.613681341934,-43.5774675739874]]]]}}]}