{"type":"FeatureCollection","features":[{"type":"Feature","properties":{"gml_id":"vwRatingUnit.112565","RatingUnitID":112565,"ValuationVisitOrder":"58100","drvRatingUnitLocation":null,"StreetAddressID":91601,"OccupationLevelDescription":"Ground Floor and Above","StreetAddress":"41 Amuri Street","LocalityName":"Hei Hei","ValuationRollNumber":"23421"},"geometry":{"type":"MultiPolygon","coordinates":[[[[172.519740885773,-43.53598517776119],[172.51992386382298,-43.5360410537957],[172.519720250847,-43.53639330250349],[172.51968373496598,-43.5363814039153],[172.519662449167,-43.5363726741924],[172.519642137598,-43.5363627784079],[172.519622948228,-43.5363517801866],[172.519604967162,-43.5363397428949],[172.519588317554,-43.5363267390549],[172.519567648135,-43.5363088759276],[172.519558173641,-43.5363022566949],[172.519740885773,-43.53598517776119]]]]}}]}