{"type":"FeatureCollection","features":[{"type":"Feature","properties":{"gml_id":"vwRatingUnit.106635","RatingUnitID":106635,"ValuationVisitOrder":"43400","drvRatingUnitLocation":null,"StreetAddressID":48704,"OccupationLevelDescription":"Ground Floor and Above","StreetAddress":"12 Northaw Street","LocalityName":"Hoon Hay","ValuationRollNumber":"22960"},"geometry":{"type":"MultiPolygon","coordinates":[[[[172.606563246595,-43.5658303544971],[172.606736852679,-43.566163972855094],[172.60655948095499,-43.5662127731494],[172.606385875754,-43.5658791455221],[172.606553859762,-43.5658329326988],[172.606563246595,-43.5658303544971]]]]}}]}