{"type":"FeatureCollection","features":[{"type":"Feature","properties":{"gml_id":"vwRatingUnit.115885","RatingUnitID":115885,"ValuationVisitOrder":"3533","drvRatingUnitLocation":null,"StreetAddressID":116257,"OccupationLevelDescription":"Ground Floor and Above","StreetAddress":"7 Dix Street","LocalityName":"Hornby","ValuationRollNumber":"23435"},"geometry":{"type":"MultiPolygon","coordinates":[[[[172.536281317613,-43.5513617394048],[172.536631765361,-43.5516315736609],[172.536473378218,-43.551735112624],[172.536129792137,-43.551461282129495],[172.536281317613,-43.5513617394048]]]]}}]}