{"type":"FeatureCollection","features":[{"type":"Feature","properties":{"gml_id":"vwRatingUnit.107301","RatingUnitID":107301,"ValuationVisitOrder":"40200","drvRatingUnitLocation":null,"StreetAddressID":122819,"OccupationLevelDescription":"Ground Floor and Above","StreetAddress":"8 Leicester Crescent","LocalityName":"Hoon Hay","ValuationRollNumber":"22970"},"geometry":{"type":"MultiPolygon","coordinates":[[[[172.585917002788,-43.564219620497],[172.586072439233,-43.56435887131009],[172.585764917104,-43.5645403832066],[172.585609530521,-43.5644011141605],[172.585917002788,-43.564219620497]]]]}}]}