{"type":"FeatureCollection","features":[{"type":"Feature","properties":{"gml_id":"vwRatingUnit.108503","RatingUnitID":108503,"ValuationVisitOrder":"2200","drvRatingUnitLocation":null,"StreetAddressID":53900,"OccupationLevelDescription":"Ground Floor and Above","StreetAddress":"20 Lunns Road","LocalityName":"Middleton","ValuationRollNumber":"23411"},"geometry":{"type":"MultiPolygon","coordinates":[[[[172.578298693625,-43.5411213886989],[172.57841175799,-43.5412218109305],[172.575426344726,-43.5429804058395],[172.575317323051,-43.5428824798447],[172.575274048624,-43.5429079726203],[172.575383070276,-43.5430058986556],[172.574940446448,-43.5432666130087],[172.573928868269,-43.5423617654133],[172.573217732661,-43.542780740217],[172.572850831636,-43.5424525235318],[172.573714714691,-43.54194150691409],[172.572804730131,-43.5411274921281],[172.576513686148,-43.5411281230646],[172.57651370028,-43.541120742432994],[172.578298693625,-43.5411213886989]]]]}}]}