{"type":"FeatureCollection","features":[{"type":"Feature","properties":{"gml_id":"vwRatingUnit.105774","RatingUnitID":105774,"ValuationVisitOrder":"28600","drvRatingUnitLocation":null,"StreetAddressID":96544,"OccupationLevelDescription":"Ground Floor and Above","StreetAddress":"46 Samuel Street","LocalityName":"Hoon Hay","ValuationRollNumber":"22952"},"geometry":{"type":"MultiPolygon","coordinates":[[[[172.599687314466,-43.563110416823],[172.600075333226,-43.5634643222191],[172.599917624468,-43.5635557445774],[172.599529618347,-43.56320184769999],[172.599639777094,-43.5631379740254],[172.599687314466,-43.563110416823]]]]}}]}