{"type":"FeatureCollection","features":[{"type":"Feature","properties":{"gml_id":"vwRatingUnit.100948","RatingUnitID":100948,"ValuationVisitOrder":"45300","drvRatingUnitLocation":null,"StreetAddressID":113134,"OccupationLevelDescription":"Ground Floor and Above","StreetAddress":"64 Moncks Spur Road","LocalityName":"Moncks Spur","ValuationRollNumber":"22900"},"geometry":{"type":"MultiPolygon","coordinates":[[[[172.735601808556,-43.5652924683491],[172.73564418373,-43.5653253272096],[172.73581165168997,-43.5652114487133],[172.736071328243,-43.5652245979742],[172.736196937393,-43.5653219374508],[172.73623183047297,-43.5654221658809],[172.736485343775,-43.565530003565],[172.736472774791,-43.5655456357947],[172.73621025461298,-43.5654339702999],[172.73616941103296,-43.5653903145291],[172.736129025984,-43.5653350851241],[172.736054751628,-43.565279679276],[172.735980892027,-43.5652629315517],[172.735868736746,-43.5652831873665],[172.73571911432197,-43.5653834709834],[172.735771247714,-43.5654238855509],[172.735490643055,-43.565592840197695],[172.735336315775,-43.5654731848852],[172.73547111070897,-43.5653814363032],[172.735601808556,-43.5652924683491]]]]}}]}