{"type":"FeatureCollection","features":[{"type":"Feature","properties":{"gml_id":"vwRatingUnit.110507","RatingUnitID":110507,"ValuationVisitOrder":"18200","drvRatingUnitLocation":null,"StreetAddressID":17310,"OccupationLevelDescription":"Ground Floor and Above","StreetAddress":"17 Cheyenne Street","LocalityName":"Upper Riccarton","ValuationRollNumber":"23414"},"geometry":{"type":"MultiPolygon","coordinates":[[[[172.551085972768,-43.5324710082961],[172.551539648444,-43.532610220600496],[172.551466395078,-43.5327366228023],[172.55101273086,-43.5325974282696],[172.551085972768,-43.5324710082961]]]]}}]}