{"type":"FeatureCollection","features":[{"type":"Feature","properties":{"gml_id":"vwRatingUnit.100104","RatingUnitID":100104,"ValuationVisitOrder":"48300","drvRatingUnitLocation":null,"StreetAddressID":27166,"OccupationLevelDescription":"Ground Floor and Above","StreetAddress":"130 Rowses Road","LocalityName":"Aranui","ValuationRollNumber":"22852"},"geometry":{"type":"MultiPolygon","coordinates":[[[[172.709894062227,-43.5171086029057],[172.71023087396898,-43.5173751513435],[172.710110000126,-43.517456015268195],[172.709772887112,-43.5172683567496],[172.709768731055,-43.5172658440823],[172.709760992447,-43.5172598571192],[172.70975474201197,-43.5172530278425],[172.709750114938,-43.5172455366069],[172.709747271021,-43.5172375908312],[172.70974627103,-43.517229415685996],[172.70974715103796,-43.5172212272787],[172.709749885194,-43.517213259562],[172.70975439826296,-43.5172057283627],[172.70976055317,-43.5171988493515],[172.709768188232,-43.517192811135],[172.709894062227,-43.5171086029057]]]]}}]}