{"type":"FeatureCollection","features":[{"type":"Feature","properties":{"gml_id":"vwRatingUnit.113760","RatingUnitID":113760,"ValuationVisitOrder":"20700","drvRatingUnitLocation":null,"StreetAddressID":98839,"OccupationLevelDescription":"Ground Floor and Above","StreetAddress":"49 Kathleen Crescent","LocalityName":"Islington","ValuationRollNumber":"23432"},"geometry":{"type":"MultiPolygon","coordinates":[[[[172.516160283113,-43.5416508863587],[172.51622516486597,-43.541896254479994],[172.516360666899,-43.54196947926269],[172.516403361578,-43.5421309283457],[172.516088044833,-43.5421750493463],[172.51608372011196,-43.5421587034736],[172.51604784975098,-43.5420230346248],[172.516011979552,-43.5418873657584],[172.516170857401,-43.541865135082396],[172.516115850533,-43.541657099306796],[172.516160283113,-43.5416508863587]]]]}}]}