{"type":"FeatureCollection","features":[{"type":"Feature","properties":{"gml_id":"vwRatingUnit.103130","RatingUnitID":103130,"ValuationVisitOrder":"44400","drvRatingUnitLocation":null,"StreetAddressID":128733,"OccupationLevelDescription":"Ground Floor and Above","StreetAddress":"9 Tuawera Terrace","LocalityName":"Clifton","ValuationRollNumber":"22911"},"geometry":{"type":"MultiPolygon","coordinates":[[[[172.7527947467,-43.5673209651934],[172.752542857677,-43.5675855714684],[172.752360511035,-43.567577476461],[172.752324046855,-43.5674549196828],[172.752659112754,-43.5673533377507],[172.7527947467,-43.5673209651934]]]]}}]}