{"type":"FeatureCollection","features":[{"type":"Feature","properties":{"gml_id":"vwRatingUnit.104128","RatingUnitID":104128,"ValuationVisitOrder":"37300","drvRatingUnitLocation":null,"StreetAddressID":63374,"OccupationLevelDescription":"Ground Floor and Above","StreetAddress":"25 Menzies Street","LocalityName":"Sumner","ValuationRollNumber":"22920"},"geometry":{"type":"MultiPolygon","coordinates":[[[[172.76394396875696,-43.5742458737736],[172.764331005962,-43.5744755536086],[172.764222746342,-43.574572015784696],[172.763835684024,-43.5743423715456],[172.76394396875696,-43.5742458737736]]]]}}]}