{"type":"FeatureCollection","features":[{"type":"Feature","properties":{"gml_id":"vwRatingUnit.106984","RatingUnitID":106984,"ValuationVisitOrder":"8600","drvRatingUnitLocation":null,"StreetAddressID":44583,"OccupationLevelDescription":"Ground Floor and Above","StreetAddress":"11 Herdman Street","LocalityName":"Hoon Hay","ValuationRollNumber":"22970"},"geometry":{"type":"MultiPolygon","coordinates":[[[[172.589304479643,-43.56122750975939],[172.589610836496,-43.5615058511659],[172.589486167365,-43.5615783944279],[172.589460385937,-43.561593045858096],[172.58916068699097,-43.5613112174876],[172.589304479643,-43.56122750975939]]]]}}]}