{"type":"FeatureCollection","features":[{"type":"Feature","properties":{"gml_id":"vwRatingUnit.106690","RatingUnitID":106690,"ValuationVisitOrder":"48700","drvRatingUnitLocation":null,"StreetAddressID":54923,"OccupationLevelDescription":"Ground Floor and Above","StreetAddress":"204 Hoon Hay Road","LocalityName":"Hoon Hay","ValuationRollNumber":"22960"},"geometry":{"type":"MultiPolygon","coordinates":[[[[172.61000364228298,-43.5663558664407],[172.610055118343,-43.5664883238535],[172.609422501431,-43.5666184768043],[172.609393067994,-43.56654275319729],[172.609371014079,-43.5664860460639],[172.61000364228298,-43.5663558664407]]]]}}]}