{"type":"FeatureCollection","features":[{"type":"Feature","properties":{"gml_id":"vwRatingUnit.115949","RatingUnitID":115949,"ValuationVisitOrder":"3629","drvRatingUnitLocation":null,"StreetAddressID":124616,"OccupationLevelDescription":"Ground Floor and Above","StreetAddress":"81 Springs Road","LocalityName":"Hornby","ValuationRollNumber":"23435"},"geometry":{"type":"MultiPolygon","coordinates":[[[[172.539086598163,-43.549420068543895],[172.539249597592,-43.5496202520731],[172.539311614611,-43.5496964225061],[172.539114611851,-43.5497807017466],[172.53911031656696,-43.5497824937372],[172.538887955687,-43.5495019736044],[172.539086598163,-43.549420068543895]]]]}}]}