{"type":"FeatureCollection","features":[{"type":"Feature","properties":{"gml_id":"vwRatingUnit.103225","RatingUnitID":103225,"ValuationVisitOrder":"56300","drvRatingUnitLocation":null,"StreetAddressID":139302,"OccupationLevelDescription":"Ground Floor and Above","StreetAddress":"288 Main Road","LocalityName":"Clifton","ValuationRollNumber":"22911"},"geometry":{"type":"MultiPolygon","coordinates":[[[[172.74985663555,-43.5642199482494],[172.749621494059,-43.5640918118014],[172.749627969786,-43.5640157625986],[172.749636814754,-43.5639173162795],[172.749738992391,-43.5639318754573],[172.749858588114,-43.5639396498776],[172.750035040836,-43.5640242044689],[172.749891299654,-43.5641819151761],[172.74985663555,-43.5642199482494]]]]}}]}