{"type":"FeatureCollection","features":[{"type":"Feature","properties":{"gml_id":"vwRatingUnit.103416","RatingUnitID":103416,"ValuationVisitOrder":"78501","drvRatingUnitLocation":null,"StreetAddressID":51699,"OccupationLevelDescription":"Ground Floor and Above","StreetAddress":"2/7 Sumnervale Drive","LocalityName":"Sumner","ValuationRollNumber":"22911"},"geometry":{"type":"MultiPolygon","coordinates":[[[[172.755462376347,-43.5818897117137],[172.755473948311,-43.5818980387746],[172.755583093472,-43.58197657856509],[172.755605666414,-43.5819928217189],[172.755608394718,-43.581994785087495],[172.755609916622,-43.5819958801638],[172.755608385655,-43.5819970517015],[172.755549178887,-43.5820423614324],[172.755426387337,-43.58213633134379],[172.755420281184,-43.582131936954994],[172.75528277317298,-43.5820329799553],[172.755255610853,-43.5820134325839],[172.755462376347,-43.5818897117137]]]]}}]}