{"type":"FeatureCollection","features":[{"type":"Feature","properties":{"gml_id":"vwRatingUnit.112341","RatingUnitID":112341,"ValuationVisitOrder":"36300","drvRatingUnitLocation":null,"StreetAddressID":44784,"OccupationLevelDescription":"Ground Floor and Above","StreetAddress":"11 Manurere Street","LocalityName":"Hei Hei","ValuationRollNumber":"23421"},"geometry":{"type":"MultiPolygon","coordinates":[[[[172.520154412075,-43.5342593956356],[172.520604772967,-43.5344874840344],[172.520589517924,-43.5345032801675],[172.520544956025,-43.5345518346889],[172.520497275378,-43.5346068028775],[172.520061744061,-43.53441220542769],[172.520151376673,-43.5342646575374],[172.520154412075,-43.5342593956356]]]]}}]}