{"type":"FeatureCollection","features":[{"type":"Feature","properties":{"gml_id":"vwRatingUnit.117962","RatingUnitID":117962,"ValuationVisitOrder":"16000","drvRatingUnitLocation":null,"StreetAddressID":63123,"OccupationLevelDescription":"Ground Floor and Above","StreetAddress":"25 Fern Drive","LocalityName":"Oaklands","ValuationRollNumber":"23444"},"geometry":{"type":"MultiPolygon","coordinates":[[[[172.564010649269,-43.5772760530474],[172.564182449857,-43.5773337760296],[172.563975696622,-43.5776592273614],[172.563822458797,-43.5776077307898],[172.563803895368,-43.577601495081296],[172.564010649269,-43.5772760530474]]]]}}]}