{"type":"FeatureCollection","features":[{"type":"Feature","properties":{"gml_id":"vwRatingUnit.105531","RatingUnitID":105531,"ValuationVisitOrder":"6900","drvRatingUnitLocation":null,"StreetAddressID":51996,"OccupationLevelDescription":"Ground Floor and Above","StreetAddress":"2/74 Hoon Hay Road","LocalityName":"Hoon Hay","ValuationRollNumber":"22952"},"geometry":{"type":"MultiPolygon","coordinates":[[[[172.600552854951,-43.5586222102608],[172.600538936694,-43.558609842479],[172.600524478987,-43.5585969953343],[172.600509650615,-43.5585838188083],[172.600493716441,-43.5585696596554],[172.600480364561,-43.558557795129694],[172.60046295392198,-43.5585423239679],[172.600451078532,-43.5585317714434],[172.600419886443,-43.5585040539908],[172.600419837869,-43.5585040108276],[172.600419886927,-43.5585039800681],[172.60062225783997,-43.5583770929012],[172.600627998131,-43.5583813074135],[172.60063418628,-43.5583813288403],[172.600637265625,-43.5583835896893],[172.60063720670396,-43.55839259023249],[172.600643365395,-43.5583971119303],[172.600643335935,-43.5584016122019],[172.600698764197,-43.5584423074672],[172.600698705285,-43.5584513080102],[172.60073873686,-43.5584806990178],[172.60074492501997,-43.5584807204385],[172.600751564534,-43.5584855951362],[172.60055668038,-43.5586195802438],[172.600552854951,-43.5586222102608]]]]}}]}