{"type":"FeatureCollection","features":[{"type":"Feature","properties":{"gml_id":"vwRatingUnit.100799","RatingUnitID":100799,"ValuationVisitOrder":"39400","drvRatingUnitLocation":null,"StreetAddressID":44191,"OccupationLevelDescription":"Ground Floor and Above","StreetAddress":"11 Cave Terrace","LocalityName":"Moncks Spur","ValuationRollNumber":"22900"},"geometry":{"type":"MultiPolygon","coordinates":[[[[172.73796909287296,-43.5646002768336],[172.738128596743,-43.5646708875413],[172.73794221306497,-43.5648934977],[172.737782696444,-43.5648228867139],[172.737541976765,-43.564716331992095],[172.73776118080997,-43.564567133184],[172.73779861711296,-43.5645540684023],[172.737839569298,-43.5645523792407],[172.737879155104,-43.5645604705267],[172.73796909287296,-43.5646002768336]]]]}}]}