{"type":"FeatureCollection","features":[{"type":"Feature","properties":{"gml_id":"vwRatingUnit.104988","RatingUnitID":104988,"ValuationVisitOrder":"40801","drvRatingUnitLocation":null,"StreetAddressID":130262,"OccupationLevelDescription":"Ground Floor and Above","StreetAddress":"91 Heberden Avenue","LocalityName":"Scarborough","ValuationRollNumber":"22931"},"geometry":{"type":"MultiPolygon","coordinates":[[[[172.760497607811,-43.5808588327177],[172.76137491985997,-43.5817386289251],[172.761157169482,-43.5818985584091],[172.760251836974,-43.5809880560294],[172.760497607811,-43.5808588327177]]]]}}]}