{"type":"FeatureCollection","features":[{"type":"Feature","properties":{"gml_id":"vwRatingUnit.100509","RatingUnitID":100509,"ValuationVisitOrder":"21703","drvRatingUnitLocation":null,"StreetAddressID":74980,"OccupationLevelDescription":"Ground Floor and Above","StreetAddress":"30 Celia Street","LocalityName":"Redcliffs","ValuationRollNumber":"22900"},"geometry":{"type":"MultiPolygon","coordinates":[[[[172.737124859783,-43.5587490157366],[172.737148338298,-43.5587402666599],[172.737165621887,-43.5587647064498],[172.737138674302,-43.558768560343],[172.737124859783,-43.5587490157366]]]]}}]}