{"type":"FeatureCollection","features":[{"type":"Feature","properties":{"gml_id":"vwRatingUnit.108826","RatingUnitID":108826,"ValuationVisitOrder":"46700","drvRatingUnitLocation":null,"StreetAddressID":73302,"OccupationLevelDescription":"Ground Floor and Above","StreetAddress":"3/24 Hayton Road","LocalityName":"Sockburn","ValuationRollNumber":"23411"},"geometry":{"type":"MultiPolygon","coordinates":[[[[172.553118301152,-43.5414958555296],[172.553367167164,-43.5414968215903],[172.553367081682,-43.5415890826393],[172.553118206011,-43.5415898449819],[172.553118301152,-43.5414958555296]]]]}}]}