{"type":"FeatureCollection","features":[{"type":"Feature","properties":{"gml_id":"vwRatingUnit.104791","RatingUnitID":104791,"ValuationVisitOrder":"13300","drvRatingUnitLocation":null,"StreetAddressID":139178,"OccupationLevelDescription":"Ground Floor and Above","StreetAddress":"8 Searidge Lane","LocalityName":"Scarborough","ValuationRollNumber":"22931"},"geometry":{"type":"MultiPolygon","coordinates":[[[[172.776228508407,-43.5713115715134],[172.775839018692,-43.5712580385564],[172.775633280374,-43.571265343928594],[172.775843415151,-43.5710583902588],[172.77653607098,-43.5710447451494],[172.776228508407,-43.5713115715134]]]]}}]}