{"type":"FeatureCollection","features":[{"type":"Feature","properties":{"gml_id":"vwRatingUnit.116635","RatingUnitID":116635,"ValuationVisitOrder":"51100","drvRatingUnitLocation":null,"StreetAddressID":53327,"OccupationLevelDescription":"Ground Floor and Above","StreetAddress":"20 Arkwright Place","LocalityName":"Oaklands","ValuationRollNumber":"23441"},"geometry":{"type":"MultiPolygon","coordinates":[[[[172.557800114557,-43.5723601396949],[172.55814202113,-43.5725486304426],[172.558007374093,-43.5726777257981],[172.55766549202596,-43.5724892257543],[172.557800114557,-43.5723601396949]]]]}}]}