{"type":"FeatureCollection","features":[{"type":"Feature","properties":{"gml_id":"vwRatingUnit.108336","RatingUnitID":108336,"ValuationVisitOrder":"56800","drvRatingUnitLocation":null,"StreetAddressID":100458,"OccupationLevelDescription":"Ground Floor and Above","StreetAddress":"5 Neave Place","LocalityName":"Hillmorton","ValuationRollNumber":"22980"},"geometry":{"type":"MultiPolygon","coordinates":[[[[172.581337842274,-43.5569969549201],[172.581359145639,-43.55702166745319],[172.581382689189,-43.5570445699607],[172.58146119300199,-43.557114836178],[172.581068258507,-43.5573468528531],[172.580887008367,-43.5571843597676],[172.581337842274,-43.5569969549201]]]]}}]}