{"type":"FeatureCollection","features":[{"type":"Feature","properties":{"gml_id":"vwRatingUnit.115210","RatingUnitID":115210,"ValuationVisitOrder":"22500","drvRatingUnitLocation":null,"StreetAddressID":5612,"OccupationLevelDescription":"Ground Floor and Above","StreetAddress":"2/1B Dickson Crescent","LocalityName":"Hornby","ValuationRollNumber":"23434"},"geometry":{"type":"MultiPolygon","coordinates":[[[[172.536355191022,-43.5458999914087],[172.536367706647,-43.5459101469002],[172.53637301098496,-43.5459144509244],[172.536425467716,-43.5459570157397],[172.53642669755897,-43.5459580138371],[172.536428139383,-43.54595702649339],[172.536428501095,-43.5459567789478],[172.53642880935496,-43.5459570291901],[172.536509782881,-43.5460227542934],[172.536331441132,-43.5461371069334],[172.536319288261,-43.546127252106594],[172.536236189099,-43.5460598661808],[172.536263933448,-43.5460417961038],[172.536234660759,-43.54601805557449],[172.536208332551,-43.5459967025465],[172.536355191022,-43.5458999914087]]]]}}]}