{"type":"FeatureCollection","features":[{"type":"Feature","properties":{"gml_id":"vwRatingUnit.101308","RatingUnitID":101308,"ValuationVisitOrder":"800","drvRatingUnitLocation":null,"StreetAddressID":57876,"OccupationLevelDescription":"Ground Floor and Above","StreetAddress":"22 Main Road","LocalityName":"St Andrews Hill","ValuationRollNumber":"22901"},"geometry":{"type":"MultiPolygon","coordinates":[[[[172.71148373742,-43.5573479114484],[172.711677853748,-43.5575058435069],[172.71191221254898,-43.5576965027362],[172.711930290329,-43.5576842080594],[172.71203282973698,-43.557767620191896],[172.712012416262,-43.5578237868582],[172.711880500247,-43.5579019697173],[172.711317640514,-43.5574597514004],[172.71148373742,-43.5573479114484]]]]}}]}