{"type":"FeatureCollection","features":[{"type":"Feature","properties":{"gml_id":"vwRatingUnit.102023","RatingUnitID":102023,"ValuationVisitOrder":"82900","drvRatingUnitLocation":null,"StreetAddressID":44874,"OccupationLevelDescription":"Ground Floor and Above","StreetAddress":"11 Muritai Terrace","LocalityName":"Mt Pleasant","ValuationRollNumber":"22901"},"geometry":{"type":"MultiPolygon","coordinates":[[[[172.717742638476,-43.5674130058663],[172.717866559174,-43.5675168777744],[172.71747282095197,-43.5678032127427],[172.71730180319497,-43.5677336612445],[172.71754970686598,-43.56755333876589],[172.717742638476,-43.5674130058663]]]]}}]}