{"type":"FeatureCollection","features":[{"type":"Feature","properties":{"gml_id":"vwRatingUnit.116400","RatingUnitID":116400,"ValuationVisitOrder":"17800","drvRatingUnitLocation":null,"StreetAddressID":116318,"OccupationLevelDescription":"Ground Floor and Above","StreetAddress":"7 Eskdale Place","LocalityName":"Westlake","ValuationRollNumber":"23441"},"geometry":{"type":"MultiPolygon","coordinates":[[[[172.557875937468,-43.5692023144474],[172.55791681529698,-43.5693300394142],[172.557910051773,-43.569535645595],[172.558209870209,-43.5696620946735],[172.55819123166697,-43.5696854433242],[172.55782681916,-43.56953175315229],[172.55771683398999,-43.569548576877],[172.557627613857,-43.5692403084991],[172.557657901489,-43.5692356722691],[172.557875937468,-43.5692023144474]]]]}}]}