{"type":"FeatureCollection","features":[{"type":"Feature","properties":{"gml_id":"vwRatingUnit.101141","RatingUnitID":101141,"ValuationVisitOrder":"54411","drvRatingUnitLocation":null,"StreetAddressID":139454,"OccupationLevelDescription":"Ground Floor and Above","StreetAddress":"22 Balmoral Lane","LocalityName":"Redcliffs","ValuationRollNumber":"22900"},"geometry":{"type":"MultiPolygon","coordinates":[[[[172.73141869964297,-43.557982466925],[172.731452207758,-43.5580036871446],[172.731417099067,-43.5580312101536],[172.731369285618,-43.5580686941994],[172.731232765355,-43.5581553667652],[172.73121896337497,-43.5581446779921],[172.731061160313,-43.5580223621555],[172.731473586739,-43.5575016504297],[172.731455817621,-43.557360291521],[172.731382899539,-43.5572839142659],[172.731434296933,-43.5572587062942],[172.731055826837,-43.5569069029381],[172.731060634905,-43.5569055010521],[172.731441508551,-43.5572595331183],[172.731389863086,-43.5572848665237],[172.731460649913,-43.5573590156822],[172.73147868209,-43.5575024723292],[172.731224387132,-43.55782353315819],[172.731467576625,-43.5579085691266],[172.73141869964297,-43.557982466925]]]]}}]}