{"type":"FeatureCollection","features":[{"type":"Feature","properties":{"gml_id":"vwRatingUnit.105081","RatingUnitID":105081,"ValuationVisitOrder":"9000","drvRatingUnitLocation":null,"StreetAddressID":70563,"OccupationLevelDescription":"Ground Floor and Above","StreetAddress":"2B Smartlea Street","LocalityName":"Hoon Hay","ValuationRollNumber":"22951"},"geometry":{"type":"MultiPolygon","coordinates":[[[[172.604642349875,-43.5597812512294],[172.604643547622,-43.5597802804183],[172.604645049388,-43.5597812604818],[172.60478614436298,-43.5598733399092],[172.604791789661,-43.5598770240547],[172.604787185784,-43.5598807556622],[172.604786090573,-43.5598816433699],[172.604771086728,-43.5598938045202],[172.604736321716,-43.5599219827735],[172.604721390921,-43.5599340846917],[172.604686552793,-43.5599623221555],[172.60467169504798,-43.5599743648418],[172.604636783804,-43.560002661516094],[172.604621999109,-43.560014644970394],[172.604618120416,-43.56001778877069],[172.60461578744997,-43.5600196797116],[172.604587014749,-43.560043000855096],[172.604587020698,-43.5600420829471],[172.60458392654,-43.5600420723406],[172.60454081251797,-43.5600104219628],[172.604534624205,-43.5600104007472],[172.604528465063,-43.5600058792629],[172.60452227674998,-43.5600058580467],[172.60451611760897,-43.56000133656179],[172.604509929296,-43.5600013153448],[172.60443909925198,-43.5599493182397],[172.604439113842,-43.5599470681055],[172.604437776671,-43.55994706352009],[172.60443912093598,-43.5599459739601],[172.604642349875,-43.5597812512294]]]]}}]}