{"type":"FeatureCollection","features":[{"type":"Feature","properties":{"gml_id":"vwRatingUnit.104569","RatingUnitID":104569,"ValuationVisitOrder":"70100","drvRatingUnitLocation":null,"StreetAddressID":97986,"OccupationLevelDescription":"Ground Floor and Above","StreetAddress":"48 Esplanade","LocalityName":"Sumner","ValuationRollNumber":"22920"},"geometry":{"type":"MultiPolygon","coordinates":[[[[172.760654463178,-43.5681522687596],[172.76073420651096,-43.5682621856321],[172.76037884355097,-43.5684409369091],[172.76037507872198,-43.5684382469632],[172.760255900768,-43.56835301735969],[172.760654463178,-43.5681522687596]]]]}}]}