{"type":"FeatureCollection","features":[{"type":"Feature","properties":{"gml_id":"vwRatingUnit.115842","RatingUnitID":115842,"ValuationVisitOrder":"2504","drvRatingUnitLocation":null,"StreetAddressID":99744,"OccupationLevelDescription":"Ground Floor and Above","StreetAddress":"5 Caudron Road","LocalityName":"Hornby","ValuationRollNumber":"23435"},"geometry":{"type":"MultiPolygon","coordinates":[[[[172.542264722558,-43.5472516764257],[172.54251658888097,-43.5469997434484],[172.542694285635,-43.5470937522084],[172.54268015993,-43.5471078184984],[172.54262751627698,-43.5472632886271],[172.54247317959496,-43.547387319799],[172.542264722558,-43.5472516764257]]]]}}]}