{"type":"FeatureCollection","features":[{"type":"Feature","properties":{"gml_id":"vwRatingUnit.100934","RatingUnitID":100934,"ValuationVisitOrder":"44200","drvRatingUnitLocation":null,"StreetAddressID":126103,"OccupationLevelDescription":"Ground Floor and Above","StreetAddress":"86 Moncks Spur Road","LocalityName":"Moncks Spur","ValuationRollNumber":"22900"},"geometry":{"type":"MultiPolygon","coordinates":[[[[172.73499559061,-43.5667004614169],[172.735105018527,-43.56655628107699],[172.73551832456698,-43.5667321259393],[172.735384689898,-43.5668982394778],[172.735123611373,-43.5667871869293],[172.735144327932,-43.56676247400289],[172.73499559061,-43.5667004614169]]]]}}]}