{"type":"FeatureCollection","features":[{"type":"Feature","properties":{"gml_id":"vwRatingUnit.115755","RatingUnitID":115755,"ValuationVisitOrder":"71500","drvRatingUnitLocation":null,"StreetAddressID":224909,"OccupationLevelDescription":"Ground Floor and Above","StreetAddress":"37 Brynley Street","LocalityName":"Hornby","ValuationRollNumber":"23434"},"geometry":{"type":"MultiPolygon","coordinates":[[[[172.530331278528,-43.5454057718638],[172.530376366657,-43.5453761958585],[172.530344558274,-43.5453990753433],[172.530344540943,-43.5454013254983],[172.530344523612,-43.545403575653296],[172.53034759971,-43.5454058384234],[172.530353786567,-43.5454058636535],[172.530424536878,-43.5454579073397],[172.530424467566,-43.5454669079595],[172.530469765045,-43.545500228554594],[172.530189278314,-43.5456842206535],[172.53018177359797,-43.5456891435302],[172.530175600687,-43.5456841648567],[172.530055070179,-43.5455869524561],[172.530065357144,-43.5455802046878],[172.530093699925,-43.5455616131373],[172.530126723753,-43.5455399510134],[172.530164366769,-43.5455152588824],[172.530194908778,-43.5454952246704],[172.530232641317,-43.5454704737581],[172.530263093703,-43.545450498287195],[172.530305700135,-43.545422550243],[172.530331278528,-43.5454057718638]]]]}}]}