{"type":"FeatureCollection","features":[{"type":"Feature","properties":{"gml_id":"vwRatingUnit.118372","RatingUnitID":118372,"ValuationVisitOrder":"12600","drvRatingUnitLocation":null,"StreetAddressID":127471,"OccupationLevelDescription":"Ground Floor and Above","StreetAddress":"9 Birchdale Place","LocalityName":"Halswell","ValuationRollNumber":"23445"},"geometry":{"type":"MultiPolygon","coordinates":[[[[172.570436214415,-43.5919201082424],[172.570453187408,-43.5920527248715],[172.57047669133397,-43.592239208042],[172.570069259364,-43.5921198182863],[172.570066961599,-43.592111997112],[172.5700616195,-43.5921003753014],[172.570054527759,-43.5920892600157],[172.57004578449,-43.5920787866306],[172.570035487872,-43.5920690815213],[172.570023773233,-43.5920602712014],[172.57001940791298,-43.5920576537384],[172.57015935958597,-43.5919390684326],[172.570436214415,-43.5919201082424]]]]}}]}