{"type":"FeatureCollection","features":[{"type":"Feature","properties":{"gml_id":"vwRatingUnit.103307","RatingUnitID":103307,"ValuationVisitOrder":"66800","drvRatingUnitLocation":null,"StreetAddressID":129631,"OccupationLevelDescription":"Ground Floor and Above","StreetAddress":"200 Evans Pass Road","LocalityName":"Clifton","ValuationRollNumber":"22911"},"geometry":{"type":"MultiPolygon","coordinates":[[[[172.745045393586,-43.59461799844],[172.74504744805,-43.5946301715352],[172.746573677722,-43.594434234473],[172.747444188687,-43.5940761105119],[172.747208458578,-43.5943210646128],[172.747019672839,-43.5946708046836],[172.746570294449,-43.5947665136014],[172.746207812462,-43.5949692822485],[172.744875044485,-43.595466795066],[172.743604841119,-43.5957875098678],[172.743334615144,-43.5957396320352],[172.743556899851,-43.5950028278341],[172.74352018774897,-43.5949483389604],[172.744442475473,-43.5947117408574],[172.745045393586,-43.59461799844]]]]}}]}