{"type":"FeatureCollection","features":[{"type":"Feature","properties":{"gml_id":"vwRatingUnit.106231","RatingUnitID":106231,"ValuationVisitOrder":"8400","drvRatingUnitLocation":null,"StreetAddressID":117229,"OccupationLevelDescription":"Ground Floor and Above","StreetAddress":"7 Tekoa Place","LocalityName":"Hoon Hay","ValuationRollNumber":"22960"},"geometry":{"type":"MultiPolygon","coordinates":[[[[172.61306308621297,-43.5713253354212],[172.613216036535,-43.5714846202693],[172.613498302571,-43.571778565287],[172.61345499675298,-43.5718005529737],[172.613172730823,-43.57150660785089],[172.6130155161,-43.5715864210567],[172.612858288585,-43.5716662340074],[172.612813339417,-43.5716194236488],[172.61270533873096,-43.571506948689],[172.612780599269,-43.57146874122649],[172.61306308621297,-43.5713253354212]]]]}}]}