{"type":"FeatureCollection","features":[{"type":"Feature","properties":{"gml_id":"vwRatingUnit.109873","RatingUnitID":109873,"ValuationVisitOrder":"40500","drvRatingUnitLocation":null,"StreetAddressID":86409,"OccupationLevelDescription":"Ground Floor and Above","StreetAddress":"39 Middlepark Road","LocalityName":"Upper Riccarton","ValuationRollNumber":"23413"},"geometry":{"type":"MultiPolygon","coordinates":[[[[172.55748401581,-43.53132887338829],[172.557980383608,-43.5313614738541],[172.55796766491898,-43.531464017155194],[172.557958020611,-43.531541792809996],[172.557461614306,-43.5315091831175],[172.55748401581,-43.53132887338829]]]]}}]}