{"type":"FeatureCollection","features":[{"type":"Feature","properties":{"gml_id":"vwRatingUnit.110146","RatingUnitID":110146,"ValuationVisitOrder":"61600","drvRatingUnitLocation":null,"StreetAddressID":106866,"OccupationLevelDescription":"Ground Floor and Above","StreetAddress":"57 Epsom Road","LocalityName":"Sockburn","ValuationRollNumber":"23413"},"geometry":{"type":"MultiPolygon","coordinates":[[[[172.549664899763,-43.5355051682229],[172.549779289047,-43.5356211511408],[172.54926985530798,-43.53589246074329],[172.549151942068,-43.5357729081678],[172.549664899763,-43.5355051682229]]]]}}]}