{"type":"FeatureCollection","features":[{"type":"Feature","properties":{"gml_id":"vwRatingUnit.104868","RatingUnitID":104868,"ValuationVisitOrder":"26700","drvRatingUnitLocation":null,"StreetAddressID":23747,"OccupationLevelDescription":"Ground Floor and Above","StreetAddress":"141 Taylors Mistake Road","LocalityName":"Scarborough","ValuationRollNumber":"22931"},"geometry":{"type":"MultiPolygon","coordinates":[[[[172.77484733622398,-43.5791963656778],[172.774766088995,-43.579026810618],[172.77462357255,-43.5787294201615],[172.774858742828,-43.5785598689957],[172.774916535783,-43.5786804790987],[172.774787463658,-43.5787126294691],[172.774831945082,-43.5787868975237],[172.774860356529,-43.578780580509296],[172.774824158989,-43.5789781683511],[172.774854590388,-43.5790419415553],[172.77487929408497,-43.579040648557],[172.774948191954,-43.5791850323376],[172.77484733622398,-43.5791963656778]]]]}}]}