{"type":"FeatureCollection","features":[{"type":"Feature","properties":{"gml_id":"vwRatingUnit.108989","RatingUnitID":108989,"ValuationVisitOrder":"9800","drvRatingUnitLocation":null,"StreetAddressID":59277,"OccupationLevelDescription":"Ground Floor and Above","StreetAddress":"23 Ballantyne Avenue","LocalityName":"Upper Riccarton","ValuationRollNumber":"23412"},"geometry":{"type":"MultiPolygon","coordinates":[[[[172.570597494205,-43.53343199517299],[172.570619879651,-43.533591132937595],[172.570130102457,-43.5336275855304],[172.570106975619,-43.53346849889369],[172.570597494205,-43.53343199517299]]]]}}]}