{"type":"FeatureCollection","features":[{"type":"Feature","properties":{"gml_id":"vwRatingUnit.108595","RatingUnitID":108595,"ValuationVisitOrder":"21300","drvRatingUnitLocation":null,"StreetAddressID":100277,"OccupationLevelDescription":"Ground Floor and Above","StreetAddress":"5 Kotzikas Place","LocalityName":"Sockburn","ValuationRollNumber":"23411"},"geometry":{"type":"MultiPolygon","coordinates":[[[[172.570221349094,-43.5451892016163],[172.57053289834496,-43.545468975553],[172.570799273538,-43.5457081845283],[172.570635692368,-43.545804261769],[172.570298662383,-43.5460022382914],[172.569720751664,-43.5454832619444],[172.570221349094,-43.5451892016163]]]]}}]}