{"type":"FeatureCollection","features":[{"type":"Feature","properties":{"gml_id":"vwRatingUnit.115965","RatingUnitID":115965,"ValuationVisitOrder":"6600","drvRatingUnitLocation":null,"StreetAddressID":85838,"OccupationLevelDescription":"Ground Floor and Above","StreetAddress":"386 Halswell Junction Road","LocalityName":"Halswell","ValuationRollNumber":"23435"},"geometry":{"type":"MultiPolygon","coordinates":[[[[172.539190882252,-43.5666829733922],[172.539428561091,-43.5668336519969],[172.538571118739,-43.5675339534791],[172.538408277145,-43.5674327173344],[172.53840032409,-43.5674269699642],[172.538393259151,-43.5674200020361],[172.53838778414,-43.567412311405896],[172.53838404616297,-43.5674040876805],[172.538382117854,-43.5673955471706],[172.538382084361,-43.567386888235795],[172.538383906914,-43.5673783267406],[172.53838755905198,-43.567370087600096],[172.538392952629,-43.5673623684792],[172.538399950054,-43.56735535784449],[172.539190882252,-43.5666829733922]]]]}}]}