{"type":"FeatureCollection","features":[{"type":"Feature","properties":{"gml_id":"vwRatingUnit.114129","RatingUnitID":114129,"ValuationVisitOrder":"61400","drvRatingUnitLocation":null,"StreetAddressID":89978,"OccupationLevelDescription":"Ground Floor and Above","StreetAddress":"4/451 Main South Road","LocalityName":"Hornby","ValuationRollNumber":"23432"},"geometry":{"type":"MultiPolygon","coordinates":[[[[172.520127352813,-43.5447702428657],[172.520316090693,-43.5449236397731],[172.520177920482,-43.5450216837774],[172.520158872578,-43.54500620662879],[172.519992378023,-43.54487092011989],[172.520127352813,-43.5447702428657]]]]}}]}