{"type":"FeatureCollection","features":[{"type":"Feature","properties":{"gml_id":"vwRatingUnit.115504","RatingUnitID":115504,"ValuationVisitOrder":"50900","drvRatingUnitLocation":null,"StreetAddressID":98128,"OccupationLevelDescription":"Ground Floor and Above","StreetAddress":"48 Neill Street","LocalityName":"Hornby","ValuationRollNumber":"23434"},"geometry":{"type":"MultiPolygon","coordinates":[[[[172.534632318891,-43.54618114620169],[172.534667528031,-43.546209758289],[172.53417815376,-43.54652849984849],[172.53430382590898,-43.546630772158395],[172.534345429827,-43.5466646217128],[172.53411184071197,-43.5468166742373],[172.534094279158,-43.5468023997902],[172.533909465171,-43.5466521832005],[172.533986545233,-43.54660195509009],[172.534168761113,-43.5464832143692],[172.534632318891,-43.54618114620169]]]]}}]}