{"type":"FeatureCollection","features":[{"type":"Feature","properties":{"gml_id":"vwRatingUnit.102515","RatingUnitID":102515,"ValuationVisitOrder":"39900","drvRatingUnitLocation":null,"StreetAddressID":87376,"OccupationLevelDescription":"Ground Floor and Above","StreetAddress":"4 Basil Place","LocalityName":"McCormacks Bay","ValuationRollNumber":"22902"},"geometry":{"type":"MultiPolygon","coordinates":[[[[172.726856589857,-43.5606122283774],[172.727214489214,-43.560698039492],[172.727185967782,-43.5607601658738],[172.727172311611,-43.5607916535156],[172.727158923358,-43.5608268860148],[172.727153037848,-43.5608449632019],[172.726749176257,-43.5607744070909],[172.726856589857,-43.5606122283774]]]]}}]}