{"type":"FeatureCollection","features":[{"type":"Feature","properties":{"gml_id":"vwRatingUnit.104975","RatingUnitID":104975,"ValuationVisitOrder":"40110","drvRatingUnitLocation":null,"StreetAddressID":117200,"OccupationLevelDescription":"Ground Floor and Above","StreetAddress":"7 Sunrise Lane","LocalityName":"Scarborough","ValuationRollNumber":"22931"},"geometry":{"type":"MultiPolygon","coordinates":[[[[172.772039183181,-43.5779630380833],[172.772051568069,-43.578004941482],[172.772047737605,-43.57803283526509],[172.772037852774,-43.5780874033905],[172.772024824677,-43.5781416143039],[172.772008678367,-43.57819538705],[172.771989463728,-43.57824862272109],[172.7719671935,-43.5783012223362],[172.771941917501,-43.5783531049879],[172.77191368561196,-43.578404171768],[172.771933669054,-43.5784103674539],[172.77240334624,-43.5785384683592],[172.772310396714,-43.5788171547049],[172.771767166436,-43.5785894266573],[172.771798255034,-43.5785525232215],[172.771827625465,-43.5785148873542],[172.771855265181,-43.5784765640342],[172.77188113691196,-43.5784375891907],[172.77190511605,-43.578398178589595],[172.771933311843,-43.578346832727],[172.77195866471396,-43.578294257195594],[172.771970178421,-43.578267692622894],[172.771990867834,-43.5782140548422],[172.772008365312,-43.5781598257395],[172.77202270766998,-43.5781050953928],[172.772033795438,-43.578049980613],[172.772040540501,-43.57800408271459],[172.772032309051,-43.5779705128957],[172.772036370372,-43.5779670287316],[172.772039183181,-43.5779630380833]]]]}}]}