{"type":"FeatureCollection","features":[{"type":"Feature","properties":{"gml_id":"vwRatingUnit.10990","RatingUnitID":10990,"ValuationVisitOrder":"68800","drvRatingUnitLocation":null,"StreetAddressID":12942,"OccupationLevelDescription":"Ground Floor and Above","StreetAddress":"19 Tintern Avenue","LocalityName":"Avonhead","ValuationRollNumber":"21895"},"geometry":{"type":"MultiPolygon","coordinates":[[[[172.559985744673,-43.5200291203447],[172.560557560858,-43.5202037998528],[172.560475031038,-43.5203468150933],[172.560450742435,-43.5203393955387],[172.560245597893,-43.5202767121557],[172.560015523534,-43.5202064082803],[172.559903238735,-43.5201720992827],[172.559985744673,-43.5200291203447]]]]}}]}