{"type":"FeatureCollection","features":[{"type":"Feature","properties":{"gml_id":"vwRatingUnit.110573","RatingUnitID":110573,"ValuationVisitOrder":"23900","drvRatingUnitLocation":null,"StreetAddressID":87914,"OccupationLevelDescription":"Ground Floor and Above","StreetAddress":"4 Iona Place","LocalityName":"Upper Riccarton","ValuationRollNumber":"23414"},"geometry":{"type":"MultiPolygon","coordinates":[[[[172.55615298405598,-43.5280510844701],[172.556612899192,-43.528191750407494],[172.556556021681,-43.5282900911042],[172.55645936673497,-43.5284572523626],[172.556455725432,-43.5284561492186],[172.556194777939,-43.5283765382525],[172.555934028588,-43.5282969904558],[172.556025973441,-43.528138065272],[172.556031889621,-43.5281291502019],[172.556037131567,-43.5281227887864],[172.556049562802,-43.52811105456599],[172.556064345597,-43.5281008595698],[172.556081119382,-43.528092454431],[172.556102196151,-43.5280843179142],[172.55612135292898,-43.528074832852994],[172.556138543643,-43.5280635310237],[172.55615298405598,-43.5280510844701]]]]}}]}