{"type":"FeatureCollection","features":[{"type":"Feature","properties":{"gml_id":"vwRatingUnit.115177","RatingUnitID":115177,"ValuationVisitOrder":"18800","drvRatingUnitLocation":null,"StreetAddressID":80471,"OccupationLevelDescription":"Ground Floor and Above","StreetAddress":"34 Dickson Crescent","LocalityName":"Hornby","ValuationRollNumber":"23434"},"geometry":{"type":"MultiPolygon","coordinates":[[[[172.537278489161,-43.5460915651239],[172.53761376107,-43.5463520652125],[172.537498455487,-43.5464306480323],[172.537487193311,-43.54643738047459],[172.537474838183,-43.5464430104185],[172.537461588905,-43.5464474306511],[172.537447656311,-43.5464505790128],[172.537433300665,-43.5464524025433],[172.537418732597,-43.5464528660848],[172.537404199656,-43.5464519616306],[172.537389961557,-43.5464497082257],[172.537376228453,-43.54644613371689],[172.537363247279,-43.54644131110349],[172.537351227843,-43.5464353132355],[172.53734026797798,-43.546428293521494],[172.537338509298,-43.5464268643164],[172.53733687381,-43.5464255076133],[172.537149764202,-43.546273612905395],[172.537086549969,-43.5462223058045],[172.537278489161,-43.5460915651239]]]]}}]}