{"type":"FeatureCollection","features":[{"type":"Feature","properties":{"gml_id":"vwRatingUnit.115630","RatingUnitID":115630,"ValuationVisitOrder":"58800","drvRatingUnitLocation":null,"StreetAddressID":97290,"OccupationLevelDescription":"Ground Floor and Above","StreetAddress":"47 Oakhampton Street","LocalityName":"Hornby","ValuationRollNumber":"23434"},"geometry":{"type":"MultiPolygon","coordinates":[[[[172.53235144412096,-43.5457781451017],[172.532656654205,-43.545579411069],[172.53271158742098,-43.5456240444024],[172.532788865445,-43.5456868331598],[172.532483655194,-43.545885576538595],[172.53235144412096,-43.5457781451017]]]]}}]}