{"type":"FeatureCollection","features":[{"type":"Feature","properties":{"gml_id":"vwRatingUnit.104451","RatingUnitID":104451,"ValuationVisitOrder":"63301","drvRatingUnitLocation":null,"StreetAddressID":93041,"OccupationLevelDescription":"Ground Floor and Above","StreetAddress":"42 Stoke Street","LocalityName":"Sumner","ValuationRollNumber":"22920"},"geometry":{"type":"MultiPolygon","coordinates":[[[[172.758774346982,-43.57179791626749],[172.758937633863,-43.5718335026681],[172.759126068884,-43.57194287304359],[172.75901647634,-43.5720404707252],[172.758760483883,-43.571888495034],[172.758774346982,-43.57179791626749]]]]}}]}