{"type":"FeatureCollection","features":[{"type":"Feature","properties":{"gml_id":"vwRatingUnit.107204","RatingUnitID":107204,"ValuationVisitOrder":"30500","drvRatingUnitLocation":null,"StreetAddressID":77827,"OccupationLevelDescription":"Ground Floor and Above","StreetAddress":"32 Barrowclough Street","LocalityName":"Hoon Hay","ValuationRollNumber":"22970"},"geometry":{"type":"MultiPolygon","coordinates":[[[[172.585547837386,-43.5615027732755],[172.585829854199,-43.5617943225241],[172.58568668967197,-43.5618739328804],[172.58538664538,-43.561588798997796],[172.58542533450998,-43.561567273301],[172.585503322179,-43.561525601177],[172.585547837386,-43.5615027732755]]]]}}]}