{"type":"FeatureCollection","features":[{"type":"Feature","properties":{"gml_id":"vwRatingUnit.109173","RatingUnitID":109173,"ValuationVisitOrder":"31800","drvRatingUnitLocation":null,"StreetAddressID":122678,"OccupationLevelDescription":"Ground Floor and Above","StreetAddress":"8 Homer Place","LocalityName":"Upper Riccarton","ValuationRollNumber":"23412"},"geometry":{"type":"MultiPolygon","coordinates":[[[[172.573058084914,-43.5370359276425],[172.573053946724,-43.5370455972106],[172.573050113168,-43.537061235472],[172.573049377191,-43.5370691624914],[172.57305026816198,-43.5370850432951],[172.573054303577,-43.53710065673359],[172.573061399102,-43.537115678463195],[172.573071396045,-43.537129801866],[172.573077965292,-43.5371369368984],[172.57263138378198,-43.5373720383355],[172.57262778661698,-43.5373486317731],[172.572605576353,-43.537204139680796],[172.572591992056,-43.5371157999062],[172.573058084914,-43.5370359276425]]]]}}]}