{"type":"FeatureCollection","features":[{"type":"Feature","properties":{"gml_id":"vwRatingUnit.109183","RatingUnitID":109183,"ValuationVisitOrder":"32800","drvRatingUnitLocation":null,"StreetAddressID":56147,"OccupationLevelDescription":"Ground Floor and Above","StreetAddress":"21 Roche Avenue","LocalityName":"Upper Riccarton","ValuationRollNumber":"23412"},"geometry":{"type":"MultiPolygon","coordinates":[[[[172.572605576353,-43.537204139680796],[172.57262778661698,-43.5373486317731],[172.572083053405,-43.5373930167235],[172.572061153905,-43.5372484986657],[172.572605576353,-43.537204139680796]]]]}}]}