{"type":"FeatureCollection","features":[{"type":"Feature","properties":{"gml_id":"vwRatingUnit.100686","RatingUnitID":100686,"ValuationVisitOrder":"31202","drvRatingUnitLocation":null,"StreetAddressID":112636,"OccupationLevelDescription":"Ground Floor and Above","StreetAddress":"63 Main Road","LocalityName":"Redcliffs","ValuationRollNumber":"22900"},"geometry":{"type":"MultiPolygon","coordinates":[[[[172.736387696525,-43.5596294416113],[172.736554420629,-43.55975861970119],[172.736399889392,-43.5598640593314],[172.73626159837497,-43.559756862259],[172.736291861662,-43.5597362121436],[172.736263465892,-43.55971419499679],[172.736387696525,-43.5596294416113]]]]}}]}