{"type":"FeatureCollection","features":[{"type":"Feature","properties":{"gml_id":"vwRatingUnit.113858","RatingUnitID":113858,"ValuationVisitOrder":"30000","drvRatingUnitLocation":null,"StreetAddressID":79656,"OccupationLevelDescription":"Ground Floor and Above","StreetAddress":"33 Steele Street","LocalityName":"Islington","ValuationRollNumber":"23432"},"geometry":{"type":"MultiPolygon","coordinates":[[[[172.512634253984,-43.542946759744],[172.512729999503,-43.5432984445999],[172.512553809675,-43.5433573301245],[172.512458065076,-43.5430056451207],[172.512634253984,-43.542946759744]]]]}}]}