{"type":"FeatureCollection","features":[{"type":"Feature","properties":{"gml_id":"vwRatingUnit.117827","RatingUnitID":117827,"ValuationVisitOrder":"700","drvRatingUnitLocation":null,"StreetAddressID":45321,"OccupationLevelDescription":"Ground Floor and Above","StreetAddress":"11 Wales Street","LocalityName":"Oaklands","ValuationRollNumber":"23444"},"geometry":{"type":"MultiPolygon","coordinates":[[[[172.56608031161,-43.577577208974596],[172.566645622634,-43.5777669366161],[172.566566328629,-43.5778918752512],[172.566001016745,-43.5777021382341],[172.56608031161,-43.577577208974596]]]]}}]}