{"type":"FeatureCollection","features":[{"type":"Feature","properties":{"gml_id":"vwRatingUnit.108249","RatingUnitID":108249,"ValuationVisitOrder":"48800","drvRatingUnitLocation":null,"StreetAddressID":20144,"OccupationLevelDescription":"Ground Floor and Above","StreetAddress":"152 Halswell Road","LocalityName":"Hillmorton","ValuationRollNumber":"22980"},"geometry":{"type":"MultiPolygon","coordinates":[[[[172.58463006512,-43.5588741343497],[172.58502251709098,-43.5592255160121],[172.58486405115,-43.5593191204612],[172.584471599476,-43.55896773826559],[172.584587454007,-43.5588992909574],[172.58463006512,-43.5588741343497]]]]}}]}