{"type":"FeatureCollection","features":[{"type":"Feature","properties":{"gml_id":"vwRatingUnit.106229","RatingUnitID":106229,"ValuationVisitOrder":"8200","drvRatingUnitLocation":null,"StreetAddressID":71878,"OccupationLevelDescription":"Ground Floor and Above","StreetAddress":"3 Tekoa Place","LocalityName":"Hoon Hay","ValuationRollNumber":"22960"},"geometry":{"type":"MultiPolygon","coordinates":[[[[172.6130155161,-43.5715864210567],[172.613297781652,-43.5718803665608],[172.61314055375797,-43.57196017989309],[172.613029341992,-43.5718443732443],[172.612921340504,-43.5717318985005],[172.612858288585,-43.5716662340074],[172.6130155161,-43.5715864210567]]]]}}]}