{"type":"FeatureCollection","features":[{"type":"Feature","properties":{"gml_id":"vwRatingUnit.110048","RatingUnitID":110048,"ValuationVisitOrder":"51700","drvRatingUnitLocation":null,"StreetAddressID":53710,"OccupationLevelDescription":"Ground Floor and Above","StreetAddress":"20 Greenhurst Street","LocalityName":"Sockburn","ValuationRollNumber":"23413"},"geometry":{"type":"MultiPolygon","coordinates":[[[[172.554848040245,-43.5367039130523],[172.554959022227,-43.536815440030594],[172.554557728049,-43.5370303232159],[172.554444620387,-43.5369168254342],[172.554848040245,-43.5367039130523]]]]}}]}