{"type":"FeatureCollection","features":[{"type":"Feature","properties":{"gml_id":"vwRatingUnit.104873","RatingUnitID":104873,"ValuationVisitOrder":"27700","drvRatingUnitLocation":null,"StreetAddressID":15962,"OccupationLevelDescription":"Ground Floor and Above","StreetAddress":"177B Taylors Mistake Road","LocalityName":"Scarborough","ValuationRollNumber":"22931"},"geometry":{"type":"MultiPolygon","coordinates":[[[[172.774846352861,-43.5808753109654],[172.775186602251,-43.580942521502195],[172.775547773158,-43.58101386679209],[172.77553784557998,-43.5810403447609],[172.775194452817,-43.5809725171381],[172.774841484996,-43.5809028067686],[172.774846352861,-43.5808753109654]]]]}}]}