{"type":"FeatureCollection","features":[{"type":"Feature","properties":{"gml_id":"vwRatingUnit.100171","RatingUnitID":100171,"ValuationVisitOrder":"58033","drvRatingUnitLocation":null,"StreetAddressID":128272,"OccupationLevelDescription":"Ground Floor and Above","StreetAddress":"9 Morganwood Street","LocalityName":"Bexley","ValuationRollNumber":"22852"},"geometry":{"type":"MultiPolygon","coordinates":[[[[172.720532544275,-43.51607462870089],[172.720656960435,-43.516253504036],[172.72062662711798,-43.5162794333806],[172.72061143433,-43.5162940496102],[172.720597031166,-43.5163090817852],[172.72058345477296,-43.51632452099529],[172.720564519764,-43.5163487858599],[172.720293518023,-43.51621097549419],[172.720176927076,-43.5161516837467],[172.720532544275,-43.51607462870089]]]]}}]}