{"type":"FeatureCollection","features":[{"type":"Feature","properties":{"gml_id":"vwRatingUnit.104960","RatingUnitID":104960,"ValuationVisitOrder":"40020","drvRatingUnitLocation":null,"StreetAddressID":72267,"OccupationLevelDescription":"Ground Floor and Above","StreetAddress":"3 Langdale Place","LocalityName":"Scarborough","ValuationRollNumber":"22931"},"geometry":{"type":"MultiPolygon","coordinates":[[[[172.77210287305496,-43.577533042021],[172.772210172039,-43.5775760953838],[172.77234541798597,-43.577564661036],[172.772304608435,-43.5777653263084],[172.77205019259597,-43.5777496505913],[172.771959514433,-43.57778772372],[172.771925796507,-43.5777662992344],[172.772078936156,-43.57756456837549],[172.77210287305496,-43.577533042021]]]]}}]}