{"type":"FeatureCollection","features":[{"type":"Feature","properties":{"gml_id":"vwRatingUnit.108576","RatingUnitID":108576,"ValuationVisitOrder":"11500","drvRatingUnitLocation":null,"StreetAddressID":113704,"OccupationLevelDescription":"Ground Floor and Above","StreetAddress":"65 Treffers Road","LocalityName":"Sockburn","ValuationRollNumber":"23411"},"geometry":{"type":"MultiPolygon","coordinates":[[[[172.574031694498,-43.54584065166699],[172.574743216689,-43.54639091804529],[172.574809340312,-43.5463542407826],[172.57485784051798,-43.5463924752898],[172.573551345451,-43.5471624454621],[172.5735046163,-43.5471204816264],[172.574079134143,-43.5467818993033],[172.573427217729,-43.5461965303914],[172.573573861425,-43.546110188426695],[172.574031694498,-43.54584065166699]]]]}}]}