{"type":"FeatureCollection","features":[{"type":"Feature","properties":{"gml_id":"vwRatingUnit.100911","RatingUnitID":100911,"ValuationVisitOrder":"43162","drvRatingUnitLocation":null,"StreetAddressID":99453,"OccupationLevelDescription":"Ground Floor and Above","StreetAddress":"4E Omeo Crescent","LocalityName":"Moncks Spur","ValuationRollNumber":"22900"},"geometry":{"type":"MultiPolygon","coordinates":[[[[172.729008032447,-43.5662400024643],[172.72902828251,-43.5662260991475],[172.729049512346,-43.5662424488927],[172.729028790409,-43.5662566931263],[172.729008032447,-43.5662400024643]]]]}}]}