{"type":"FeatureCollection","features":[{"type":"Feature","properties":{"gml_id":"vwRatingUnit.109634","RatingUnitID":109634,"ValuationVisitOrder":"14900","drvRatingUnitLocation":null,"StreetAddressID":129645,"OccupationLevelDescription":"Ground Floor and Above","StreetAddress":"40E Gladson Avenue","LocalityName":"Upper Riccarton","ValuationRollNumber":"23413"},"geometry":{"type":"MultiPolygon","coordinates":[[[[172.558761633029,-43.5301960570534],[172.558799836183,-43.5302077966686],[172.558783701194,-43.5302356015725],[172.55874548572,-43.530223852904],[172.558761633029,-43.5301960570534]]]]}}]}