{"type":"FeatureCollection","features":[{"type":"Feature","properties":{"gml_id":"vwRatingUnit.107948","RatingUnitID":107948,"ValuationVisitOrder":"25801","drvRatingUnitLocation":null,"StreetAddressID":70398,"OccupationLevelDescription":"Ground Floor and Above","StreetAddress":"29A Hoon Hay Road","LocalityName":"Hoon Hay","ValuationRollNumber":"22980"},"geometry":{"type":"MultiPolygon","coordinates":[[[[172.597086296917,-43.5554360828489],[172.597261889508,-43.55553140262529],[172.597086219935,-43.5557025680997],[172.596942369193,-43.5556244785285],[172.596738572086,-43.5558230514295],[172.596706829965,-43.5558058209078],[172.597086296917,-43.5554360828489]]]]}}]}