{"type":"FeatureCollection","features":[{"type":"Feature","properties":{"gml_id":"vwRatingUnit.112602","RatingUnitID":112602,"ValuationVisitOrder":"62500","drvRatingUnitLocation":null,"StreetAddressID":74867,"OccupationLevelDescription":"Ground Floor and Above","StreetAddress":"30 Amuri Street","LocalityName":"Hei Hei","ValuationRollNumber":"23421"},"geometry":{"type":"MultiPolygon","coordinates":[[[[172.519290494962,-43.5367657589492],[172.519533855311,-43.5368400786048],[172.519752913434,-43.5369069785898],[172.519679847395,-43.537033515034],[172.519217440496,-43.5368922951624],[172.519290494962,-43.5367657589492]]]]}}]}