{"type":"FeatureCollection","features":[{"type":"Feature","properties":{"gml_id":"vwRatingUnit.10588","RatingUnitID":10588,"ValuationVisitOrder":"33300","drvRatingUnitLocation":null,"StreetAddressID":59617,"OccupationLevelDescription":"Ground Floor and Above","StreetAddress":"23 Harrowdale Drive","LocalityName":"Avonhead","ValuationRollNumber":"21895"},"geometry":{"type":"MultiPolygon","coordinates":[[[[172.553549020143,-43.5218300381272],[172.55376279651,-43.52188434206099],[172.55358047161698,-43.5222646796847],[172.55336960838,-43.5222042841166],[172.553449523159,-43.5220375732471],[172.553549020143,-43.5218300381272]]]]}}]}