{"type":"FeatureCollection","features":[{"type":"Feature","properties":{"gml_id":"vwRatingUnit.107505","RatingUnitID":107505,"ValuationVisitOrder":"56200","drvRatingUnitLocation":null,"StreetAddressID":68254,"OccupationLevelDescription":"Ground Floor and Above","StreetAddress":"28 Salmond Street","LocalityName":"Hoon Hay","ValuationRollNumber":"22970"},"geometry":{"type":"MultiPolygon","coordinates":[[[[172.589573751228,-43.5660507209444],[172.589640992662,-43.566110977239],[172.589697369732,-43.5661615010303],[172.589316490366,-43.5663861628459],[172.589192872089,-43.5662753823563],[172.589573751228,-43.5660507209444]]]]}}]}