{"type":"FeatureCollection","features":[{"type":"Feature","properties":{"gml_id":"vwRatingUnit.117886","RatingUnitID":117886,"ValuationVisitOrder":"8100","drvRatingUnitLocation":null,"StreetAddressID":6051,"OccupationLevelDescription":"Ground Floor and Above","StreetAddress":"2/21 Nottingham Avenue","LocalityName":"Oaklands","ValuationRollNumber":"23444"},"geometry":{"type":"MultiPolygon","coordinates":[[[[172.564157304591,-43.5767792700102],[172.56414963085098,-43.576776691732],[172.564097156634,-43.5767590610472],[172.563976440312,-43.576718506540594],[172.563989463481,-43.5766979890212],[172.56399038055,-43.5766965442125],[172.563994693978,-43.5766897485619],[172.56399664123896,-43.5766866807223],[172.563999924475,-43.5766815081024],[172.564002901927,-43.5766768172316],[172.56400515497,-43.5766732676426],[172.564009162613,-43.5766669537406],[172.56402084644597,-43.5766485462617],[172.564021683978,-43.5766472267575],[172.564026076935,-43.57664030580089],[172.56402794465797,-43.5766373632655],[172.564031307423,-43.5766320653399],[172.564034205336,-43.5766274997731],[172.56403653790898,-43.5766238248786],[172.564040466011,-43.5766176362803],[172.56405222936,-43.576599103493294],[172.564052987357,-43.5765979092937],[172.56405745984097,-43.576590863031],[172.56405924802598,-43.5765880457999],[172.564062690321,-43.5765826225685],[172.564065508694,-43.576578182305695],[172.56406792079898,-43.5765743821058],[172.564071769359,-43.5765683188112],[172.564083612224,-43.5765496607161],[172.564084290684,-43.5765485918211],[172.56408884269698,-43.5765414202523],[172.564090551344,-43.5765387283255],[172.56409407316798,-43.5765331797884],[172.564096812002,-43.5765288648295],[172.564099303637,-43.5765249393241],[172.564099938403,-43.576524482608],[172.56410303341,-43.5765244943029],[172.564112318429,-43.5765245293872],[172.564118476289,-43.5765290530365],[172.564124666303,-43.576529076425295],[172.564130824164,-43.576533600073894],[172.564143204192,-43.5765336468498],[172.564149362055,-43.5765381704974],[172.56415555206897,-43.5765381938845],[172.564161709933,-43.5765427175315],[172.56416789994796,-43.5765427409179],[172.564174057814,-43.5765472645642],[172.56418643784497,-43.5765473113354],[172.56419259571197,-43.5765518349806],[172.564198785728,-43.5765518583654],[172.564204943597,-43.5765563820099],[172.56421732363,-43.5765564287778],[172.5642234815,-43.576560952421396],[172.564229671517,-43.57656097580449],[172.564235829389,-43.57656549944739],[172.564248209424,-43.5765655462119],[172.56425436729796,-43.5765700698537],[172.564260557315,-43.5765700932352],[172.564266715191,-43.57657461687639],[172.564285285245,-43.5765746870177],[172.564286558506,-43.5765756223684],[172.564158918743,-43.57677672682289],[172.564157304591,-43.5767792700102]]]]}}]}