{"type":"FeatureCollection","features":[{"type":"Feature","properties":{"gml_id":"vwRatingUnit.104676","RatingUnitID":104676,"ValuationVisitOrder":"75000","drvRatingUnitLocation":null,"StreetAddressID":53925,"OccupationLevelDescription":"Ground Floor and Above","StreetAddress":"20 Marriner Street","LocalityName":"Sumner","ValuationRollNumber":"22920"},"geometry":{"type":"MultiPolygon","coordinates":[[[[172.757788651801,-43.5676188616997],[172.757889547973,-43.5676901858893],[172.757507427552,-43.56797571702529],[172.757406568408,-43.5679044105865],[172.757788651801,-43.5676188616997]]]]}}]}