{"type":"FeatureCollection","features":[{"type":"Feature","properties":{"gml_id":"vwRatingUnit.113208","RatingUnitID":113208,"ValuationVisitOrder":"15900","drvRatingUnitLocation":null,"StreetAddressID":104549,"OccupationLevelDescription":"Ground Floor and Above","StreetAddress":"53 Mortlake Street","LocalityName":"Islington","ValuationRollNumber":"23431"},"geometry":{"type":"MultiPolygon","coordinates":[[[[172.505510279228,-43.5364061453119],[172.505617033933,-43.536574732934],[172.505164893418,-43.5367262657435],[172.505058152134,-43.53655766875399],[172.505510279228,-43.5364061453119]]]]}}]}