{"type":"FeatureCollection","features":[{"type":"Feature","properties":{"gml_id":"vwRatingUnit.107176","RatingUnitID":107176,"ValuationVisitOrder":"27700","drvRatingUnitLocation":null,"StreetAddressID":123017,"OccupationLevelDescription":"Ground Floor and Above","StreetAddress":"8 Northcroft Street","LocalityName":"Hoon Hay","ValuationRollNumber":"22970"},"geometry":{"type":"MultiPolygon","coordinates":[[[[172.587074942883,-43.5637813322936],[172.58718006067798,-43.5638755326135],[172.58686584314898,-43.5641308656376],[172.58685822659098,-43.56412600493899],[172.586813463811,-43.5640956289903],[172.58677001979498,-43.564064267667],[172.586727906676,-43.5640319570168],[172.586711313185,-43.5640184144027],[172.587074942883,-43.5637813322936]]]]}}]}