{"type":"FeatureCollection","features":[{"type":"Feature","properties":{"gml_id":"vwRatingUnit.115336","RatingUnitID":115336,"ValuationVisitOrder":"34700","drvRatingUnitLocation":null,"StreetAddressID":5614,"OccupationLevelDescription":"Ground Floor and Above","StreetAddress":"2/1C Bahama Place","LocalityName":"Hornby","ValuationRollNumber":"23434"},"geometry":{"type":"MultiPolygon","coordinates":[[[[172.535890733556,-43.5457955248364],[172.535892946491,-43.5457973224389],[172.53585831255,-43.5458198921768],[172.53585399318496,-43.545822705604],[172.535728106684,-43.5459047018438],[172.53572330906596,-43.545907826767994],[172.53571941901097,-43.5459046668219],[172.535717266529,-43.5459029183311],[172.535710585059,-43.5458974908777],[172.535661924982,-43.545857963564394],[172.535651672401,-43.5458496352293],[172.53561362886498,-43.545818731828994],[172.535615820496,-43.5458187406661],[172.53573402255296,-43.5457337087395],[172.53574020944197,-43.5457337336797],[172.53577131519,-43.5457113568352],[172.535777502077,-43.5457113817734],[172.53578261853798,-43.5457077010918],[172.535890733556,-43.5457955248364]]]]}}]}