{"type":"FeatureCollection","features":[{"type":"Feature","properties":{"gml_id":"vwRatingUnit.112538","RatingUnitID":112538,"ValuationVisitOrder":"55400","drvRatingUnitLocation":null,"StreetAddressID":53680,"OccupationLevelDescription":"Ground Floor and Above","StreetAddress":"20 Gilberthorpes Road","LocalityName":"Hei Hei","ValuationRollNumber":"23421"},"geometry":{"type":"MultiPolygon","coordinates":[[[[172.516667658731,-43.5389061735661],[172.517036344196,-43.5390185763982],[172.516969750267,-43.5391767405996],[172.516580191922,-43.539057976269795],[172.516667658731,-43.5389061735661]]]]}}]}