{"type":"FeatureCollection","features":[{"type":"Feature","properties":{"gml_id":"vwRatingUnit.109264","RatingUnitID":109264,"ValuationVisitOrder":"40500","drvRatingUnitLocation":null,"StreetAddressID":105033,"OccupationLevelDescription":"Ground Floor and Above","StreetAddress":"54 Curletts Road","LocalityName":"Upper Riccarton","ValuationRollNumber":"23412"},"geometry":{"type":"MultiPolygon","coordinates":[[[[172.567896086339,-43.5367052388536],[172.56791736838096,-43.5368481713749],[172.567422398074,-43.5368871944922],[172.567401104806,-43.5367442618254],[172.567896086339,-43.5367052388536]]]]}}]}