{"type":"FeatureCollection","features":[{"type":"Feature","properties":{"gml_id":"vwRatingUnit.106980","RatingUnitID":106980,"ValuationVisitOrder":"8200","drvRatingUnitLocation":null,"StreetAddressID":99858,"OccupationLevelDescription":"Ground Floor and Above","StreetAddress":"5 Dalglish Place","LocalityName":"Hoon Hay","ValuationRollNumber":"22970"},"geometry":{"type":"MultiPolygon","coordinates":[[[[172.589226366201,-43.5609041401634],[172.58935125502197,-43.5610176076701],[172.58898116278098,-43.5612329819882],[172.588856212434,-43.5611194958633],[172.589226366201,-43.5609041401634]]]]}}]}