{"type":"FeatureCollection","features":[{"type":"Feature","properties":{"gml_id":"vwRatingUnit.116025","RatingUnitID":116025,"ValuationVisitOrder":"15700","drvRatingUnitLocation":null,"StreetAddressID":64607,"OccupationLevelDescription":"Ground Floor and Above","StreetAddress":"26 Awatea Road","LocalityName":"Hornby","ValuationRollNumber":"23435"},"geometry":{"type":"MultiPolygon","coordinates":[[[[172.536715336842,-43.553092697588596],[172.536999319951,-43.5533210301799],[172.536914940961,-43.55343530814599],[172.53663343697798,-43.5533611522561],[172.536417591388,-43.5533042895294],[172.536715336842,-43.553092697588596]]]]}}]}