{"type":"FeatureCollection","features":[{"type":"Feature","properties":{"gml_id":"vwRatingUnit.100639","RatingUnitID":100639,"ValuationVisitOrder":"28201","drvRatingUnitLocation":null,"StreetAddressID":79442,"OccupationLevelDescription":"Ground Floor and Above","StreetAddress":"33 Main Road","LocalityName":"Redcliffs","ValuationRollNumber":"22900"},"geometry":{"type":"MultiPolygon","coordinates":[[[[172.734769593674,-43.5576761389572],[172.734983808809,-43.5578423757832],[172.734349628112,-43.558274672506],[172.73432524250197,-43.5582557602695],[172.734688510144,-43.5580081806265],[172.734485790688,-43.557850943232296],[172.734729747149,-43.5577006908999],[172.734769593674,-43.5576761389572]]]]}}]}