{"type":"FeatureCollection","features":[{"type":"Feature","properties":{"gml_id":"vwRatingUnit.111337","RatingUnitID":111337,"ValuationVisitOrder":"48100","drvRatingUnitLocation":null,"StreetAddressID":51627,"OccupationLevelDescription":"Ground Floor and Above","StreetAddress":"2/7 Glenys Place","LocalityName":"Masham","ValuationRollNumber":"23415"},"geometry":{"type":"MultiPolygon","coordinates":[[[[172.535377598739,-43.5216257374473],[172.535368076159,-43.5216228042174],[172.53536633114197,-43.5216222667017],[172.535357496899,-43.5216195454986],[172.535351526452,-43.5216177064272],[172.535325759128,-43.521609769336195],[172.53532191708,-43.5216085858723],[172.535315179873,-43.5216065106135],[172.535307112397,-43.5216040255921],[172.535294021366,-43.521599993165],[172.535292307717,-43.52159946530989],[172.535283442114,-43.5215967344393],[172.535277503038,-43.5215949050257],[172.535272862864,-43.5215934757126],[172.535262698362,-43.5215903447397],[172.535251704366,-43.5215869582562],[172.53524789368797,-43.5215857844517],[172.535241125119,-43.5215836995266],[172.535233089016,-43.5215812241617],[172.535230545873,-43.521580440796],[172.535218284346,-43.5215766638699],[172.535209387384,-43.5215739233317],[172.53520347967898,-43.5215721035761],[172.535199357499,-43.521570833817194],[172.53524090746498,-43.5214992461053],[172.53532890580198,-43.5213475864205],[172.535329922958,-43.52134583341],[172.535335721353,-43.521347613951],[172.53534050038496,-43.5213490814712],[172.535350572677,-43.521352174417],[172.535361611632,-43.52135556419919],[172.535365424004,-43.5213567348811],[172.535372167258,-43.521358805561796],[172.535380275333,-43.5213612953432],[172.53538272288498,-43.5213620469234],[172.535409977997,-43.5213704162617],[172.535414389771,-43.5213717710022],[172.535424829333,-43.5213749767181],[172.535424945402,-43.52137501235989],[172.53545453201,-43.5213840976249],[172.535456612302,-43.521384736426995],[172.53548423469698,-43.521393218524],[172.53548827921196,-43.5213944604853],[172.53550628923,-43.5213999908733],[172.535377598739,-43.5216257374473]]]]}}]}