{"type":"FeatureCollection","features":[{"type":"Feature","properties":{"gml_id":"vwRatingUnit.103764","RatingUnitID":103764,"ValuationVisitOrder":"10200","drvRatingUnitLocation":null,"StreetAddressID":95768,"OccupationLevelDescription":"Ground Floor and Above","StreetAddress":"45 Truro Street","LocalityName":"Sumner","ValuationRollNumber":"22920"},"geometry":{"type":"MultiPolygon","coordinates":[[[[172.761239702523,-43.5794608251822],[172.761249300005,-43.5794665062665],[172.761433677523,-43.57957582795509],[172.761430621287,-43.5795785487863],[172.761039065082,-43.579925967730695],[172.760846139781,-43.5798115425081],[172.761239702523,-43.5794608251822]]]]}}]}