{"type":"FeatureCollection","features":[{"type":"Feature","properties":{"gml_id":"vwRatingUnit.102880","RatingUnitID":102880,"ValuationVisitOrder":"88200","drvRatingUnitLocation":null,"StreetAddressID":62654,"OccupationLevelDescription":"Ground Floor and Above","StreetAddress":"248 Major Hornbrook Road","LocalityName":"Mt Pleasant","ValuationRollNumber":"22902"},"geometry":{"type":"MultiPolygon","coordinates":[[[[172.719232955498,-43.5717725705937],[172.71938160882698,-43.5719222143707],[172.718976065125,-43.5720685584804],[172.71882743701397,-43.5719189502439],[172.719232955498,-43.5717725705937]]]]}}]}