{"type":"FeatureCollection","features":[{"type":"Feature","properties":{"gml_id":"vwRatingUnit.10410","RatingUnitID":10410,"ValuationVisitOrder":"17100","drvRatingUnitLocation":null,"StreetAddressID":56428,"OccupationLevelDescription":"Ground Floor and Above","StreetAddress":"21 Camberwell Place","LocalityName":"Avonhead","ValuationRollNumber":"21895"},"geometry":{"type":"MultiPolygon","coordinates":[[[[172.550972599971,-43.52308638647369],[172.550967264113,-43.523079928319895],[172.55086371719898,-43.5229546019738],[172.550856295044,-43.522941224591996],[172.550851883756,-43.5229271569231],[172.550850604626,-43.52291275942909],[172.550852479284,-43.5228983924423],[172.55085459692197,-43.5228913348092],[172.550861104647,-43.5228777058863],[172.550870500279,-43.5228649971746],[172.550882545622,-43.522853541219696],[172.55088947363396,-43.5228483657252],[172.550904803802,-43.5228393705096],[172.55092362282997,-43.5228294529851],[172.550924346361,-43.5228299851551],[172.55092428006597,-43.5228389858206],[172.550970415682,-43.5228729193707],[172.550976600245,-43.5228729435098],[172.550982751665,-43.5228774679814],[172.550988936229,-43.5228774921199],[172.55099508765,-43.5228820165908],[172.55100745677896,-43.5228820648661],[172.551038213903,-43.522904687212],[172.551044398469,-43.5229047113475],[172.551069004187,-43.5229228092168],[172.55108137332397,-43.5229228574841],[172.551087524757,-43.5229273819499],[172.55109370932496,-43.52292740608279],[172.551099860759,-43.5229319305479],[172.551106045329,-43.52293195468],[172.551124499638,-43.5229455280723],[172.551130684208,-43.5229455522031],[172.551138160235,-43.522951050918095],[172.550980437558,-43.523079979737],[172.550972599971,-43.52308638647369]]]]}}]}