{"type":"FeatureCollection","features":[{"type":"Feature","properties":{"gml_id":"vwRatingUnit.113842","RatingUnitID":113842,"ValuationVisitOrder":"28300","drvRatingUnitLocation":null,"StreetAddressID":63446,"OccupationLevelDescription":"Ground Floor and Above","StreetAddress":"25 Parker Street","LocalityName":"Islington","ValuationRollNumber":"23432"},"geometry":{"type":"MultiPolygon","coordinates":[[[[172.515107160326,-43.542299762305],[172.515277559799,-43.542275916193496],[172.515289346917,-43.5422749667083],[172.51530123465997,-43.5422753677861],[172.51531287651,-43.5422771269691],[172.515324012992,-43.5422801981604],[172.515334335351,-43.5422845080532],[172.515343597057,-43.54228993859769],[172.51535156395,-43.542296371796596],[172.515358051866,-43.5423036268561],[172.515362888868,-43.5423115410361],[172.515365820487,-43.5423194381954],[172.51542331183697,-43.5425368997487],[172.515178897438,-43.5425710915795],[172.515107160326,-43.542299762305]]]]}}]}