{"type":"FeatureCollection","features":[{"type":"Feature","properties":{"gml_id":"vwRatingUnit.11795","RatingUnitID":11795,"ValuationVisitOrder":"82300","drvRatingUnitLocation":null,"StreetAddressID":26057,"OccupationLevelDescription":"Ground Floor and Above","StreetAddress":"14 Parr Place","LocalityName":"Upper Riccarton","ValuationRollNumber":"21896"},"geometry":{"type":"MultiPolygon","coordinates":[[[[172.56505469050296,-43.525792062477],[172.565465936698,-43.5258522481448],[172.565457338014,-43.525914942885],[172.565550837463,-43.5259435497625],[172.565466069248,-43.5260905382465],[172.564970083449,-43.5259388622038],[172.56505469050296,-43.525792062477]]]]}}]}