{"type":"FeatureCollection","features":[{"type":"Feature","properties":{"gml_id":"vwRatingUnit.108065","RatingUnitID":108065,"ValuationVisitOrder":"38200","drvRatingUnitLocation":null,"StreetAddressID":99075,"OccupationLevelDescription":"Ground Floor and Above","StreetAddress":"49 Warren Crescent","LocalityName":"Hillmorton","ValuationRollNumber":"22980"},"geometry":{"type":"MultiPolygon","coordinates":[[[[172.58378612993098,-43.5553267269129],[172.583853214087,-43.55535847193019],[172.583976542737,-43.5554144790641],[172.583723692325,-43.5557167213695],[172.58369576065897,-43.5557038573595],[172.583518387532,-43.5556221554066],[172.58378612993098,-43.5553267269129]]]]}}]}