{"type":"FeatureCollection","features":[{"type":"Feature","properties":{"gml_id":"vwRatingUnit.111354","RatingUnitID":111354,"ValuationVisitOrder":"49900","drvRatingUnitLocation":null,"StreetAddressID":8000,"OccupationLevelDescription":"Ground Floor and Above","StreetAddress":"2/16 Steadman Road","LocalityName":"Masham","ValuationRollNumber":"23415"},"geometry":{"type":"MultiPolygon","coordinates":[[[[172.536973622997,-43.5222574769665],[172.536965208081,-43.5222548926224],[172.536963185356,-43.522254271413495],[172.536933535953,-43.5222451656392],[172.536933488051,-43.522245150927496],[172.53692297857998,-43.52224192330959],[172.536918639401,-43.5222405906816],[172.536891306465,-43.5222321963147],[172.53688894211,-43.522231470184],[172.536859634361,-43.522222469311],[172.53685924482699,-43.5222223496787],[172.536849076995,-43.5222192269744],[172.53684439618797,-43.522217789423095],[172.53681740490399,-43.522209499959],[172.536814698919,-43.5222086689061],[172.536806847543,-43.5222062576185],[172.536799850287,-43.5222041086447],[172.536785732823,-43.52219977293469],[172.536785001658,-43.5221995483814],[172.536775175465,-43.5221965305913],[172.536770153031,-43.52219498811609],[172.53675149240397,-43.5221892571174],[172.536747725458,-43.52218810022309],[172.53675155146396,-43.5221814843168],[172.536753839677,-43.522177527552],[172.536757818491,-43.5221706474096],[172.536758273199,-43.52216986113039],[172.536761979694,-43.522163451878],[172.536770352538,-43.52214897359399],[172.536771573758,-43.5221468618645],[172.53678915359097,-43.522116462868],[172.536789307821,-43.5221161961742],[172.536795420605,-43.522105625958496],[172.536798174846,-43.52210086332799],[172.536801687616,-43.5220947890488],[172.536802608357,-43.52209319690459],[172.536807954625,-43.5220839521387],[172.53681147537498,-43.5220778640573],[172.536814221632,-43.5220731152282],[172.53681590888198,-43.5220701976334],[172.536820488636,-43.5220622783174],[172.53682477589396,-43.522054864785],[172.536828707972,-43.5220480654264],[172.536832956047,-43.5220493700841],[172.536839078622,-43.52205125043349],[172.537037444092,-43.5221121716809],[172.537036568539,-43.5221128017989],[172.53703643184298,-43.52213080314879],[172.537030213178,-43.5221352785972],[172.537030179003,-43.5221397789347],[172.537023960336,-43.5221442543827],[172.537023891987,-43.522153255057596],[172.537017673318,-43.5221577305053],[172.53701763914296,-43.5221622308427],[172.537011420473,-43.522166706289994],[172.537011386297,-43.5221712066274],[172.537005167625,-43.5221756820745],[172.53700503092,-43.5221936834241],[172.536998812246,-43.522198158870694],[172.53699874389198,-43.5222071595455],[172.536992525216,-43.5222116349918],[172.536992491039,-43.5222161353291],[172.53698627236196,-43.5222206107751],[172.53698620400598,-43.5222296114498],[172.536979985327,-43.522234086895494],[172.536979882793,-43.5222475879075],[172.536973664111,-43.522252063352795],[172.536973622997,-43.5222574769665]]]]}}]}