{"type":"FeatureCollection","features":[{"type":"Feature","properties":{"gml_id":"vwRatingUnit.107281","RatingUnitID":107281,"ValuationVisitOrder":"38200","drvRatingUnitLocation":null,"StreetAddressID":65140,"OccupationLevelDescription":"Ground Floor and Above","StreetAddress":"26 O'Leary Street","LocalityName":"Hoon Hay","ValuationRollNumber":"22970"},"geometry":{"type":"MultiPolygon","coordinates":[[[[172.590648202955,-43.5621950820152],[172.590956207277,-43.562474874605094],[172.590808934867,-43.5625605881918],[172.590500955472,-43.562280804301295],[172.590648202955,-43.5621950820152]]]]}}]}