{"type":"FeatureCollection","features":[{"type":"Feature","properties":{"gml_id":"vwRatingUnit.10690","RatingUnitID":10690,"ValuationVisitOrder":"41800","drvRatingUnitLocation":null,"StreetAddressID":111972,"OccupationLevelDescription":"Ground Floor and Above","StreetAddress":"62 Balrudry Street","LocalityName":"Avonhead","ValuationRollNumber":"21895"},"geometry":{"type":"MultiPolygon","coordinates":[[[[172.558693442961,-43.5210971868767],[172.559058037021,-43.5212097463167],[172.559266313612,-43.5212740459408],[172.559245810761,-43.5213092599691],[172.559188635956,-43.5214074118761],[172.558615751834,-43.5212305613931],[172.558693442961,-43.5210971868767]]]]}}]}