{"type":"FeatureCollection","features":[{"type":"Feature","properties":{"gml_id":"vwRatingUnit.111634","RatingUnitID":111634,"ValuationVisitOrder":"72500","drvRatingUnitLocation":null,"StreetAddressID":52275,"OccupationLevelDescription":"Ground Floor and Above","StreetAddress":"2/8 Fiona Place","LocalityName":"Riccarton Park","ValuationRollNumber":"23415"},"geometry":{"type":"MultiPolygon","coordinates":[[[[172.53904877401396,-43.5316410180125],[172.539051659187,-43.531641900407],[172.539048729221,-43.5316469430143],[172.538957894559,-43.5318032732116],[172.538957739049,-43.5318035408491],[172.538956850258,-43.5318032690283],[172.538738768945,-43.5317365725335],[172.538738832754,-43.5317281378632],[172.538745052264,-43.5317236623279],[172.538745086309,-43.531719162003],[172.538751305818,-43.5317146864674],[172.538751339863,-43.5317101861424],[172.53875755937,-43.5317057106065],[172.538757593414,-43.5317012102816],[172.53876381292,-43.531696734745296],[172.53876384696397,-43.5316922344203],[172.538770066469,-43.5316877588838],[172.53877013455497,-43.5316787582337],[172.538776354058,-43.5316742826968],[172.5387763881,-43.5316697823718],[172.538782607602,-43.5316653068345],[172.538782641644,-43.5316608065095],[172.538788861144,-43.5316563309719],[172.538788895186,-43.5316518306469],[172.538795114685,-43.531647355109],[172.538795148726,-43.5316428547839],[172.538801368223,-43.5316383792456],[172.538801402264,-43.5316338789206],[172.53880762175996,-43.5316294033819],[172.53880768984098,-43.53162040273179],[172.53881390933498,-43.5316159271929],[172.53881394337498,-43.5316114268678],[172.53882016286798,-43.5316069513285],[172.538820230946,-43.53159795067829],[172.538826450437,-43.5315934751386],[172.538826484476,-43.5315889748136],[172.538832703966,-43.5315844992736],[172.538832772043,-43.5315754986233],[172.538833301004,-43.531575117983294],[172.53904877401396,-43.5316410180125]]]]}}]}