{"type":"FeatureCollection","features":[{"type":"Feature","properties":{"gml_id":"vwRatingUnit.111215","RatingUnitID":111215,"ValuationVisitOrder":"37600","drvRatingUnitLocation":null,"StreetAddressID":148836,"OccupationLevelDescription":"Ground Floor and Above","StreetAddress":"70 Kintyre Drive","LocalityName":"Broomfield","ValuationRollNumber":"23415"},"geometry":{"type":"MultiPolygon","coordinates":[[[[172.533128532568,-43.5291666564925],[172.533061181474,-43.5289410987168],[172.533060216591,-43.5289378634644],[172.533028471169,-43.5288315325587],[172.532936842108,-43.5285245886615],[172.532832838832,-43.528176262093],[172.532727799701,-43.5278244388103],[172.531833277597,-43.5279658171061],[172.531760167317,-43.52794169413309],[172.531568637132,-43.52787850205719],[172.53129814253398,-43.527843152005],[172.531430270143,-43.527606803225],[172.53162505822,-43.5276644552255],[172.53193987172997,-43.5277309390483],[172.532231328322,-43.5276622498864],[172.532460807526,-43.527608159745],[172.532654231277,-43.527577640204896],[172.53282986101897,-43.5275493973469],[172.532968335454,-43.5275527047476],[172.53308897118896,-43.527565768629],[172.533209439068,-43.5275862214763],[172.533324948884,-43.5276176712424],[172.53339517676,-43.5273896741294],[172.533469349919,-43.5273945203571],[172.533463521642,-43.52766150068549],[172.533628671693,-43.5277321344718],[172.533720581567,-43.527792372203],[172.533856368482,-43.5279045700229],[172.533755724116,-43.52808058971619],[172.533128532568,-43.5291666564925]]]]}}]}