{"type":"FeatureCollection","features":[{"type":"Feature","properties":{"gml_id":"vwRatingUnit.110159","RatingUnitID":110159,"ValuationVisitOrder":"62500","drvRatingUnitLocation":null,"StreetAddressID":120078,"OccupationLevelDescription":"Ground Floor and Above","StreetAddress":"75 Epsom Road","LocalityName":"Sockburn","ValuationRollNumber":"23413"},"geometry":{"type":"MultiPolygon","coordinates":[[[[172.548820262923,-43.5346486658234],[172.548934648847,-43.5347646676353],[172.548421681664,-43.5350324133095],[172.548307283831,-43.5349164109443],[172.548820262923,-43.5346486658234]]]]}}]}