{"type":"FeatureCollection","features":[{"type":"Feature","properties":{"gml_id":"vwRatingUnit.114094","RatingUnitID":114094,"ValuationVisitOrder":"54700","drvRatingUnitLocation":null,"StreetAddressID":132792,"OccupationLevelDescription":"Ground Floor and Above","StreetAddress":"3/16 Goulding Avenue","LocalityName":"Hornby","ValuationRollNumber":"23432"},"geometry":{"type":"MultiPolygon","coordinates":[[[[172.523612872859,-43.54491553580839],[172.523755665125,-43.5450292018833],[172.523797014088,-43.545062095895],[172.523605304353,-43.54518517083],[172.523421997567,-43.5450393369141],[172.523612872859,-43.54491553580839]]]]}}]}