{"type":"FeatureCollection","features":[{"type":"Feature","properties":{"gml_id":"vwRatingUnit.117111","RatingUnitID":117111,"ValuationVisitOrder":"84809","drvRatingUnitLocation":null,"StreetAddressID":19101,"OccupationLevelDescription":"Ground Floor and Above","StreetAddress":"16 Rempstone Drive","LocalityName":"Wentworth Park","ValuationRollNumber":"23441"},"geometry":{"type":"MultiPolygon","coordinates":[[[[172.551204659536,-43.5739483519422],[172.551202091281,-43.5739458014891],[172.551094958876,-43.573839411420295],[172.551077952354,-43.5738288592032],[172.551258752084,-43.5736994014082],[172.551340633637,-43.5737595740535],[172.551340600538,-43.573764074321296],[172.551428906366,-43.5738289677945],[172.551209396835,-43.5739458299164],[172.551204659536,-43.5739483519422]]]]}}]}