{"type":"FeatureCollection","features":[{"type":"Feature","properties":{"gml_id":"vwRatingUnit.104276","RatingUnitID":104276,"ValuationVisitOrder":"49800","drvRatingUnitLocation":null,"StreetAddressID":50260,"OccupationLevelDescription":"Ground Floor and Above","StreetAddress":"124 Nayland Street","LocalityName":"Sumner","ValuationRollNumber":"22920"},"geometry":{"type":"MultiPolygon","coordinates":[[[[172.766591024882,-43.5740890134789],[172.766719677398,-43.5741654078503],[172.76650961330796,-43.5743526252678],[172.76638089854896,-43.5742762845447],[172.766591024882,-43.5740890134789]]]]}}]}