{"type":"FeatureCollection","features":[{"type":"Feature","properties":{"gml_id":"vwRatingUnit.103036","RatingUnitID":103036,"ValuationVisitOrder":"16300","drvRatingUnitLocation":null,"StreetAddressID":123186,"OccupationLevelDescription":"Ground Floor and Above","StreetAddress":"8 Revelation Drive","LocalityName":"Clifton","ValuationRollNumber":"22911"},"geometry":{"type":"MultiPolygon","coordinates":[[[[172.746225206162,-43.5731358919841],[172.74637700977,-43.5732738964655],[172.746312533945,-43.5733047706575],[172.746120421839,-43.5733488743165],[172.746087514125,-43.5733556694133],[172.746054884956,-43.5733609710328],[172.746021889979,-43.5733649307679],[172.74598865302798,-43.5733675398897],[172.745977497563,-43.5733679474021],[172.74598516464,-43.5731972071207],[172.746225206162,-43.5731358919841]]]]}}]}