{"type":"FeatureCollection","features":[{"type":"Feature","properties":{"gml_id":"vwRatingUnit.10868","RatingUnitID":10868,"ValuationVisitOrder":"58200","drvRatingUnitLocation":null,"StreetAddressID":35242,"OccupationLevelDescription":"Ground Floor and Above","StreetAddress":"38 Bevington Street","LocalityName":"Avonhead","ValuationRollNumber":"21895"},"geometry":{"type":"MultiPolygon","coordinates":[[[[172.55380519097,-43.520487599213894],[172.553795631334,-43.52048516613989],[172.553617297636,-43.5204397772969],[172.553734530498,-43.5201958040383],[172.553736027779,-43.520196905290796],[172.55380405497996,-43.5201971691914],[172.553810206336,-43.5202016935156],[172.553822574918,-43.5202017414926],[172.553828726276,-43.520206265815794],[172.553834910568,-43.5202062898035],[172.553841061927,-43.520210814125996],[172.553847246219,-43.520210838112995],[172.553853397579,-43.5202153624349],[172.553865766165,-43.5202154104072],[172.553871917527,-43.5202199347281],[172.553933699577,-43.5202201743301],[172.553806340205,-43.5204852076798],[172.55380519097,-43.520487599213894]]]]}}]}