{"type":"FeatureCollection","features":[{"type":"Feature","properties":{"gml_id":"vwRatingUnit.110951","RatingUnitID":110951,"ValuationVisitOrder":"10500","drvRatingUnitLocation":null,"StreetAddressID":61896,"OccupationLevelDescription":"Ground Floor and Above","StreetAddress":"24 Vanguard Drive","LocalityName":"Broomfield","ValuationRollNumber":"23415"},"geometry":{"type":"MultiPolygon","coordinates":[[[[172.531256016336,-43.5283232348269],[172.53122256471397,-43.5283813436688],[172.53107924026,-43.5286304189014],[172.530862346156,-43.528564341027696],[172.53086962652597,-43.52851366838829],[172.53087374148,-43.52846280282439],[172.530874690126,-43.5284118613449],[172.530873983089,-43.5283863857887],[172.530870866362,-43.5283428895178],[172.531256016336,-43.5283232348269]]]]}}]}