{"type":"FeatureCollection","features":[{"type":"Feature","properties":{"gml_id":"vwRatingUnit.107060","RatingUnitID":107060,"ValuationVisitOrder":"16100","drvRatingUnitLocation":null,"StreetAddressID":100806,"OccupationLevelDescription":"Ground Floor and Above","StreetAddress":"5 Stanton Crescent","LocalityName":"Hoon Hay","ValuationRollNumber":"22970"},"geometry":{"type":"MultiPolygon","coordinates":[[[[172.58283300190197,-43.5621480926729],[172.582951938761,-43.56225455205579],[172.58256881889497,-43.5624808938482],[172.582564033436,-43.562476601155495],[172.58244999408,-43.5623743714742],[172.58283300190197,-43.5621480926729]]]]}}]}