{"type":"FeatureCollection","features":[{"type":"Feature","properties":{"gml_id":"vwRatingUnit.108506","RatingUnitID":108506,"ValuationVisitOrder":"2500","drvRatingUnitLocation":null,"StreetAddressID":116703,"OccupationLevelDescription":"Ground Floor and Above","StreetAddress":"7 Lunns Road","LocalityName":"Middleton","ValuationRollNumber":"23411"},"geometry":{"type":"MultiPolygon","coordinates":[[[[172.578271192567,-43.5415376483794],[172.578287547391,-43.5415523346231],[172.578309624537,-43.5415393282658],[172.57859702782397,-43.5417974440456],[172.57876057778,-43.5419443238878],[172.578734375968,-43.54195974546519],[172.57851540516896,-43.542088718146296],[172.578048134713,-43.5416690444377],[172.578271192567,-43.5415376483794]]]]}}]}