{"type":"FeatureCollection","features":[{"type":"Feature","properties":{"gml_id":"vwRatingUnit.104033","RatingUnitID":104033,"ValuationVisitOrder":"27800","drvRatingUnitLocation":null,"StreetAddressID":139073,"OccupationLevelDescription":"Ground Floor and Above","StreetAddress":"2/4 Whitfield Street","LocalityName":"Sumner","ValuationRollNumber":"22920"},"geometry":{"type":"MultiPolygon","coordinates":[[[[172.759118902506,-43.57364304462],[172.759144439391,-43.5738230722457],[172.759080540385,-43.5738277019036],[172.759079302083,-43.57382779159009],[172.75902016461498,-43.5738320763639],[172.759017211711,-43.5738322903501],[172.758959788478,-43.5738364507918],[172.758929140915,-43.5738386712137],[172.758929127763,-43.5738363868751],[172.75892862091,-43.5737477564151],[172.758928100551,-43.5736568416132],[172.759118902506,-43.57364304462]]]]}}]}