{"type":"FeatureCollection","features":[{"type":"Feature","properties":{"gml_id":"vwRatingUnit.113046","RatingUnitID":113046,"ValuationVisitOrder":"3300","drvRatingUnitLocation":null,"StreetAddressID":13326,"OccupationLevelDescription":"Ground Floor and Above","StreetAddress":"18 Finsbury Street","LocalityName":"Islington","ValuationRollNumber":"23431"},"geometry":{"type":"MultiPolygon","coordinates":[[[[172.509713703711,-43.5393968533607],[172.509920282146,-43.5394968964056],[172.509898885878,-43.5395342672925],[172.509495118574,-43.5396697043095],[172.5093908643,-43.5395051187002],[172.509713703711,-43.5393968533607]]]]}}]}