{"type":"FeatureCollection","features":[{"type":"Feature","properties":{"gml_id":"vwRatingUnit.118266","RatingUnitID":118266,"ValuationVisitOrder":"47000","drvRatingUnitLocation":null,"StreetAddressID":14485,"OccupationLevelDescription":"Ground Floor and Above","StreetAddress":"181 Wales Street","LocalityName":"Oaklands","ValuationRollNumber":"23444"},"geometry":{"type":"MultiPolygon","coordinates":[[[[172.557857455494,-43.5741229648608],[172.55799243936798,-43.5741682701071],[172.558001463059,-43.5741718599954],[172.558013557186,-43.5741788369415],[172.55802343569,-43.57418747054059],[172.558030692852,-43.574197372205],[172.55803502205,-43.574208144726],[172.558036253229,-43.5742193374133],[172.55803432794596,-43.5742304730017],[172.55802931142298,-43.57424109270129],[172.557763566002,-43.574659249422595],[172.557560527116,-43.5745902268643],[172.557857455494,-43.5741229648608]]]]}}]}