{"type":"FeatureCollection","features":[{"type":"Feature","properties":{"gml_id":"vwRatingUnit.113837","RatingUnitID":113837,"ValuationVisitOrder":"27800","drvRatingUnitLocation":null,"StreetAddressID":22416,"OccupationLevelDescription":"Ground Floor and Above","StreetAddress":"15 Parker Street","LocalityName":"Islington","ValuationRollNumber":"23432"},"geometry":{"type":"MultiPolygon","coordinates":[[[[172.515566802413,-43.5430795668243],[172.515607225037,-43.5432324737244],[172.515281597336,-43.5433400777954],[172.515149481864,-43.5431379546623],[172.515566802413,-43.5430795668243]]]]}}]}