{"type":"FeatureCollection","features":[{"type":"Feature","properties":{"gml_id":"vwRatingUnit.102590","RatingUnitID":102590,"ValuationVisitOrder":"51400","drvRatingUnitLocation":null,"StreetAddressID":78365,"OccupationLevelDescription":"Ground Floor and Above","StreetAddress":"32 Santa Maria Avenue","LocalityName":"Mt Pleasant","ValuationRollNumber":"22902"},"geometry":{"type":"MultiPolygon","coordinates":[[[[172.72378821905,-43.5626685572092],[172.723835631509,-43.5626887238008],[172.723913099983,-43.5627216619914],[172.723969725671,-43.56278737529689],[172.723482660928,-43.5630106927435],[172.723440532972,-43.562960566855196],[172.723391273364,-43.5629137090684],[172.72378821905,-43.5626685572092]]]]}}]}