{"type":"FeatureCollection","features":[{"type":"Feature","properties":{"gml_id":"vwRatingUnit.113310","RatingUnitID":113310,"ValuationVisitOrder":"26300","drvRatingUnitLocation":null,"StreetAddressID":40426,"OccupationLevelDescription":"Ground Floor and Above","StreetAddress":"10 Lomax Place","LocalityName":"Islington","ValuationRollNumber":"23431"},"geometry":{"type":"MultiPolygon","coordinates":[[[[172.510288418343,-43.5413388421797],[172.510462127856,-43.5416130926538],[172.510137843445,-43.54168431510389],[172.510152232677,-43.54196782514239],[172.510114190819,-43.5419623977428],[172.510083971127,-43.5413669194955],[172.510288418343,-43.5413388421797]]]]}}]}