{"type":"FeatureCollection","features":[{"type":"Feature","properties":{"gml_id":"vwRatingUnit.108002","RatingUnitID":108002,"ValuationVisitOrder":"31800","drvRatingUnitLocation":null,"StreetAddressID":18007,"OccupationLevelDescription":"Ground Floor and Above","StreetAddress":"17 Renwick Place","LocalityName":"Hillmorton","ValuationRollNumber":"22980"},"geometry":{"type":"MultiPolygon","coordinates":[[[[172.589430749374,-43.55471271792639],[172.589442192299,-43.554726295862395],[172.589456844078,-43.5547393541834],[172.589473796007,-43.55475083656],[172.58949275246596,-43.5547605349204],[172.589513343397,-43.5547682679299],[172.589558822226,-43.5547796808917],[172.58957952564197,-43.5547872522758],[172.589598619229,-43.5547968070943],[172.589613602126,-43.554806644296],[172.58928948723198,-43.5549982051995],[172.589232972748,-43.5549476354257],[172.589108946358,-43.554836645731],[172.589430749374,-43.55471271792639]]]]}}]}