{"type":"FeatureCollection","features":[{"type":"Feature","properties":{"gml_id":"vwRatingUnit.117008","RatingUnitID":117008,"ValuationVisitOrder":"79317","drvRatingUnitLocation":null,"StreetAddressID":122893,"OccupationLevelDescription":"Ground Floor and Above","StreetAddress":"8 Marquess Avenue","LocalityName":"Wentworth Park","ValuationRollNumber":"23441"},"geometry":{"type":"MultiPolygon","coordinates":[[[[172.550157662484,-43.5709730464258],[172.550529611379,-43.5712130629957],[172.550554617787,-43.5712382366897],[172.55069031853398,-43.5713258032297],[172.550633698305,-43.5713741509327],[172.550358917885,-43.5716087478409],[172.550293991692,-43.5715226090353],[172.550244304058,-43.5714567004158],[172.550517552414,-43.57122334891359],[172.550144309824,-43.5709824991852],[172.550157662484,-43.5709730464258]]]]}}]}