{"type":"FeatureCollection","features":[{"type":"Feature","properties":{"gml_id":"vwRatingUnit.106467","RatingUnitID":106467,"ValuationVisitOrder":"28800","drvRatingUnitLocation":null,"StreetAddressID":129499,"OccupationLevelDescription":"Ground Floor and Above","StreetAddress":"90 Kaiwara Street","LocalityName":"Hoon Hay","ValuationRollNumber":"22960"},"geometry":{"type":"MultiPolygon","coordinates":[[[[172.609941446132,-43.5705599115254],[172.60994561206397,-43.5705594484871],[172.610077343441,-43.57054480644659],[172.610094133865,-43.57054294033549],[172.610094889047,-43.5705448657202],[172.610149076678,-43.5706830592415],[172.610150469207,-43.5706866109723],[172.61014905297898,-43.5706867686341],[172.610124318541,-43.5706895196933],[172.61012888407697,-43.5707111819366],[172.60997910344,-43.57072784450559],[172.609941446132,-43.5705599115254]]]]}}]}