{"type":"FeatureCollection","features":[{"type":"Feature","properties":{"gml_id":"vwRatingUnit.106647","RatingUnitID":106647,"ValuationVisitOrder":"44600","drvRatingUnitLocation":null,"StreetAddressID":132084,"OccupationLevelDescription":"Ground Floor and Above","StreetAddress":"98 Sparks Road","LocalityName":"Hoon Hay","ValuationRollNumber":"22960"},"geometry":{"type":"MultiPolygon","coordinates":[[[[172.606321127858,-43.5653858202407],[172.606553859762,-43.5658329326988],[172.606385875754,-43.5658791455221],[172.606376885635,-43.5658816260548],[172.60614413008096,-43.5654345131526],[172.606321127858,-43.5653858202407]]]]}}]}