{"type":"FeatureCollection","features":[{"type":"Feature","properties":{"gml_id":"vwRatingUnit.108258","RatingUnitID":108258,"ValuationVisitOrder":"49600","drvRatingUnitLocation":null,"StreetAddressID":31552,"OccupationLevelDescription":"Ground Floor and Above","StreetAddress":"1/166 Halswell Road","LocalityName":"Hillmorton","ValuationRollNumber":"22980"},"geometry":{"type":"MultiPolygon","coordinates":[[[[172.583571938588,-43.55991577260559],[172.583719129256,-43.5598281104107],[172.58382885958696,-43.5599305425716],[172.583683979201,-43.5600161144436],[172.583571938588,-43.55991577260559]]]]}}]}