{"type":"FeatureCollection","features":[{"type":"Feature","properties":{"gml_id":"vwRatingUnit.101614","RatingUnitID":101614,"ValuationVisitOrder":"35900","drvRatingUnitLocation":null,"StreetAddressID":129690,"OccupationLevelDescription":"Ground Floor and Above","StreetAddress":"8E Janice Place","LocalityName":"St Andrews Hill","ValuationRollNumber":"22901"},"geometry":{"type":"MultiPolygon","coordinates":[[[[172.712759335784,-43.5604090542215],[172.712812085103,-43.560414405761],[172.712795859753,-43.5604432212187],[172.712753600912,-43.56043893083509],[172.712759335784,-43.5604090542215]]]]}}]}