{"type":"FeatureCollection","features":[{"type":"Feature","properties":{"gml_id":"vwRatingUnit.109919","RatingUnitID":109919,"ValuationVisitOrder":"43600","drvRatingUnitLocation":null,"StreetAddressID":33162,"OccupationLevelDescription":"Ground Floor and Above","StreetAddress":"1/23E Craven Street","LocalityName":"Sockburn","ValuationRollNumber":"23413"},"geometry":{"type":"MultiPolygon","coordinates":[[[[172.558134177241,-43.5336908009836],[172.55834725537997,-43.5338409794219],[172.558236036534,-43.5339244867012],[172.55802963714797,-43.5337692922122],[172.558134177241,-43.5336908009836]]]]}}]}