{"type":"FeatureCollection","features":[{"type":"Feature","properties":{"gml_id":"vwRatingUnit.110630","RatingUnitID":110630,"ValuationVisitOrder":"29000","drvRatingUnitLocation":null,"StreetAddressID":55639,"OccupationLevelDescription":"Ground Floor and Above","StreetAddress":"21 Doncaster Street","LocalityName":"Upper Riccarton","ValuationRollNumber":"23414"},"geometry":{"type":"MultiPolygon","coordinates":[[[[172.555322077519,-43.530957228422196],[172.55548749179,-43.5310318817952],[172.555225081654,-43.5313396887126],[172.555059679099,-43.531265053022],[172.555322077519,-43.530957228422196]]]]}}]}