{"type":"FeatureCollection","features":[{"type":"Feature","properties":{"gml_id":"vwRatingUnit.117928","RatingUnitID":117928,"ValuationVisitOrder":"12000","drvRatingUnitLocation":null,"StreetAddressID":94548,"OccupationLevelDescription":"Ground Floor and Above","StreetAddress":"44 Fern Drive","LocalityName":"Oaklands","ValuationRollNumber":"23444"},"geometry":{"type":"MultiPolygon","coordinates":[[[[172.562027489373,-43.5760636443999],[172.562167926735,-43.5761108375014],[172.562199161137,-43.5761213339333],[172.561992314627,-43.57644678154039],[172.561965002136,-43.576438361123],[172.56193699957396,-43.576431216187494],[172.561908442926,-43.5764253742521],[172.561879431037,-43.57642086269409],[172.56185008757598,-43.5764176999846],[172.561820511516,-43.57641589549989],[172.561803812246,-43.576415643050794],[172.562027489373,-43.5760636443999]]]]}}]}