{"type":"FeatureCollection","features":[{"type":"Feature","properties":{"gml_id":"vwRatingUnit.105537","RatingUnitID":105537,"ValuationVisitOrder":"7400","drvRatingUnitLocation":null,"StreetAddressID":116757,"OccupationLevelDescription":"Ground Floor and Above","StreetAddress":"7 Mathers Road","LocalityName":"Hoon Hay","ValuationRollNumber":"22952"},"geometry":{"type":"MultiPolygon","coordinates":[[[[172.599649156439,-43.5580252875115],[172.599811468229,-43.558169638148],[172.599944630673,-43.55828806422469],[172.599808576436,-43.5583689676925],[172.599512643166,-43.5581063870557],[172.599649156439,-43.5580252875115]]]]}}]}