{"type":"FeatureCollection","features":[{"type":"Feature","properties":{"gml_id":"vwRatingUnit.110330","RatingUnitID":110330,"ValuationVisitOrder":"3200","drvRatingUnitLocation":null,"StreetAddressID":86108,"OccupationLevelDescription":"Ground Floor and Above","StreetAddress":"39 Bucknell Street","LocalityName":"Upper Riccarton","ValuationRollNumber":"23414"},"geometry":{"type":"MultiPolygon","coordinates":[[[[172.555012279392,-43.5296910627636],[172.555204043995,-43.5297498779085],[172.555238770315,-43.5297598771078],[172.55510917042997,-43.5300111673204],[172.554869426834,-43.5299376300089],[172.555012279392,-43.5296910627636]]]]}}]}