{"type":"FeatureCollection","features":[{"type":"Feature","properties":{"gml_id":"vwRatingUnit.11562","RatingUnitID":11562,"ValuationVisitOrder":"48800","drvRatingUnitLocation":null,"StreetAddressID":1136,"OccupationLevelDescription":"Ground Floor and Above","StreetAddress":"2/59 Brodie Street","LocalityName":"Upper Riccarton","ValuationRollNumber":"21896"},"geometry":{"type":"MultiPolygon","coordinates":[[[[172.567667191793,-43.5253448710334],[172.567667887198,-43.52534366683679],[172.567671882884,-43.5253448886605],[172.567875496418,-43.5254071505183],[172.56787543788,-43.5254154102358],[172.567869221168,-43.525419887331594],[172.567869157377,-43.5254288879808],[172.567862940663,-43.5254333650761],[172.56786274929,-43.5254603670235],[172.567856532572,-43.5254648441186],[172.567856500676,-43.5254693444431],[172.567850283956,-43.5254738215378],[172.567850220163,-43.525482822186895],[172.567844003442,-43.5254872992813],[172.567843971545,-43.5254917996058],[172.567837754823,-43.5254962766998],[172.567837691028,-43.5255052773488],[172.567831474304,-43.5255097544425],[172.567831442406,-43.525514254767],[172.56782522568,-43.5255187318603],[172.56782503428997,-43.52554573380709],[172.567821925926,-43.5255479723537],[172.567815741095,-43.5255479491221],[172.56781263272998,-43.5255501876683],[172.567812600831,-43.5255546879928],[172.567812472749,-43.5255547802332],[172.567585969338,-43.5254855191123],[172.567649702871,-43.525375155681],[172.567667191793,-43.5253448710334]]]]}}]}