{"type":"FeatureCollection","features":[{"type":"Feature","properties":{"gml_id":"vwRatingUnit.105057","RatingUnitID":105057,"ValuationVisitOrder":"6600","drvRatingUnitLocation":null,"StreetAddressID":45148,"OccupationLevelDescription":"Ground Floor and Above","StreetAddress":"11 Smartlea Street","LocalityName":"Hoon Hay","ValuationRollNumber":"22951"},"geometry":{"type":"MultiPolygon","coordinates":[[[[172.605063491665,-43.5585838466385],[172.605470406208,-43.558949958125],[172.605319380815,-43.55903874677999],[172.60491246663096,-43.5586726257663],[172.605063491665,-43.5585838466385]]]]}}]}