{"type":"FeatureCollection","features":[{"type":"Feature","properties":{"gml_id":"vwRatingUnit.109600","RatingUnitID":109600,"ValuationVisitOrder":"10900","drvRatingUnitLocation":null,"StreetAddressID":108950,"OccupationLevelDescription":"Ground Floor and Above","StreetAddress":"6 English Street","LocalityName":"Upper Riccarton","ValuationRollNumber":"23413"},"geometry":{"type":"MultiPolygon","coordinates":[[[[172.56445079488597,-43.5328704409581],[172.564685661841,-43.532692743107795],[172.564720627557,-43.5326921822783],[172.564840292877,-43.5327759108622],[172.564768037325,-43.53282011098559],[172.564580358967,-43.5329348913874],[172.564560365903,-43.5329471199492],[172.56445079488597,-43.5328704409581]]]]}}]}