{"type":"FeatureCollection","features":[{"type":"Feature","properties":{"gml_id":"vwRatingUnit.10841","RatingUnitID":10841,"ValuationVisitOrder":"55700","drvRatingUnitLocation":null,"StreetAddressID":41919,"OccupationLevelDescription":"Ground Floor and Above","StreetAddress":"101 Staveley Street","LocalityName":"Avonhead","ValuationRollNumber":"21895"},"geometry":{"type":"MultiPolygon","coordinates":[[[[172.553061561011,-43.5190880291715],[172.553061695253,-43.5195353938977],[172.552797063815,-43.5194680734891],[172.552835186292,-43.5191119918909],[172.552924374187,-43.5190972080256],[172.55297242881,-43.519091850226],[172.553020862451,-43.5190887801155],[172.553061561011,-43.5190880291715]]]]}}]}