{"type":"FeatureCollection","features":[{"type":"Feature","properties":{"gml_id":"vwRatingUnit.114930","RatingUnitID":114930,"ValuationVisitOrder":"76200","drvRatingUnitLocation":null,"StreetAddressID":130746,"OccupationLevelDescription":"Ground Floor and Above","StreetAddress":"93 Blankney Street","LocalityName":"Hornby","ValuationRollNumber":"23433"},"geometry":{"type":"MultiPolygon","coordinates":[[[[172.528337070239,-43.54987116240859],[172.52861384219298,-43.5496896492053],[172.528623287927,-43.549684377331495],[172.528633751915,-43.5496802527374],[172.528644973524,-43.549677373366],[172.528656679888,-43.5496758191087],[172.528668586184,-43.5496756158024],[172.528680370535,-43.5496767801319],[172.52869177328296,-43.5496792840322],[172.528702485622,-43.5496830542327],[172.52871224831097,-43.5496880086648],[172.528720372131,-43.5496936584607],[172.52881156419397,-43.5497672177948],[172.52847882091896,-43.54998545103899],[172.528337070239,-43.54987116240859]]]]}}]}