{"type":"FeatureCollection","features":[{"type":"Feature","properties":{"gml_id":"vwRatingUnit.107045","RatingUnitID":107045,"ValuationVisitOrder":"14600","drvRatingUnitLocation":null,"StreetAddressID":84362,"OccupationLevelDescription":"Ground Floor and Above","StreetAddress":"37 Stanton Crescent","LocalityName":"Hoon Hay","ValuationRollNumber":"22970"},"geometry":{"type":"MultiPolygon","coordinates":[[[[172.584094086926,-43.5605865786624],[172.584405438361,-43.5608654653549],[172.584259046283,-43.560951956906],[172.583947682813,-43.560673051777],[172.584094086926,-43.5605865786624]]]]}}]}