{"type":"FeatureCollection","features":[{"type":"Feature","properties":{"gml_id":"vwRatingUnit.108348","RatingUnitID":108348,"ValuationVisitOrder":"57900","drvRatingUnitLocation":null,"StreetAddressID":9840,"OccupationLevelDescription":"Ground Floor and Above","StreetAddress":"2/113 Warren Crescent","LocalityName":"Hillmorton","ValuationRollNumber":"22980"},"geometry":{"type":"MultiPolygon","coordinates":[[[[172.58074382938898,-43.5570559919263],[172.580887009701,-43.557184359213394],[172.580957199314,-43.557247286944],[172.58072575358298,-43.5574025085361],[172.580704911766,-43.5575233461299],[172.580700093785,-43.5575812038642],[172.580646299975,-43.5576320906211],[172.58029345340498,-43.55774580184539],[172.58028607096,-43.5577331919537],[172.580647734014,-43.5576166520644],[172.58074382938898,-43.5570559919263]]]]}}]}