{"type":"FeatureCollection","features":[{"type":"Feature","properties":{"gml_id":"vwRatingUnit.108407","RatingUnitID":108407,"ValuationVisitOrder":"61600","drvRatingUnitLocation":null,"StreetAddressID":7818,"OccupationLevelDescription":"Ground Floor and Above","StreetAddress":"2/154 Warren Crescent","LocalityName":"Hillmorton","ValuationRollNumber":"22980"},"geometry":{"type":"MultiPolygon","coordinates":[[[[172.581900509159,-43.5598082774608],[172.58201012262296,-43.5599153011504],[172.58181681113,-43.5600293643223],[172.581810832616,-43.560024014119],[172.581677190747,-43.5599042329672],[172.582063812811,-43.559676097666994],[172.582085412045,-43.5596954568056],[172.581900509159,-43.5598082774608]]]]}}]}