{"type":"FeatureCollection","features":[{"type":"Feature","properties":{"gml_id":"vwRatingUnit.105750","RatingUnitID":105750,"ValuationVisitOrder":"26700","drvRatingUnitLocation":null,"StreetAddressID":116614,"OccupationLevelDescription":"Ground Floor and Above","StreetAddress":"7 Kevin Street","LocalityName":"Hoon Hay","ValuationRollNumber":"22952"},"geometry":{"type":"MultiPolygon","coordinates":[[[[172.597858231271,-43.5630186704611],[172.597985045267,-43.5631304518694],[172.597499827202,-43.5634145234195],[172.597373075438,-43.5633027326991],[172.597858231271,-43.5630186704611]]]]}}]}