{"type":"FeatureCollection","features":[{"type":"Feature","properties":{"gml_id":"vwRatingUnit.114744","RatingUnitID":114744,"ValuationVisitOrder":"55600","drvRatingUnitLocation":null,"StreetAddressID":16379,"OccupationLevelDescription":"Ground Floor and Above","StreetAddress":"18 Boston Avenue","LocalityName":"Hornby","ValuationRollNumber":"23433"},"geometry":{"type":"MultiPolygon","coordinates":[[[[172.528963955456,-43.5547427486765],[172.528984819635,-43.5547541930846],[172.529102536379,-43.5548187965332],[172.52887833867098,-43.5551063402454],[172.528800071148,-43.555072860945096],[172.52872920179,-43.5550397448832],[172.528691229893,-43.5550208047246],[172.528963955456,-43.5547427486765]]]]}}]}