{"type":"FeatureCollection","features":[{"type":"Feature","properties":{"gml_id":"vwRatingUnit.100579","RatingUnitID":100579,"ValuationVisitOrder":"25002","drvRatingUnitLocation":null,"StreetAddressID":37197,"OccupationLevelDescription":"Ground Floor and Above","StreetAddress":"1/57 Beachville Road","LocalityName":"Redcliffs","ValuationRollNumber":"22900"},"geometry":{"type":"MultiPolygon","coordinates":[[[[172.737903350114,-43.5584747029421],[172.737923099815,-43.558471879882696],[172.737926140209,-43.5584714454597],[172.737926803218,-43.5584713505386],[172.737954051623,-43.5584674558007],[172.737957132427,-43.55846701549059],[172.737985003426,-43.5584630317104],[172.73798812464,-43.5584625855133],[172.73801595486697,-43.558458607611],[172.738019116849,-43.558458155527696],[172.738046906661,-43.5584541835041],[172.738050109051,-43.5584537257937],[172.738077858093,-43.55844975938809],[172.738081101251,-43.5584492957914],[172.73808779426298,-43.55844833917719],[172.738089799736,-43.5584480523693],[172.738090140624,-43.5584493162945],[172.738136557128,-43.5586213547425],[172.738137738469,-43.5586257327095],[172.738130996445,-43.5586266964931],[172.738112246585,-43.5586293770252],[172.738107781821,-43.5586300153693],[172.738081258943,-43.5586338070468],[172.738076828867,-43.5586344402703],[172.738050271653,-43.5586382370609],[172.738045875908,-43.5586388654228],[172.738019284002,-43.5586426670659],[172.738014922944,-43.5586432903072],[172.737988296347,-43.5586470968027],[172.737983969975,-43.55864771544319],[172.737969354438,-43.5586498046861],[172.737950842526,-43.5586524512593],[172.737903350114,-43.5584747029421]]]]}}]}