{"type":"FeatureCollection","features":[{"type":"Feature","properties":{"gml_id":"vwRatingUnit.112400","RatingUnitID":112400,"ValuationVisitOrder":"42100","drvRatingUnitLocation":null,"StreetAddressID":158578,"OccupationLevelDescription":"Ground Floor and Above","StreetAddress":"2 Ranui Street","LocalityName":"Hei Hei","ValuationRollNumber":"23421"},"geometry":{"type":"MultiPolygon","coordinates":[[[[172.522979270419,-43.5329741396224],[172.522995260405,-43.5329708278986],[172.52299727821,-43.5329742142543],[172.523068905866,-43.5330944221887],[172.523066691943,-43.5330960146872],[172.523054320729,-43.5330959634237],[172.523010775025,-43.5331272862825],[172.523004589414,-43.5331272606479],[172.522998368595,-43.5331317353404],[172.522992182984,-43.5331317097051],[172.52298596216397,-43.5331361843969],[172.522979776552,-43.533136158761],[172.522898905799,-43.5331943297194],[172.522892720181,-43.5331943040788],[172.522886499347,-43.5331987787653],[172.522874128112,-43.53319872748259],[172.522867907276,-43.533203202167996],[172.52285553603897,-43.5332031508833],[172.52285375731998,-43.5332044303263],[172.5228502192,-43.53319804974219],[172.52283796265797,-43.5331722832516],[172.52282749058,-43.5331461101052],[172.522818840411,-43.533119584262195],[172.52281203516,-43.5330927783361],[172.522807075406,-43.5330657549702],[172.522803997379,-43.5330385863127],[172.522802805296,-43.533010687562],[172.522979270419,-43.5329741396224]]]]}}]}