{"type":"FeatureCollection","features":[{"type":"Feature","properties":{"gml_id":"vwRatingUnit.108045","RatingUnitID":108045,"ValuationVisitOrder":"35800","drvRatingUnitLocation":null,"StreetAddressID":58284,"OccupationLevelDescription":"Ground Floor and Above","StreetAddress":"22 Warren Crescent","LocalityName":"Hillmorton","ValuationRollNumber":"22980"},"geometry":{"type":"MultiPolygon","coordinates":[[[[172.586546111478,-43.555767313500695],[172.586689743835,-43.5555195782524],[172.586980637425,-43.5556391614234],[172.586760725207,-43.5558586670996],[172.586716163496,-43.55583605936069],[172.58666298704497,-43.5558117735636],[172.586608188304,-43.5557894710938],[172.586546111478,-43.555767313500695]]]]}}]}