{"type":"FeatureCollection","features":[{"type":"Feature","properties":{"gml_id":"vwRatingUnit.106438","RatingUnitID":106438,"ValuationVisitOrder":"27400","drvRatingUnitLocation":null,"StreetAddressID":120902,"OccupationLevelDescription":"Ground Floor and Above","StreetAddress":"77 Kaiwara Street","LocalityName":"Hoon Hay","ValuationRollNumber":"22960"},"geometry":{"type":"MultiPolygon","coordinates":[[[[172.606911239752,-43.5701388762059],[172.60740649204,-43.57008385747769],[172.607478748184,-43.5704282812006],[172.607598499087,-43.5705077775902],[172.607583018867,-43.5705222520949],[172.60745520618397,-43.570437453858],[172.607419199394,-43.5702656249426],[172.607205682574,-43.5702893443895],[172.606947284373,-43.5703180500076],[172.606911239752,-43.5701388762059]]]]}}]}