{"type":"FeatureCollection","features":[{"type":"Feature","properties":{"gml_id":"vwRatingUnit.116124","RatingUnitID":116124,"ValuationVisitOrder":"25800","drvRatingUnitLocation":null,"StreetAddressID":94718,"OccupationLevelDescription":"Ground Floor and Above","StreetAddress":"44 Oakley Crescent","LocalityName":"Hornby","ValuationRollNumber":"23435"},"geometry":{"type":"MultiPolygon","coordinates":[[[[172.534139457408,-43.5552390549905],[172.534221989033,-43.5552396496751],[172.53424006927,-43.5556352030013],[172.534205046465,-43.5556333512611],[172.534156901474,-43.5556287101942],[172.534133014892,-43.5556255443232],[172.534085725014,-43.5556175133558],[172.534039256629,-43.555607253475],[172.534016393821,-43.5556013014499],[172.533993807412,-43.555594810485694],[172.533961955683,-43.555584501677],[172.534139457408,-43.5552390549905]]]]}}]}