{"type":"FeatureCollection","features":[{"type":"Feature","properties":{"gml_id":"vwRatingUnit.105442","RatingUnitID":105442,"ValuationVisitOrder":"47700","drvRatingUnitLocation":null,"StreetAddressID":94066,"OccupationLevelDescription":"Ground Floor and Above","StreetAddress":"43 Wyn Street","LocalityName":"Hoon Hay","ValuationRollNumber":"22951"},"geometry":{"type":"MultiPolygon","coordinates":[[[[172.606011796144,-43.5621569246196],[172.606012806762,-43.562157594125],[172.606154672439,-43.5622501469781],[172.605940201192,-43.56242398372439],[172.605722394195,-43.5626005088939],[172.605579517727,-43.5625072860098],[172.606011796144,-43.5621569246196]]]]}}]}