{"type":"FeatureCollection","features":[{"type":"Feature","properties":{"gml_id":"vwRatingUnit.102951","RatingUnitID":102951,"ValuationVisitOrder":"5901","drvRatingUnitLocation":null,"StreetAddressID":58570,"OccupationLevelDescription":"Ground Floor and Above","StreetAddress":"220 Clifton Terrace","LocalityName":"Clifton","ValuationRollNumber":"22911"},"geometry":{"type":"MultiPolygon","coordinates":[[[[172.74740243444796,-43.5724002327305],[172.747574360213,-43.5723182538618],[172.747768516567,-43.5725335461281],[172.747589073377,-43.5726072464301],[172.747422384755,-43.5724223635021],[172.74740243444796,-43.5724002327305]]]]}}]}