{"type":"FeatureCollection","features":[{"type":"Feature","properties":{"gml_id":"vwRatingUnit.106595","RatingUnitID":106595,"ValuationVisitOrder":"39400","drvRatingUnitLocation":null,"StreetAddressID":99775,"OccupationLevelDescription":"Ground Floor and Above","StreetAddress":"5 Chevy Place","LocalityName":"Hoon Hay","ValuationRollNumber":"22960"},"geometry":{"type":"MultiPolygon","coordinates":[[[[172.607647321162,-43.5668444480308],[172.607722825417,-43.5672242557993],[172.607703414406,-43.5672322274487],[172.607693379978,-43.5672373147413],[172.607683825402,-43.5672428537],[172.607648771581,-43.5672676124916],[172.607629194934,-43.5672782387757],[172.607618730384,-43.5672828385609],[172.60759669703398,-43.567290513253],[172.607585215111,-43.5672935524523],[172.607573476721,-43.5672960507356],[172.607547199137,-43.5672996336623],[172.60749289494,-43.5670264303352],[172.607465917098,-43.5668906708115],[172.607464202222,-43.5668820872976],[172.607647321162,-43.5668444480308]]]]}}]}