{"type":"FeatureCollection","features":[{"type":"Feature","properties":{"gml_id":"vwRatingUnit.103407","RatingUnitID":103407,"ValuationVisitOrder":"78100","drvRatingUnitLocation":null,"StreetAddressID":40038,"OccupationLevelDescription":"Ground Floor and Above","StreetAddress":"10 Evans Pass Road","LocalityName":"Sumner","ValuationRollNumber":"22911"},"geometry":{"type":"MultiPolygon","coordinates":[[[[172.755634523214,-43.582056487086795],[172.756184723054,-43.5823023337841],[172.75601407998,-43.5824342355589],[172.755462941471,-43.5821876840439],[172.755479794289,-43.5821747680244],[172.755634523214,-43.582056487086795]]]]}}]}