{"type":"FeatureCollection","features":[{"type":"Feature","properties":{"gml_id":"vwRatingUnit.115791","RatingUnitID":115791,"ValuationVisitOrder":"74100","drvRatingUnitLocation":null,"StreetAddressID":119303,"OccupationLevelDescription":"Ground Floor and Above","StreetAddress":"73 Brynley Street","LocalityName":"Hornby","ValuationRollNumber":"23434"},"geometry":{"type":"MultiPolygon","coordinates":[[[[172.533118329358,-43.54735770925429],[172.53324718152498,-43.5474616247469],[172.53313181625,-43.5475372867269],[172.53276854305096,-43.5477755434285],[172.532639678788,-43.5476716093565],[172.533118329358,-43.54735770925429]]]]}}]}