{"type":"FeatureCollection","features":[{"type":"Feature","properties":{"gml_id":"vwRatingUnit.102095","RatingUnitID":102095,"ValuationVisitOrder":"90401","drvRatingUnitLocation":null,"StreetAddressID":56929,"OccupationLevelDescription":"Ground Floor and Above","StreetAddress":"214B Mt Pleasant Road","LocalityName":"Mt Pleasant","ValuationRollNumber":"22901"},"geometry":{"type":"MultiPolygon","coordinates":[[[[172.720656065074,-43.5677156288354],[172.720664040185,-43.5677229745532],[172.72019840323,-43.5681455389309],[172.720111078769,-43.56817695528999],[172.719855533042,-43.56827306466929],[172.71998693712,-43.56843599586009],[172.719664805901,-43.5685457682462],[172.7195304579,-43.5683932881613],[172.72010687195998,-43.5681765580757],[172.720174878188,-43.5681523043598],[172.720656065074,-43.5677156288354]]]]}}]}