{"type":"FeatureCollection","features":[{"type":"Feature","properties":{"gml_id":"vwRatingUnit.106717","RatingUnitID":106717,"ValuationVisitOrder":"51200","drvRatingUnitLocation":null,"StreetAddressID":11617,"OccupationLevelDescription":"Ground Floor and Above","StreetAddress":"187 Cashmere Road","LocalityName":"Hoon Hay Valley","ValuationRollNumber":"22960"},"geometry":{"type":"MultiPolygon","coordinates":[[[[172.612228827116,-43.5744756756007],[172.61231533647,-43.5749240202709],[172.612206173915,-43.5749351475139],[172.612068692421,-43.5749491677263],[172.611982184843,-43.5745008228607],[172.612228827116,-43.5744756756007]]]]}}]}