{"type":"FeatureCollection","features":[{"type":"Feature","properties":{"gml_id":"vwRatingUnit.106921","RatingUnitID":106921,"ValuationVisitOrder":"2500","drvRatingUnitLocation":null,"StreetAddressID":84277,"OccupationLevelDescription":"Ground Floor and Above","StreetAddress":"37 Redgrave Street","LocalityName":"Hoon Hay","ValuationRollNumber":"22970"},"geometry":{"type":"MultiPolygon","coordinates":[[[[172.590335315126,-43.5597602915828],[172.59034951141297,-43.559773195122894],[172.590455528909,-43.5598695109598],[172.590079010671,-43.56008870024429],[172.589958797121,-43.5599794804791],[172.590335315126,-43.5597602915828]]]]}}]}