{"type":"FeatureCollection","features":[{"type":"Feature","properties":{"gml_id":"vwRatingUnit.118424","RatingUnitID":118424,"ValuationVisitOrder":"18000","drvRatingUnitLocation":null,"StreetAddressID":93343,"OccupationLevelDescription":"Ground Floor and Above","StreetAddress":"425 Halswell Road","LocalityName":"Halswell","ValuationRollNumber":"23445"},"geometry":{"type":"MultiPolygon","coordinates":[[[[172.570488436608,-43.5888500323441],[172.570446410853,-43.5889957956387],[172.569994458041,-43.589033014119],[172.569966778573,-43.589035296201],[172.570011573524,-43.5888798046042],[172.570488436608,-43.5888500323441]]]]}}]}