{"type":"FeatureCollection","features":[{"type":"Feature","properties":{"gml_id":"vwRatingUnit.100081","RatingUnitID":100081,"ValuationVisitOrder":"44800","drvRatingUnitLocation":null,"StreetAddressID":17455,"OccupationLevelDescription":"Ground Floor and Above","StreetAddress":"17 Esk Place","LocalityName":"Aranui","ValuationRollNumber":"22852"},"geometry":{"type":"MultiPolygon","coordinates":[[[[172.710215820901,-43.5146928267947],[172.710233550504,-43.5147069665097],[172.710455546943,-43.5148840286772],[172.71055202357599,-43.5152492133577],[172.71053301965,-43.5152507496972],[172.710527128043,-43.5152517249591],[172.710432473699,-43.5148934843744],[172.710164264141,-43.5150042920051],[172.709924587825,-43.514813125647],[172.710215820901,-43.5146928267947]]]]}}]}