{"type":"FeatureCollection","features":[{"type":"Feature","properties":{"gml_id":"vwRatingUnit.110585","RatingUnitID":110585,"ValuationVisitOrder":"25200","drvRatingUnitLocation":null,"StreetAddressID":120412,"OccupationLevelDescription":"Ground Floor and Above","StreetAddress":"76 Cheyenne Street","LocalityName":"Upper Riccarton","ValuationRollNumber":"23414"},"geometry":{"type":"MultiPolygon","coordinates":[[[[172.555333536574,-43.5285293251325],[172.555355833538,-43.5285371070607],[172.555141573598,-43.5289068371106],[172.555054223845,-43.5290204508205],[172.55496150016296,-43.5291804703312],[172.554788594138,-43.5291279473335],[172.554598518877,-43.5290702001035],[172.554705663705,-43.5288853041754],[172.555032106937,-43.5289845867196],[172.555184725124,-43.528786094802],[172.555333536574,-43.5285293251325]]]]}}]}