{"type":"FeatureCollection","features":[{"type":"Feature","properties":{"gml_id":"vwRatingUnit.117123","RatingUnitID":117123,"ValuationVisitOrder":"88034","drvRatingUnitLocation":null,"StreetAddressID":45293,"OccupationLevelDescription":"Ground Floor and Above","StreetAddress":"11 Vanderbilt Place","LocalityName":"Wentworth Park","ValuationRollNumber":"23441"},"geometry":{"type":"MultiPolygon","coordinates":[[[[172.551734921637,-43.5733930579213],[172.551876294648,-43.5735334346272],[172.551526534006,-43.573719633646],[172.551402478021,-43.5735964523803],[172.551561621548,-43.5734817621047],[172.551734921637,-43.5733930579213]]]]}}]}