{"type":"FeatureCollection","features":[{"type":"Feature","properties":{"gml_id":"vwRatingUnit.10605","RatingUnitID":10605,"ValuationVisitOrder":"34600","drvRatingUnitLocation":null,"StreetAddressID":112757,"OccupationLevelDescription":"Ground Floor and Above","StreetAddress":"63 Toorak Avenue","LocalityName":"Avonhead","ValuationRollNumber":"21895"},"geometry":{"type":"MultiPolygon","coordinates":[[[[172.552958104779,-43.5230613196396],[172.553352537694,-43.5231820508464],[172.553453642281,-43.5232130014505],[172.553371768899,-43.5233547541347],[172.55299592153,-43.5232397298043],[172.552994065757,-43.5232094074957],[172.552991788948,-43.5231892725922],[172.552984859001,-43.5231491915716],[172.552974809325,-43.5231094674654],[172.552968608134,-43.523089776358795],[172.552958104779,-43.5230613196396]]]]}}]}