{"type":"FeatureCollection","features":[{"type":"Feature","properties":{"gml_id":"vwRatingUnit.113819","RatingUnitID":113819,"ValuationVisitOrder":"26000","drvRatingUnitLocation":null,"StreetAddressID":58157,"OccupationLevelDescription":"Ground Floor and Above","StreetAddress":"22 Springmead Place","LocalityName":"Islington","ValuationRollNumber":"23432"},"geometry":{"type":"MultiPolygon","coordinates":[[[[172.513208143082,-43.5431932207321],[172.513234423557,-43.5436459619765],[172.513196551985,-43.54364383967799],[172.513183183005,-43.5434135841866],[172.51291699444997,-43.5434172830377],[172.51285369464097,-43.5434384374994],[172.51275915557,-43.5432887029436],[172.512906176542,-43.54323956775539],[172.513208143082,-43.5431932207321]]]]}}]}