{"type":"FeatureCollection","features":[{"type":"Feature","properties":{"gml_id":"vwRatingUnit.117811","RatingUnitID":117811,"ValuationVisitOrder":"61001","drvRatingUnitLocation":null,"StreetAddressID":106268,"OccupationLevelDescription":"Ground Floor and Above","StreetAddress":"56 Checketts Avenue","LocalityName":"Oaklands","ValuationRollNumber":"23443"},"geometry":{"type":"MultiPolygon","coordinates":[[[[172.561908683925,-43.5740954987041],[172.562039771431,-43.5738889787288],[172.56207406092798,-43.5738772729058],[172.562209172532,-43.5739034020171],[172.562055872477,-43.5741449138548],[172.561908683925,-43.5740954987041]]]]}}]}