{"type":"FeatureCollection","features":[{"type":"Feature","properties":{"gml_id":"vwRatingUnit.117906","RatingUnitID":117906,"ValuationVisitOrder":"9600","drvRatingUnitLocation":null,"StreetAddressID":103198,"OccupationLevelDescription":"Ground Floor and Above","StreetAddress":"51 Nottingham Avenue","LocalityName":"Oaklands","ValuationRollNumber":"23444"},"geometry":{"type":"MultiPolygon","coordinates":[[[[172.561699370686,-43.57542323549009],[172.561422009188,-43.5758601947494],[172.561175927952,-43.5757774958739],[172.561149712602,-43.5754462397761],[172.561699370686,-43.57542323549009]]]]}}]}