{"type":"FeatureCollection","features":[{"type":"Feature","properties":{"gml_id":"vwRatingUnit.113594","RatingUnitID":113594,"ValuationVisitOrder":"65200","drvRatingUnitLocation":null,"StreetAddressID":38436,"OccupationLevelDescription":"Ground Floor and Above","StreetAddress":"1/75 Denise Crescent","LocalityName":"Hornby","ValuationRollNumber":"23431"},"geometry":{"type":"MultiPolygon","coordinates":[[[[172.512300695869,-43.5463690155424],[172.512305088517,-43.5463860639068],[172.512314135935,-43.5464136900748],[172.512323535104,-43.5464375643429],[172.512335953937,-43.5464644937112],[172.512350158443,-43.5464909535895],[172.51236608726,-43.5465168807109],[172.512159894871,-43.546591200003],[172.512059997045,-43.5464557597726],[172.512300695869,-43.5463690155424]]]]}}]}