{"type":"FeatureCollection","features":[{"type":"Feature","properties":{"gml_id":"vwRatingUnit.107872","RatingUnitID":107872,"ValuationVisitOrder":"20300","drvRatingUnitLocation":null,"StreetAddressID":97164,"OccupationLevelDescription":"Ground Floor and Above","StreetAddress":"47 Halswell Road","LocalityName":"Hoon Hay","ValuationRollNumber":"22980"},"geometry":{"type":"MultiPolygon","coordinates":[[[[172.592348747814,-43.5552473451977],[172.59278042665596,-43.5556340772931],[172.59276172693,-43.55564512716299],[172.592116399302,-43.555384603865],[172.592348747814,-43.5552473451977]]]]}}]}