{"type":"FeatureCollection","features":[{"type":"Feature","properties":{"gml_id":"vwRatingUnit.100632","RatingUnitID":100632,"ValuationVisitOrder":"28101","drvRatingUnitLocation":null,"StreetAddressID":2188,"OccupationLevelDescription":"Ground Floor and Above","StreetAddress":"2/37A Main Road","LocalityName":"Redcliffs","ValuationRollNumber":"22900"},"geometry":{"type":"MultiPolygon","coordinates":[[[[172.735100532595,-43.5577874835264],[172.73526798838498,-43.5576733344641],[172.735269359796,-43.55767239960039],[172.735274795972,-43.55766869382029],[172.73528082161198,-43.5576733638871],[172.735331067374,-43.5577123059494],[172.73533125187998,-43.5577124488019],[172.735421902716,-43.557782721515096],[172.735442080144,-43.5577983630073],[172.735445163322,-43.5578007531679],[172.735442060623,-43.55780286794779],[172.735440052614,-43.5578042367007],[172.735420782611,-43.5578173709211],[172.735341345731,-43.5578715145779],[172.73531158719896,-43.5578917976795],[172.735267458607,-43.557921875358694],[172.735100532595,-43.5577874835264]]]]}}]}