{"type":"FeatureCollection","features":[{"type":"Feature","properties":{"gml_id":"vwRatingUnit.102971","RatingUnitID":102971,"ValuationVisitOrder":"8500","drvRatingUnitLocation":null,"StreetAddressID":16798,"OccupationLevelDescription":"Ground Floor and Above","StreetAddress":"168 Clifton Terrace","LocalityName":"Clifton","ValuationRollNumber":"22911"},"geometry":{"type":"MultiPolygon","coordinates":[[[[172.749983446154,-43.5706756001515],[172.75008723731696,-43.5707705816727],[172.750377696344,-43.5710364084591],[172.75068125544,-43.571314206357],[172.750486336165,-43.571426633812],[172.749847513488,-43.5708422110042],[172.749983446154,-43.5706756001515]]]]}}]}