{"type":"FeatureCollection","features":[{"type":"Feature","properties":{"gml_id":"vwRatingUnit.108565","RatingUnitID":108565,"ValuationVisitOrder":"9084","drvRatingUnitLocation":null,"StreetAddressID":131965,"OccupationLevelDescription":"Ground Floor and Above","StreetAddress":"97E Magdala Place","LocalityName":"Middleton","ValuationRollNumber":"23411"},"geometry":{"type":"MultiPolygon","coordinates":[[[[172.577585599345,-43.5459975104551],[172.577602370253,-43.546016590690996],[172.57756970515,-43.5460358676592],[172.577550213222,-43.5460183885853],[172.577585599345,-43.5459975104551]]]]}}]}