{"type":"FeatureCollection","features":[{"type":"Feature","properties":{"gml_id":"vwRatingUnit.114908","RatingUnitID":114908,"ValuationVisitOrder":"74000","drvRatingUnitLocation":null,"StreetAddressID":11357,"OccupationLevelDescription":"Ground Floor and Above","StreetAddress":"2 Glenora Place","LocalityName":"Hornby","ValuationRollNumber":"23433"},"geometry":{"type":"MultiPolygon","coordinates":[[[[172.52967243987698,-43.55175397416879],[172.529833088306,-43.5518835406381],[172.529586634955,-43.5520451625691],[172.529577747902,-43.5520501667765],[172.529567332519,-43.5520543636633],[172.529556147087,-43.5520573152822],[172.529544452109,-43.5520589416888],[172.52953255717,-43.5520592171445],[172.529520759342,-43.5520581338616],[172.529509330808,-43.5520557019526],[172.52949856801496,-43.5520519946355],[172.52948874245,-43.5520471120289],[172.529480100851,-43.5520411541506],[172.529369988908,-43.551952333655],[172.52967243987698,-43.55175397416879]]]]}}]}