{"type":"FeatureCollection","features":[{"type":"Feature","properties":{"gml_id":"vwRatingUnit.10050","RatingUnitID":10050,"ValuationVisitOrder":"80600","drvRatingUnitLocation":null,"StreetAddressID":47696,"OccupationLevelDescription":"Ground Floor and Above","StreetAddress":"11A Swithland Place","LocalityName":"Avonhead","ValuationRollNumber":"21894"},"geometry":{"type":"MultiPolygon","coordinates":[[[[172.55991611950998,-43.507638747303396],[172.559945178617,-43.5078360152946],[172.559947124159,-43.5078491641248],[172.559493540045,-43.5078846008232],[172.559464631249,-43.50792170896119],[172.559422382069,-43.507908774702194],[172.559614060974,-43.5076623701424],[172.55985657882,-43.5076434158632],[172.55991611950998,-43.507638747303396]]]]}}]}