{"type":"FeatureCollection","features":[{"type":"Feature","properties":{"gml_id":"vwRatingUnit.104028","RatingUnitID":104028,"ValuationVisitOrder":"27600","drvRatingUnitLocation":null,"StreetAddressID":5693,"OccupationLevelDescription":"Ground Floor and Above","StreetAddress":"2/2 Colenso Street","LocalityName":"Sumner","ValuationRollNumber":"22920"},"geometry":{"type":"MultiPolygon","coordinates":[[[[172.758564614856,-43.5733568498069],[172.758586151231,-43.5731854220051],[172.758588151832,-43.5731772357717],[172.758591958104,-43.5731694852716],[172.758597470495,-43.5731623054477],[172.758604539511,-43.5731558940359],[172.758612966832,-43.5731504122833],[172.758622540874,-43.5731460310258],[172.758632964544,-43.573142848667],[172.758643976818,-43.5731409725228],[172.758655269022,-43.5731404471723],[172.75866651828798,-43.5731412896151],[172.758677415867,-43.5731434724365],[172.758687677104,-43.5731469321454],[172.758697004904,-43.573151586771395],[172.758774316724,-43.5731974462448],[172.758745756665,-43.5733673689567],[172.758564614856,-43.5733568498069]]]]}}]}