{"type":"FeatureCollection","features":[{"type":"Feature","properties":{"gml_id":"vwRatingUnit.108088","RatingUnitID":108088,"ValuationVisitOrder":"40500","drvRatingUnitLocation":null,"StreetAddressID":108760,"OccupationLevelDescription":"Ground Floor and Above","StreetAddress":"6 Charles Upham Avenue","LocalityName":"Hillmorton","ValuationRollNumber":"22980"},"geometry":{"type":"MultiPolygon","coordinates":[[[[172.586103473681,-43.55641036033509],[172.586206404654,-43.5564343840006],[172.58634455091698,-43.5565580735674],[172.585993422656,-43.556828186149],[172.585966846004,-43.55681064716959],[172.585924393694,-43.5567853554809],[172.585880010736,-43.5567618839963],[172.585833845091,-43.5567403142523],[172.586103473681,-43.55641036033509]]]]}}]}