{"type":"FeatureCollection","features":[{"type":"Feature","properties":{"gml_id":"vwRatingUnit.117871","RatingUnitID":117871,"ValuationVisitOrder":"5400","drvRatingUnitLocation":null,"StreetAddressID":78737,"OccupationLevelDescription":"Ground Floor and Above","StreetAddress":"322 Halswell Road","LocalityName":"Halswell","ValuationRollNumber":"23444"},"geometry":{"type":"MultiPolygon","coordinates":[[[[172.566945955298,-43.5772937155329],[172.567511228864,-43.5774834838016],[172.567400648211,-43.5776577468498],[172.566835373549,-43.57746795105649],[172.566945955298,-43.5772937155329]]]]}}]}