{"type":"FeatureCollection","features":[{"type":"Feature","properties":{"gml_id":"vwRatingUnit.113320","RatingUnitID":113320,"ValuationVisitOrder":"27200","drvRatingUnitLocation":null,"StreetAddressID":49748,"OccupationLevelDescription":"Ground Floor and Above","StreetAddress":"121 Foremans Road","LocalityName":"Islington","ValuationRollNumber":"23431"},"geometry":{"type":"MultiPolygon","coordinates":[[[[172.510807596762,-43.5417606012906],[172.511133233698,-43.5416518127542],[172.511500101162,-43.5422329046103],[172.51136032702996,-43.5422796114961],[172.511168281082,-43.5419751674941],[172.51084326287196,-43.5420837427454],[172.510668096242,-43.54180720048619],[172.510807596762,-43.5417606012906]]]]}}]}