{"type":"FeatureCollection","features":[{"type":"Feature","properties":{"gml_id":"vwRatingUnit.118380","RatingUnitID":118380,"ValuationVisitOrder":"13500","drvRatingUnitLocation":null,"StreetAddressID":76806,"OccupationLevelDescription":"Ground Floor and Above","StreetAddress":"31 Larsens Road","LocalityName":"Halswell","ValuationRollNumber":"23445"},"geometry":{"type":"MultiPolygon","coordinates":[[[[172.569279210905,-43.59269238822289],[172.569740642902,-43.592661796104196],[172.569759430641,-43.5928073266043],[172.569695439666,-43.592811489486],[172.56929793951,-43.5928373695462],[172.569279210905,-43.59269238822289]]]]}}]}