{"type":"FeatureCollection","features":[{"type":"Feature","properties":{"gml_id":"vwRatingUnit.109864","RatingUnitID":109864,"ValuationVisitOrder":"39600","drvRatingUnitLocation":null,"StreetAddressID":55998,"OccupationLevelDescription":"Ground Floor and Above","StreetAddress":"21 Middlepark Road","LocalityName":"Upper Riccarton","ValuationRollNumber":"23413"},"geometry":{"type":"MultiPolygon","coordinates":[[[[172.557905234787,-43.5296885132949],[172.558363877413,-43.5298294911225],[172.55836208587,-43.5298325985566],[172.558267030058,-43.5299962480185],[172.557808361782,-43.5298552517233],[172.557905234787,-43.5296885132949]]]]}}]}