{"type":"FeatureCollection","features":[{"type":"Feature","properties":{"gml_id":"vwRatingUnit.109814","RatingUnitID":109814,"ValuationVisitOrder":"34000","drvRatingUnitLocation":null,"StreetAddressID":47846,"OccupationLevelDescription":"Ground Floor and Above","StreetAddress":"12 Algidus Street","LocalityName":"Upper Riccarton","ValuationRollNumber":"23413"},"geometry":{"type":"MultiPolygon","coordinates":[[[[172.55968080526597,-43.533216647766494],[172.560106868292,-43.5332665576035],[172.560184281258,-43.5334186533017],[172.559649884095,-43.533356052158],[172.55968080526597,-43.533216647766494]]]]}}]}