{"type":"FeatureCollection","features":[{"type":"Feature","properties":{"gml_id":"vwRatingUnit.118221","RatingUnitID":118221,"ValuationVisitOrder":"42302","drvRatingUnitLocation":null,"StreetAddressID":45839,"OccupationLevelDescription":"Ground Floor and Above","StreetAddress":"110 Halswell Junction Road","LocalityName":"Oaklands","ValuationRollNumber":"23444"},"geometry":{"type":"MultiPolygon","coordinates":[[[[172.559641617254,-43.5803835969314],[172.560072319858,-43.580521043429],[172.559784971169,-43.580997203747],[172.55977363131598,-43.5809935781797],[172.55996430342498,-43.5806776677878],[172.559544877992,-43.5805438192537],[172.559641617254,-43.5803835969314]]]]}}]}