{"type":"FeatureCollection","features":[{"type":"Feature","properties":{"gml_id":"vwRatingUnit.114294","RatingUnitID":114294,"ValuationVisitOrder":"9200","drvRatingUnitLocation":null,"StreetAddressID":100914,"OccupationLevelDescription":"Ground Floor and Above","StreetAddress":"5 Trevor Street","LocalityName":"Hornby","ValuationRollNumber":"23433"},"geometry":{"type":"MultiPolygon","coordinates":[[[[172.533257290604,-43.5506273951485],[172.533674163551,-43.55096355626859],[172.53352632964197,-43.551060554308],[172.53310946914,-43.5507244017111],[172.533257290604,-43.5506273951485]]]]}}]}