{"type":"FeatureCollection","features":[{"type":"Feature","properties":{"gml_id":"vwRatingUnit.104467","RatingUnitID":104467,"ValuationVisitOrder":"64700","drvRatingUnitLocation":null,"StreetAddressID":74131,"OccupationLevelDescription":"Ground Floor and Above","StreetAddress":"3/50 Nayland Street","LocalityName":"Sumner","ValuationRollNumber":"22920"},"geometry":{"type":"MultiPolygon","coordinates":[[[[172.759888924877,-43.5704045618495],[172.760077853581,-43.5705226595935],[172.760058141828,-43.570540217801],[172.759997892904,-43.5705938840216],[172.75980603336998,-43.57047839834019],[172.75987044970296,-43.5704210188505],[172.759888924877,-43.5704045618495]]]]}}]}