{"type":"FeatureCollection","features":[{"type":"Feature","properties":{"gml_id":"vwRatingUnit.102704","RatingUnitID":102704,"ValuationVisitOrder":"65500","drvRatingUnitLocation":null,"StreetAddressID":58974,"OccupationLevelDescription":"Ground Floor and Above","StreetAddress":"227 Mt Pleasant Road","LocalityName":"Mt Pleasant","ValuationRollNumber":"22902"},"geometry":{"type":"MultiPolygon","coordinates":[[[[172.722014495028,-43.5683994715809],[172.721964939857,-43.5685772028179],[172.721431731962,-43.5686007419282],[172.721472039603,-43.5684561195681],[172.721532507759,-43.5684208752355],[172.722014495028,-43.5683994715809]]]]}}]}