{"type":"FeatureCollection","features":[{"type":"Feature","properties":{"gml_id":"vwRatingUnit.10955","RatingUnitID":10955,"ValuationVisitOrder":"65900","drvRatingUnitLocation":null,"StreetAddressID":61823,"OccupationLevelDescription":"Ground Floor and Above","StreetAddress":"24 Staveley Street","LocalityName":"Avonhead","ValuationRollNumber":"21895"},"geometry":{"type":"MultiPolygon","coordinates":[[[[172.558664388872,-43.5200154352266],[172.559024454436,-43.52012558326369],[172.559012767759,-43.5201458355288],[172.559037068482,-43.5201532554366],[172.558965858494,-43.5202766640299],[172.558961258539,-43.520283325073294],[172.558952089685,-43.5202923538411],[172.55894059429596,-43.5202998345306],[172.558927244595,-43.5203054629207],[172.55891261136,-43.5203089891737],[172.558897276959,-43.5203102715076],[172.55888192199197,-43.5203092675277],[172.558867164762,-43.52030599760689],[172.558551317532,-43.5202094841747],[172.558664388872,-43.5200154352266]]]]}}]}