{"type":"FeatureCollection","features":[{"type":"Feature","properties":{"gml_id":"vwRatingUnit.105194","RatingUnitID":105194,"ValuationVisitOrder":"19500","drvRatingUnitLocation":null,"StreetAddressID":12592,"OccupationLevelDescription":"Ground Floor and Above","StreetAddress":"19 McBeath Avenue","LocalityName":"Hoon Hay","ValuationRollNumber":"22951"},"geometry":{"type":"MultiPolygon","coordinates":[[[[172.60954181110196,-43.5626172609884],[172.609654244596,-43.5627512211612],[172.609382999726,-43.5628556867679],[172.609342436633,-43.5627999865834],[172.609305359408,-43.56274907299909],[172.60928218242,-43.562717246848095],[172.60954181110196,-43.5626172609884]]]]}}]}