{"type":"FeatureCollection","features":[{"type":"Feature","properties":{"gml_id":"vwRatingUnit.117532","RatingUnitID":117532,"ValuationVisitOrder":"34800","drvRatingUnitLocation":null,"StreetAddressID":48129,"OccupationLevelDescription":"Ground Floor and Above","StreetAddress":"12 Cunningham Place","LocalityName":"Oaklands","ValuationRollNumber":"23443"},"geometry":{"type":"MultiPolygon","coordinates":[[[[172.567898637532,-43.5722227755215],[172.568086050786,-43.57228567281649],[172.567834276117,-43.5726824465886],[172.567646861891,-43.5726195488987],[172.567898637532,-43.5722227755215]]]]}}]}