{"type":"FeatureCollection","features":[{"type":"Feature","properties":{"gml_id":"vwRatingUnit.100112","RatingUnitID":100112,"ValuationVisitOrder":"49000","drvRatingUnitLocation":null,"StreetAddressID":119824,"OccupationLevelDescription":"Ground Floor and Above","StreetAddress":"74 Rowan Avenue","LocalityName":"Aranui","ValuationRollNumber":"22852"},"geometry":{"type":"MultiPolygon","coordinates":[[[[172.709445117259,-43.5158162138351],[172.70958759603496,-43.5159298830365],[172.709174231853,-43.516204125726],[172.709068925298,-43.516120099232],[172.70903177792798,-43.51609045608419],[172.709445117259,-43.5158162138351]]]]}}]}