{"type":"FeatureCollection","features":[{"type":"Feature","properties":{"gml_id":"vwRatingUnit.116173","RatingUnitID":116173,"ValuationVisitOrder":"30000","drvRatingUnitLocation":null,"StreetAddressID":40496,"OccupationLevelDescription":"Ground Floor and Above","StreetAddress":"10 McKellar Place","LocalityName":"Hornby","ValuationRollNumber":"23435"},"geometry":{"type":"MultiPolygon","coordinates":[[[[172.53464680617,-43.554197409121],[172.534899446007,-43.5542900851273],[172.535130234868,-43.554357866005],[172.53511079728997,-43.55438318803739],[172.535590230855,-43.5545778211346],[172.535571434251,-43.5546002475452],[172.53509582532,-43.554407159953],[172.535050721198,-43.5544956365315],[172.534532972373,-43.5544082537817],[172.53461935212198,-43.5542482521725],[172.53464680617,-43.554197409121]]]]}}]}