{"type":"FeatureCollection","features":[{"type":"Feature","properties":{"gml_id":"vwRatingUnit.101916","RatingUnitID":101916,"ValuationVisitOrder":"72200","drvRatingUnitLocation":null,"StreetAddressID":121168,"OccupationLevelDescription":"Ground Floor and Above","StreetAddress":"78 Cannon Hill Crescent","LocalityName":"St Andrews Hill","ValuationRollNumber":"22901"},"geometry":{"type":"MultiPolygon","coordinates":[[[[172.711640731935,-43.5616494692691],[172.71172855384,-43.5617895303079],[172.711223505748,-43.561941917039],[172.711193964527,-43.5617843332802],[172.711640731935,-43.5616494692691]]]]}}]}