{"type":"FeatureCollection","features":[{"type":"Feature","properties":{"gml_id":"vwRatingUnit.116363","RatingUnitID":116363,"ValuationVisitOrder":"14700","drvRatingUnitLocation":null,"StreetAddressID":26936,"OccupationLevelDescription":"Ground Floor and Above","StreetAddress":"13 Westlake Drive","LocalityName":"Westlake","ValuationRollNumber":"23441"},"geometry":{"type":"MultiPolygon","coordinates":[[[[172.55643591770496,-43.567998282965995],[172.55673259860396,-43.56822797215939],[172.556561255928,-43.5683450347781],[172.556264512941,-43.568115380914094],[172.55643591770496,-43.567998282965995]]]]}}]}