{"type":"FeatureCollection","features":[{"type":"Feature","properties":{"gml_id":"vwRatingUnit.111850","RatingUnitID":111850,"ValuationVisitOrder":"90109","drvRatingUnitLocation":null,"StreetAddressID":95717,"OccupationLevelDescription":"Ground Floor and Above","StreetAddress":"45 Showgate Avenue","LocalityName":"Riccarton Park","ValuationRollNumber":"23415"},"geometry":{"type":"MultiPolygon","coordinates":[[[[172.540768247268,-43.5332929691485],[172.54097386200198,-43.5333556256165],[172.540814784901,-43.5336319672511],[172.540683945378,-43.5335920932128],[172.540609169458,-43.5335693015091],[172.540768247268,-43.5332929691485]]]]}}]}