{"type":"FeatureCollection","features":[{"type":"Feature","properties":{"gml_id":"vwRatingUnit.112939","RatingUnitID":112939,"ValuationVisitOrder":"17904","drvRatingUnitLocation":null,"StreetAddressID":39353,"OccupationLevelDescription":"Ground Floor and Above","StreetAddress":"1/91 Waterloo Road","LocalityName":"Sockburn","ValuationRollNumber":"23422"},"geometry":{"type":"MultiPolygon","coordinates":[[[[172.536994831954,-43.5380614247198],[172.537018147865,-43.538182211981095],[172.536772017804,-43.5382022776331],[172.536748212805,-43.5380866249499],[172.536994831954,-43.5380614247198]]]]}}]}