{"type":"FeatureCollection","features":[{"type":"Feature","properties":{"gml_id":"vwRatingUnit.110337","RatingUnitID":110337,"ValuationVisitOrder":"3700","drvRatingUnitLocation":null,"StreetAddressID":98683,"OccupationLevelDescription":"Ground Floor and Above","StreetAddress":"49 Bucknell Street","LocalityName":"Upper Riccarton","ValuationRollNumber":"23414"},"geometry":{"type":"MultiPolygon","coordinates":[[[[172.554183052244,-43.5294367372265],[172.554392503004,-43.5295009777971],[172.554233799222,-43.5297748996567],[172.55409596277,-43.5297326284888],[172.55402433531,-43.5297106587602],[172.554183052244,-43.5294367372265]]]]}}]}