{"type":"FeatureCollection","features":[{"type":"Feature","properties":{"gml_id":"vwRatingUnit.100490","RatingUnitID":100490,"ValuationVisitOrder":"20500","drvRatingUnitLocation":null,"StreetAddressID":114523,"OccupationLevelDescription":"Ground Floor and Above","StreetAddress":"67 Main Road","LocalityName":"Redcliffs","ValuationRollNumber":"22900"},"geometry":{"type":"MultiPolygon","coordinates":[[[[172.73742139488598,-43.5602058594914],[172.737546464371,-43.5603029984905],[172.737237528112,-43.5605133584208],[172.737112383838,-43.5604163539297],[172.73742139488598,-43.5602058594914]]]]}}]}