{"type":"FeatureCollection","features":[{"type":"Feature","properties":{"gml_id":"vwRatingUnit.106956","RatingUnitID":106956,"ValuationVisitOrder":"5800","drvRatingUnitLocation":null,"StreetAddressID":71524,"OccupationLevelDescription":"Ground Floor and Above","StreetAddress":"3 Myers Place","LocalityName":"Hoon Hay","ValuationRollNumber":"22970"},"geometry":{"type":"MultiPolygon","coordinates":[[[[172.588896972164,-43.55982258642409],[172.58904476379098,-43.5599568647696],[172.589167349937,-43.5600682361475],[172.5892081916,-43.5601053388347],[172.58905800246998,-43.560192731951],[172.588785495734,-43.5599452472312],[172.588788512237,-43.5599402535678],[172.58879255496896,-43.5599317442668],[172.588795658411,-43.559923033598],[172.588799618873,-43.5599083674808],[172.588802993446,-43.5598998287935],[172.588807319441,-43.559891527519994],[172.58881254710897,-43.5598834994856],[172.58881865120998,-43.5598758166065],[172.588825594432,-43.5598685057515],[172.58883332678397,-43.5598616387484],[172.588841798578,-43.559855242422],[172.5888519292,-43.5598487980074],[172.588896972164,-43.55982258642409]]]]}}]}