{"type":"FeatureCollection","features":[{"type":"Feature","properties":{"gml_id":"vwRatingUnit.104591","RatingUnitID":104591,"ValuationVisitOrder":"70800","drvRatingUnitLocation":null,"StreetAddressID":123927,"OccupationLevelDescription":"Ground Floor and Above","StreetAddress":"8/11 Marriner Street","LocalityName":"Sumner","ValuationRollNumber":"22920"},"geometry":{"type":"MultiPolygon","coordinates":[[[[172.757781430799,-43.5671196367754],[172.757784525281,-43.5671196432609],[172.757784462828,-43.56713539397119],[172.757778256018,-43.567139881203],[172.757778229251,-43.5671466315074],[172.757775134768,-43.5671466250217],[172.75776582454898,-43.56715335586849],[172.757765806704,-43.5671578560714],[172.757753393076,-43.56716683053269],[172.75775337523,-43.5671713307356],[172.757744065005,-43.5671780615806],[172.75774097052,-43.567178055094],[172.757731687065,-43.5671780356338],[172.757725515943,-43.567173522457],[172.757722421459,-43.5671735159698],[172.757722430383,-43.5671712658684],[172.757734844017,-43.5671622914104],[172.757734861864,-43.5671577912075],[172.75774727549398,-43.5671488167483],[172.75774729333997,-43.5671443165453],[172.757781430799,-43.5671196367754]]]]}}]}