{"type":"FeatureCollection","features":[{"type":"Feature","properties":{"gml_id":"vwRatingUnit.104717","RatingUnitID":104717,"ValuationVisitOrder":"4200","drvRatingUnitLocation":null,"StreetAddressID":114278,"OccupationLevelDescription":"Ground Floor and Above","StreetAddress":"66 Scarborough Road","LocalityName":"Scarborough","ValuationRollNumber":"22931"},"geometry":{"type":"MultiPolygon","coordinates":[[[[172.768541414781,-43.5764527232521],[172.768497025387,-43.5764121954512],[172.76845095966,-43.5763664800236],[172.768474351044,-43.5763518831306],[172.768478691536,-43.5763466265614],[172.768481313384,-43.5763407995245],[172.76848210408,-43.576334689809],[172.768481025292,-43.5763286123534],[172.768478125448,-43.5763228552687],[172.768418617647,-43.5762536397748],[172.768393346761,-43.5761990465151],[172.768384772607,-43.57618137048439],[172.76837799509198,-43.5761632840303],[172.76837303856297,-43.5761448952072],[172.768369952232,-43.5761262851179],[172.768368721195,-43.57610485260539],[172.76837059184098,-43.5760914456959],[172.768374331007,-43.5760782585386],[172.768379888764,-43.5760653990385],[172.768387214979,-43.5760530291029],[172.768396222584,-43.5760412565626],[172.76840909784298,-43.5760281236984],[172.768703071759,-43.5762563960212],[172.76877108414797,-43.5762112687899],[172.76886837673499,-43.5763915080101],[172.768681736074,-43.576440943354896],[172.76859199412797,-43.576421331913],[172.768541414781,-43.5764527232521]]]]}}]}