{"type":"FeatureCollection","features":[{"type":"Feature","properties":{"gml_id":"vwRatingUnit.10418","RatingUnitID":10418,"ValuationVisitOrder":"17900","drvRatingUnitLocation":null,"StreetAddressID":92670,"OccupationLevelDescription":"Ground Floor and Above","StreetAddress":"42 Camberwell Place","LocalityName":"Avonhead","ValuationRollNumber":"21895"},"geometry":{"type":"MultiPolygon","coordinates":[[[[172.552409748111,-43.5228933185215],[172.552489858289,-43.522917860654594],[172.552344049492,-43.5231701922625],[172.552009227021,-43.5231319851472],[172.55201125600897,-43.5231150983181],[172.552011070528,-43.5231066727331],[172.552008336128,-43.523089938372294],[172.552002481459,-43.52307363290579],[172.551998432831,-43.5230657323321],[172.551991386697,-43.5230550207986],[172.552409748111,-43.5228933185215]]]]}}]}