{"type":"FeatureCollection","features":[{"type":"Feature","properties":{"gml_id":"vwRatingUnit.103545","RatingUnitID":103545,"ValuationVisitOrder":"91300","drvRatingUnitLocation":null,"StreetAddressID":70478,"OccupationLevelDescription":"Ground Floor and Above","StreetAddress":"2A Nayland Street","LocalityName":"Clifton","ValuationRollNumber":"22911"},"geometry":{"type":"MultiPolygon","coordinates":[[[[172.756030319585,-43.5674901646441],[172.756047308096,-43.5674701294299],[172.756028301525,-43.5674685772274],[172.75604592274598,-43.5673551993451],[172.756241395385,-43.567371218633],[172.75621528809597,-43.56753918456499],[172.75595214287696,-43.5676999898356],[172.755893059858,-43.5676974169281],[172.755942467601,-43.567646209526295],[172.756009861278,-43.56751427874959],[172.756030319585,-43.5674901646441]]]]}}]}