{"type":"FeatureCollection","features":[{"type":"Feature","properties":{"gml_id":"vwRatingUnit.104375","RatingUnitID":104375,"ValuationVisitOrder":"57800","drvRatingUnitLocation":null,"StreetAddressID":43232,"OccupationLevelDescription":"Ground Floor and Above","StreetAddress":"107 Nayland Street","LocalityName":"Sumner","ValuationRollNumber":"22920"},"geometry":{"type":"MultiPolygon","coordinates":[[[[172.764815288555,-43.5728007362928],[172.764686690714,-43.5727243668232],[172.764948926069,-43.5724906543409],[172.765077511323,-43.5725670325001],[172.76499012465797,-43.5726449158719],[172.76490273777,-43.57272279917729],[172.764815288555,-43.5728007362928]]]]}}]}