{"type":"FeatureCollection","features":[{"type":"Feature","properties":{"gml_id":"vwRatingUnit.111380","RatingUnitID":111380,"ValuationVisitOrder":"52400","drvRatingUnitLocation":null,"StreetAddressID":86813,"OccupationLevelDescription":"Ground Floor and Above","StreetAddress":"391 Yaldhurst Road","LocalityName":"Masham","ValuationRollNumber":"23415"},"geometry":{"type":"MultiPolygon","coordinates":[[[[172.535204948911,-43.5208163514117],[172.53538833670396,-43.520872691164],[172.53514655888,-43.52128945773809],[172.535105478026,-43.5212768434018],[172.534963182348,-43.5212331266654],[172.535074935007,-43.5210404898777],[172.535204948911,-43.5208163514117]]]]}}]}