{"type":"FeatureCollection","features":[{"type":"Feature","properties":{"gml_id":"vwRatingUnit.117446","RatingUnitID":117446,"ValuationVisitOrder":"25800","drvRatingUnitLocation":null,"StreetAddressID":122163,"OccupationLevelDescription":"Ground Floor and Above","StreetAddress":"8 Brenda Place","LocalityName":"Oaklands","ValuationRollNumber":"23443"},"geometry":{"type":"MultiPolygon","coordinates":[[[[172.565016434799,-43.5732540416036],[172.565323286676,-43.57335705114609],[172.565482184058,-43.5734104033734],[172.56538728000996,-43.5735599986187],[172.56500782023798,-43.573432629397594],[172.564636970101,-43.57330814464489],[172.564655938669,-43.573278252676396],[172.564940411642,-43.573373744138294],[172.565016434799,-43.5732540416036]]]]}}]}