{"type":"FeatureCollection","features":[{"type":"Feature","properties":{"gml_id":"vwRatingUnit.108481","RatingUnitID":108481,"ValuationVisitOrder":"68100","drvRatingUnitLocation":null,"StreetAddressID":10371,"OccupationLevelDescription":"Ground Floor and Above","StreetAddress":"194 Halswell Road","LocalityName":"Hillmorton","ValuationRollNumber":"22980"},"geometry":{"type":"MultiPolygon","coordinates":[[[[172.580797192144,-43.5615371302252],[172.580926590927,-43.5614553482657],[172.58105397241596,-43.5615694008212],[172.580920961121,-43.5616479602483],[172.580797192144,-43.5615371302252]]]]}}]}