{"type":"FeatureCollection","features":[{"type":"Feature","properties":{"gml_id":"vwRatingUnit.106588","RatingUnitID":106588,"ValuationVisitOrder":"38700","drvRatingUnitLocation":null,"StreetAddressID":128323,"OccupationLevelDescription":"Ground Floor and Above","StreetAddress":"9 Northaw Street","LocalityName":"Hoon Hay","ValuationRollNumber":"22960"},"geometry":{"type":"MultiPolygon","coordinates":[[[[172.607106321646,-43.566220711875694],[172.607163165414,-43.5665066691348],[172.606897027004,-43.5665346100889],[172.606857389764,-43.5663351541934],[172.606856756425,-43.5663239461437],[172.606859278699,-43.5663128658547],[172.606861689705,-43.566307527643495],[172.606868698314,-43.566297524723694],[172.606873220953,-43.5662929677681],[172.60688406615296,-43.56628498507799],[172.606896917641,-43.5662787643615],[172.606905364967,-43.5662760029167],[172.607106321646,-43.566220711875694]]]]}}]}