{"type":"FeatureCollection","features":[{"type":"Feature","properties":{"gml_id":"vwRatingUnit.112821","RatingUnitID":112821,"ValuationVisitOrder":"122","drvRatingUnitLocation":null,"StreetAddressID":110965,"OccupationLevelDescription":"Ground Floor and Above","StreetAddress":"60 Waterloo Road","LocalityName":"Hornby","ValuationRollNumber":"23422"},"geometry":{"type":"MultiPolygon","coordinates":[[[[172.541431120332,-43.534445892624994],[172.541594981204,-43.534495834291796],[172.541514537677,-43.5346375572782],[172.54162119635,-43.535134490244594],[172.541648996159,-43.535264520061396],[172.542046701498,-43.535924177283796],[172.542144412517,-43.536407509548795],[172.541899722517,-43.5364343938948],[172.541860153394,-43.5362503209215],[172.54095240598897,-43.5363404041677],[172.54116769485498,-43.5374519381912],[172.541018405162,-43.5374672026866],[172.540719704775,-43.53592538922389],[172.540652518377,-43.535577965078396],[172.540614315349,-43.53550380714619],[172.54054909114697,-43.5353772010582],[172.54160598214,-43.535268993249694],[172.541431120332,-43.534445892624994]]]]}}]}