{"type":"FeatureCollection","features":[{"type":"Feature","properties":{"gml_id":"vwRatingUnit.113423","RatingUnitID":113423,"ValuationVisitOrder":"37400","drvRatingUnitLocation":null,"StreetAddressID":88129,"OccupationLevelDescription":"Ground Floor and Above","StreetAddress":"4 Montague Street","LocalityName":"Islington","ValuationRollNumber":"23431"},"geometry":{"type":"MultiPolygon","coordinates":[[[[172.510770778739,-43.5428764269842],[172.51087397516096,-43.5430398814643],[172.510532412035,-43.5431540111882],[172.510429204028,-43.5429905473483],[172.510770778739,-43.5428764269842]]]]}}]}