{"type":"FeatureCollection","features":[{"type":"Feature","properties":{"gml_id":"vwRatingUnit.117113","RatingUnitID":117113,"ValuationVisitOrder":"84810","drvRatingUnitLocation":null,"StreetAddressID":26140,"OccupationLevelDescription":"Ground Floor and Above","StreetAddress":"14 Rempstone Drive","LocalityName":"Wentworth Park","ValuationRollNumber":"23441"},"geometry":{"type":"MultiPolygon","coordinates":[[[[172.551564141762,-43.57375697115139],[172.551672910371,-43.5738648454641],[172.551695905247,-43.57388767984809],[172.551336335844,-43.5740791056381],[172.551204659694,-43.5739483518686],[172.551564141762,-43.57375697115139]]]]}}]}