{"type":"FeatureCollection","features":[{"type":"Feature","properties":{"gml_id":"vwRatingUnit.106629","RatingUnitID":106629,"ValuationVisitOrder":"42800","drvRatingUnitLocation":null,"StreetAddressID":40799,"OccupationLevelDescription":"Ground Floor and Above","StreetAddress":"10 Rydal Street","LocalityName":"Hoon Hay","ValuationRollNumber":"22960"},"geometry":{"type":"MultiPolygon","coordinates":[[[[172.607691993137,-43.5660610966978],[172.60771377071,-43.56605847952229],[172.6077381847,-43.56605780645889],[172.60776252198897,-43.5660594373128],[172.607774518036,-43.56606110721919],[172.607797967066,-43.566066128315995],[172.607809296444,-43.5660694520844],[172.607830954851,-43.5660776713432],[172.607849597866,-43.5660870594438],[172.607990648979,-43.5661676180786],[172.607850942417,-43.5664344556074],[172.60776794004,-43.566443174216396],[172.607691993137,-43.5660610966978]]]]}}]}