{"type":"FeatureCollection","features":[{"type":"Feature","properties":{"gml_id":"vwRatingUnit.113438","RatingUnitID":113438,"ValuationVisitOrder":"39300","drvRatingUnitLocation":null,"StreetAddressID":119705,"OccupationLevelDescription":"Ground Floor and Above","StreetAddress":"74 Denise Crescent","LocalityName":"Hornby","ValuationRollNumber":"23431"},"geometry":{"type":"MultiPolygon","coordinates":[[[[172.514799116789,-43.545531654039],[172.514891992712,-43.5458837295967],[172.514793867402,-43.5458974296795],[172.514706209819,-43.5459096796352],[172.514613347302,-43.5455576039744],[172.514799116789,-43.545531654039]]]]}}]}