{"type":"FeatureCollection","features":[{"type":"Feature","properties":{"gml_id":"vwRatingUnit.103151","RatingUnitID":103151,"ValuationVisitOrder":"46900","drvRatingUnitLocation":null,"StreetAddressID":78444,"OccupationLevelDescription":"Ground Floor and Above","StreetAddress":"32 Tuawera Terrace","LocalityName":"Clifton","ValuationRollNumber":"22911"},"geometry":{"type":"MultiPolygon","coordinates":[[[[172.750484134619,-43.5660047176336],[172.75060758118,-43.5660101504161],[172.750670671948,-43.5660129327118],[172.750622335999,-43.5666042508385],[172.75055499228898,-43.5665940159348],[172.750435979774,-43.5665967111297],[172.750484134619,-43.5660047176336]]]]}}]}