{"type":"FeatureCollection","features":[{"type":"Feature","properties":{"gml_id":"vwRatingUnit.11254","RatingUnitID":11254,"ValuationVisitOrder":"21000","drvRatingUnitLocation":null,"StreetAddressID":35275,"OccupationLevelDescription":"Ground Floor and Above","StreetAddress":"1/38 Peer Street","LocalityName":"Upper Riccarton","ValuationRollNumber":"21896"},"geometry":{"type":"MultiPolygon","coordinates":[[[[172.570238072042,-43.5275723826501],[172.57023971990296,-43.52756952630429],[172.570249206082,-43.5275724242332],[172.570391377782,-43.52761585608079],[172.570391125152,-43.5276517118638],[172.5703849084,-43.527656189093],[172.570384844983,-43.527665189735],[172.57037862822898,-43.5276696669638],[172.57037859652,-43.5276741672847],[172.570372379764,-43.5276786445132],[172.570372062671,-43.5277236477226],[172.57036584591,-43.52772812495069],[172.570365528811,-43.5277731281595],[172.570359312045,-43.5277776053873],[172.570359280334,-43.52778210570809],[172.570346846798,-43.5277910601625],[172.570346815087,-43.5277955604834],[172.570345772392,-43.52779631141679],[172.570144379038,-43.5277347864246],[172.570238072042,-43.5275723826501]]]]}}]}