{"type":"FeatureCollection","features":[{"type":"Feature","properties":{"gml_id":"vwRatingUnit.109679","RatingUnitID":109679,"ValuationVisitOrder":"19200","drvRatingUnitLocation":null,"StreetAddressID":120057,"OccupationLevelDescription":"Ground Floor and Above","StreetAddress":"75 Colman Avenue","LocalityName":"Upper Riccarton","ValuationRollNumber":"23413"},"geometry":{"type":"MultiPolygon","coordinates":[[[[172.559382879667,-43.5298242701999],[172.559723936441,-43.5299282126685],[172.55962407413,-43.5301018268059],[172.559282177105,-43.5299976378139],[172.559299276177,-43.5299681983712],[172.559382879667,-43.5298242701999]]]]}}]}