{"type":"FeatureCollection","features":[{"type":"Feature","properties":{"gml_id":"vwRatingUnit.107774","RatingUnitID":107774,"ValuationVisitOrder":"12700","drvRatingUnitLocation":null,"StreetAddressID":1711,"OccupationLevelDescription":"Ground Floor and Above","StreetAddress":"2/34 Mathers Road","LocalityName":"Hoon Hay","ValuationRollNumber":"22980"},"geometry":{"type":"MultiPolygon","coordinates":[[[[172.596538007007,-43.5594492923603],[172.596395583289,-43.5593190315933],[172.596562533354,-43.5592198698398],[172.596831045634,-43.5594655218282],[172.59681195546,-43.5594768609625],[172.596686120973,-43.5593608563602],[172.596538007007,-43.5594492923603]]]]}}]}