{"type":"FeatureCollection","features":[{"type":"Feature","properties":{"gml_id":"vwRatingUnit.103743","RatingUnitID":103743,"ValuationVisitOrder":"9503","drvRatingUnitLocation":null,"StreetAddressID":102602,"OccupationLevelDescription":"Ground Floor and Above","StreetAddress":"50 Whitfield Street","LocalityName":"Sumner","ValuationRollNumber":"22920"},"geometry":{"type":"MultiPolygon","coordinates":[[[[172.760050479769,-43.5788107557988],[172.760089066267,-43.5790954388768],[172.759837229348,-43.5790843588106],[172.759802578956,-43.5788285482356],[172.760050479769,-43.5788107557988]]]]}}]}