{"type":"FeatureCollection","features":[{"type":"Feature","properties":{"gml_id":"vwRatingUnit.112798","RatingUnitID":112798,"ValuationVisitOrder":"103","drvRatingUnitLocation":null,"StreetAddressID":52046,"OccupationLevelDescription":"Ground Floor and Above","StreetAddress":"2/75 Racecourse Road","LocalityName":"Hornby","ValuationRollNumber":"23422"},"geometry":{"type":"MultiPolygon","coordinates":[[[[172.546225905778,-43.5360549215128],[172.546253552354,-43.536082980731],[172.546001680973,-43.5362336089797],[172.545992064751,-43.5362483906787],[172.546001423521,-43.5362681870857],[172.546014893027,-43.5362830598289],[172.54606998263,-43.53633102403089],[172.545935328997,-43.536414333742],[172.545833618221,-43.53647726284],[172.545786219671,-43.53642915505],[172.54569192622097,-43.53633345444559],[172.546225905778,-43.5360549215128]]]]}}]}