{"type":"FeatureCollection","features":[{"type":"Feature","properties":{"gml_id":"vwRatingUnit.11048","RatingUnitID":11048,"ValuationVisitOrder":"73600","drvRatingUnitLocation":null,"StreetAddressID":72822,"OccupationLevelDescription":"Ground Floor and Above","StreetAddress":"3/143 Avonhead Road","LocalityName":"Avonhead","ValuationRollNumber":"21895"},"geometry":{"type":"MultiPolygon","coordinates":[[[[172.562374250742,-43.5189069599429],[172.562375405468,-43.5189049588674],[172.562382051681,-43.518906989623694],[172.562536889441,-43.5189543002924],[172.56253615301097,-43.5189548306368],[172.56253612072,-43.5189593309711],[172.562533012492,-43.5189615693779],[172.562526828329,-43.51896154585679],[172.562523720101,-43.5189637842632],[172.562523687809,-43.5189682845976],[172.562517471352,-43.5189727614103],[172.562517406767,-43.518981762079],[172.56251119030796,-43.5189862388914],[172.562511158015,-43.51899073922569],[172.562504941555,-43.5189952160378],[172.562504876968,-43.5190042167064],[172.562498660506,-43.5190086935181],[172.562498466742,-43.5190356955239],[172.562492250276,-43.5190401723352],[172.56249221798197,-43.5190446726695],[172.56248600151497,-43.5190491494805],[172.562485936925,-43.519058150149],[172.56247972045597,-43.5190626269597],[172.562479688161,-43.5190671272939],[172.56247347169,-43.5190716041042],[172.562473277915,-43.5190986061095],[172.562467061441,-43.5191030829195],[172.56246699684897,-43.51911208358789],[172.562460780373,-43.5191165603975],[172.562460748076,-43.51912106073169],[172.562454531599,-43.519125537541],[172.562454467005,-43.5191345382093],[172.562448250526,-43.5191390150183],[172.562448218228,-43.5191435153524],[172.56244200174797,-43.519147992161095],[172.56244196945,-43.5191524924952],[172.562435752969,-43.519156969303495],[172.562435688371,-43.5191659699718],[172.56243258013,-43.5191682083758],[172.562426395945,-43.5191681848494],[172.562423287703,-43.5191704232531],[172.562423250847,-43.5191755584977],[172.562414218046,-43.5191728019461],[172.56241367728,-43.51917263692],[172.562192667667,-43.5191051908286],[172.562251281809,-43.51900370352799],[172.56234092549596,-43.5189647106299],[172.562374250742,-43.5189069599429]]]]}}]}