{"type":"FeatureCollection","features":[{"type":"Feature","properties":{"gml_id":"vwRatingUnit.115800","RatingUnitID":115800,"ValuationVisitOrder":"75000","drvRatingUnitLocation":null,"StreetAddressID":125969,"OccupationLevelDescription":"Ground Floor and Above","StreetAddress":"85B Brynley Street","LocalityName":"Hornby","ValuationRollNumber":"23434"},"geometry":{"type":"MultiPolygon","coordinates":[[[[172.53395642826698,-43.5478224981658],[172.534057868644,-43.5479043216191],[172.534191138903,-43.5480117912279],[172.534256581056,-43.5480645850548],[172.533996847358,-43.5482349384509],[172.533869455862,-43.5481321998817],[172.533506182054,-43.5483704588773],[172.53348092028,-43.54835008656049],[172.533900309766,-43.5480750250771],[172.53395642826698,-43.5478224981658]]]]}}]}