{"type":"FeatureCollection","features":[{"type":"Feature","properties":{"gml_id":"vwRatingUnit.104799","RatingUnitID":104799,"ValuationVisitOrder":"14700","drvRatingUnitLocation":null,"StreetAddressID":60080,"OccupationLevelDescription":"Ground Floor and Above","StreetAddress":"23 Taylors Mistake Road","LocalityName":"Scarborough","ValuationRollNumber":"22931"},"geometry":{"type":"MultiPolygon","coordinates":[[[[172.775868399667,-43.5723668688111],[172.776118134452,-43.5724277994883],[172.77611573802,-43.5728961146425],[172.77619457839896,-43.5730049835169],[172.7748417494,-43.5726505035053],[172.774854296409,-43.5726250926892],[172.775709984482,-43.5728493092202],[172.775868399667,-43.5723668688111]]]]}}]}