{"type":"FeatureCollection","features":[{"type":"Feature","properties":{"gml_id":"vwRatingUnit.107208","RatingUnitID":107208,"ValuationVisitOrder":"30800","drvRatingUnitLocation":null,"StreetAddressID":84975,"OccupationLevelDescription":"Ground Floor and Above","StreetAddress":"38 Barrowclough Street","LocalityName":"Hoon Hay","ValuationRollNumber":"22970"},"geometry":{"type":"MultiPolygon","coordinates":[[[[172.586064537237,-43.5612712939703],[172.586301026057,-43.561592894141796],[172.586140261677,-43.5616616229743],[172.5858837242,-43.561345215899],[172.585909134975,-43.5613342272397],[172.585993263863,-43.5612994444322],[172.586064537237,-43.5612712939703]]]]}}]}