{"type":"FeatureCollection","features":[{"type":"Feature","properties":{"gml_id":"vwRatingUnit.108787","RatingUnitID":108787,"ValuationVisitOrder":"37890","drvRatingUnitLocation":null,"StreetAddressID":74180,"OccupationLevelDescription":"Ground Floor and Above","StreetAddress":"3/52 Hayton Road","LocalityName":"Sockburn","ValuationRollNumber":"23411"},"geometry":{"type":"MultiPolygon","coordinates":[[[[172.557003269732,-43.5421263420889],[172.556793685261,-43.5422404501057],[172.55684553685,-43.5422908459997],[172.557055121395,-43.5421767378894],[172.557003269732,-43.5421263420889]]]]}}]}