{"type":"FeatureCollection","features":[{"type":"Feature","properties":{"gml_id":"vwRatingUnit.103934","RatingUnitID":103934,"ValuationVisitOrder":"20000","drvRatingUnitLocation":null,"StreetAddressID":83726,"OccupationLevelDescription":"Ground Floor and Above","StreetAddress":"36A Heberden Avenue","LocalityName":"Sumner","ValuationRollNumber":"22920"},"geometry":{"type":"MultiPolygon","coordinates":[[[[172.764267085314,-43.5773879498108],[172.764589209803,-43.5775791001584],[172.764337787571,-43.5776706357436],[172.764105337686,-43.5775326982071],[172.764267085314,-43.5773879498108]]]]}}]}