{"type":"FeatureCollection","features":[{"type":"Feature","properties":{"gml_id":"vwRatingUnit.102133","RatingUnitID":102133,"ValuationVisitOrder":"94200","drvRatingUnitLocation":null,"StreetAddressID":20405,"OccupationLevelDescription":"Ground Floor and Above","StreetAddress":"154 Mt Pleasant Road","LocalityName":"Mt Pleasant","ValuationRollNumber":"22901"},"geometry":{"type":"MultiPolygon","coordinates":[[[[172.717990708589,-43.5642024607611],[172.718007577111,-43.5642297016025],[172.718027847399,-43.5644423260229],[172.71788543666,-43.5643848697966],[172.717782558449,-43.5644750469709],[172.717728683075,-43.5644366539911],[172.717585821737,-43.5643348505893],[172.717990708589,-43.5642024607611]]]]}}]}