{"type":"FeatureCollection","features":[{"type":"Feature","properties":{"gml_id":"vwRatingUnit.10448","RatingUnitID":10448,"ValuationVisitOrder":"20600","drvRatingUnitLocation":null,"StreetAddressID":102877,"OccupationLevelDescription":"Ground Floor and Above","StreetAddress":"50A Withells Road","LocalityName":"Avonhead","ValuationRollNumber":"21895"},"geometry":{"type":"MultiPolygon","coordinates":[[[[172.550382469953,-43.5218363868744],[172.550405917799,-43.52184356534249],[172.550634234191,-43.5219134631913],[172.550634699322,-43.5219136055881],[172.55063422712,-43.5219144225071],[172.550562367809,-43.5220387403216],[172.550561567364,-43.5220401251028],[172.550556975054,-43.5220387192527],[172.55034251113196,-43.5219730648365],[172.550308143391,-43.521962543697],[172.550382469953,-43.5218363868744]]]]}}]}