{"type":"FeatureCollection","features":[{"type":"Feature","properties":{"gml_id":"vwRatingUnit.117895","RatingUnitID":117895,"ValuationVisitOrder":"8700","drvRatingUnitLocation":null,"StreetAddressID":79501,"OccupationLevelDescription":"Ground Floor and Above","StreetAddress":"33 Nottingham Avenue","LocalityName":"Oaklands","ValuationRollNumber":"23444"},"geometry":{"type":"MultiPolygon","coordinates":[[[[172.563174485852,-43.5759078069069],[172.56335535988796,-43.57596851781219],[172.563072172871,-43.576414666599],[172.563066331053,-43.576412700307],[172.562894521735,-43.576354975567],[172.562891322927,-43.5763539013558],[172.563174485852,-43.5759078069069]]]]}}]}