{"type":"FeatureCollection","features":[{"type":"Feature","properties":{"gml_id":"vwRatingUnit.114733","RatingUnitID":114733,"ValuationVisitOrder":"54500","drvRatingUnitLocation":null,"StreetAddressID":71785,"OccupationLevelDescription":"Ground Floor and Above","StreetAddress":"3 Silverwood Place","LocalityName":"Hornby","ValuationRollNumber":"23433"},"geometry":{"type":"MultiPolygon","coordinates":[[[[172.527806206568,-43.553956183879],[172.528069263025,-43.5541742550301],[172.52796361377096,-43.5542760992781],[172.527785142811,-43.55417674524579],[172.527614731483,-43.5540818794108],[172.527730999877,-43.5540055515097],[172.527806206568,-43.553956183879]]]]}}]}