{"type":"FeatureCollection","features":[{"type":"Feature","properties":{"gml_id":"vwRatingUnit.111005","RatingUnitID":111005,"ValuationVisitOrder":"16600","drvRatingUnitLocation":null,"StreetAddressID":18638,"OccupationLevelDescription":"Ground Floor and Above","StreetAddress":"16 Pensacola Crescent","LocalityName":"Broomfield","ValuationRollNumber":"23415"},"geometry":{"type":"MultiPolygon","coordinates":[[[[172.531454224772,-43.5294911042548],[172.531468787689,-43.5294650338151],[172.531927150734,-43.5296006620471],[172.531857247519,-43.5297257247921],[172.531398896052,-43.5295900963427],[172.531454224772,-43.5294911042548]]]]}}]}