{"type":"FeatureCollection","features":[{"type":"Feature","properties":{"gml_id":"vwRatingUnit.103696","RatingUnitID":103696,"ValuationVisitOrder":"7000","drvRatingUnitLocation":null,"StreetAddressID":17920,"OccupationLevelDescription":"Ground Floor and Above","StreetAddress":"17 Paisley Street","LocalityName":"Sumner","ValuationRollNumber":"22920"},"geometry":{"type":"MultiPolygon","coordinates":[[[[172.757386597367,-43.57857764117149],[172.757489409523,-43.5786386187932],[172.757532737885,-43.5786643248993],[172.75741341457498,-43.578770685042],[172.757138114488,-43.579016098645],[172.75699199850598,-43.5789293964798],[172.757205649036,-43.578738936585],[172.757386597367,-43.57857764117149]]]]}}]}