{"type":"FeatureCollection","features":[{"type":"Feature","properties":{"gml_id":"vwRatingUnit.100977","RatingUnitID":100977,"ValuationVisitOrder":"48400","drvRatingUnitLocation":null,"StreetAddressID":139398,"OccupationLevelDescription":"Ground Floor and Above","StreetAddress":"9 Augusta Street","LocalityName":"Redcliffs","ValuationRollNumber":"22900"},"geometry":{"type":"MultiPolygon","coordinates":[[[[172.738282223405,-43.56316131769059],[172.737941533946,-43.5628971900252],[172.738066277494,-43.562812112016],[172.73819155452898,-43.562726657060196],[172.73853223172,-43.562990783971294],[172.738406954631,-43.563076239291],[172.738282223405,-43.56316131769059]]]]}}]}