{"type":"FeatureCollection","features":[{"type":"Feature","properties":{"gml_id":"vwRatingUnit.116328","RatingUnitID":116328,"ValuationVisitOrder":"11400","drvRatingUnitLocation":null,"StreetAddressID":65033,"OccupationLevelDescription":"Ground Floor and Above","StreetAddress":"26 Lancewood Drive","LocalityName":"Westlake","ValuationRollNumber":"23441"},"geometry":{"type":"MultiPolygon","coordinates":[[[[172.559216013212,-43.5681607785806],[172.559247333372,-43.56817076317479],[172.559271768957,-43.56817931732219],[172.55931957687,-43.5681979606732],[172.55936579833,-43.5682185961176],[172.559388272477,-43.5682296449647],[172.559426769766,-43.5682502688694],[172.559475052822,-43.5683025499331],[172.559191071878,-43.5685117051733],[172.559098310983,-43.5684321795456],[172.559216013212,-43.5681607785806]]]]}}]}