{"type":"FeatureCollection","features":[{"type":"Feature","properties":{"gml_id":"vwRatingUnit.114097","RatingUnitID":114097,"ValuationVisitOrder":"54700","drvRatingUnitLocation":null,"StreetAddressID":158749,"OccupationLevelDescription":"Ground Floor and Above","StreetAddress":"1/26 Shands Road","LocalityName":"Hornby","ValuationRollNumber":"23432"},"geometry":{"type":"MultiPolygon","coordinates":[[[[172.5240009191,-43.5452243060808],[172.524158906552,-43.5453499871494],[172.523968748277,-43.5454743139903],[172.523808027317,-43.545346450553],[172.5240009191,-43.5452243060808]]]]}}]}