{"type":"FeatureCollection","features":[{"type":"Feature","properties":{"gml_id":"vwRatingUnit.109546","RatingUnitID":109546,"ValuationVisitOrder":"4900","drvRatingUnitLocation":null,"StreetAddressID":132927,"OccupationLevelDescription":"Ground Floor and Above","StreetAddress":"9/69A Yaldhurst Road","LocalityName":"Upper Riccarton","ValuationRollNumber":"23413"},"geometry":{"type":"MultiPolygon","coordinates":[[[[172.564510267777,-43.5305640295484],[172.564549124338,-43.5305612331742],[172.564542988064,-43.5305141155304],[172.56455202239198,-43.53049531194319],[172.56457384634,-43.5304983379173],[172.564654909136,-43.5304768634163],[172.564775554868,-43.5304774203484],[172.564774321993,-43.5306189160762],[172.564527178629,-43.5306921590299],[172.564510267777,-43.5305640295484]]]]}}]}