{"type":"FeatureCollection","features":[{"type":"Feature","properties":{"gml_id":"vwRatingUnit.100992","RatingUnitID":100992,"ValuationVisitOrder":"48805","drvRatingUnitLocation":null,"StreetAddressID":57298,"OccupationLevelDescription":"Ground Floor and Above","StreetAddress":"21B Augusta Street","LocalityName":"Redcliffs","ValuationRollNumber":"22900"},"geometry":{"type":"MultiPolygon","coordinates":[[[[172.737286322112,-43.5635070496684],[172.737413890227,-43.5636059011264],[172.737428188715,-43.5636169809941],[172.737430305098,-43.563618620882394],[172.73743412213696,-43.563621578728295],[172.737428151442,-43.5636256496022],[172.737306863986,-43.5637083453986],[172.737304894898,-43.563709688021],[172.737302206839,-43.5637083348078],[172.73718524196698,-43.5636494544289],[172.737135628618,-43.5636109883855],[172.737286322112,-43.5635070496684]]]]}}]}