{"type":"FeatureCollection","features":[{"type":"Feature","properties":{"gml_id":"vwRatingUnit.117842","RatingUnitID":117842,"ValuationVisitOrder":"2200","drvRatingUnitLocation":null,"StreetAddressID":60150,"OccupationLevelDescription":"Ground Floor and Above","StreetAddress":"23 Wales Street","LocalityName":"Oaklands","ValuationRollNumber":"23444"},"geometry":{"type":"MultiPolygon","coordinates":[[[[172.565399824043,-43.5783908451565],[172.56574097538396,-43.5785925945912],[172.565615302728,-43.5787049729601],[172.56522572397697,-43.578474535279],[172.565242932629,-43.578467669546],[172.565285990419,-43.5784489032041],[172.565328053577,-43.5784289810022],[172.565369060007,-43.5784079297095],[172.565399824043,-43.5783908451565]]]]}}]}