{"type":"FeatureCollection","features":[{"type":"Feature","properties":{"gml_id":"vwRatingUnit.110592","RatingUnitID":110592,"ValuationVisitOrder":"25700","drvRatingUnitLocation":null,"StreetAddressID":113979,"OccupationLevelDescription":"Ground Floor and Above","StreetAddress":"66 Cheyenne Street","LocalityName":"Upper Riccarton","ValuationRollNumber":"23414"},"geometry":{"type":"MultiPolygon","coordinates":[[[[172.554637323677,-43.528286353623],[172.554662421471,-43.5282951096248],[172.55449882378198,-43.5285774197972],[172.554496840138,-43.5285797073481],[172.554719187132,-43.5286444563421],[172.554826338747,-43.52867704914019],[172.554705663705,-43.5288853041754],[172.55436663149098,-43.5287821825596],[172.554458515894,-43.5286237264068],[172.554473199634,-43.5285695798158],[172.554637323677,-43.528286353623]]]]}}]}