{"type":"FeatureCollection","features":[{"type":"Feature","properties":{"gml_id":"vwRatingUnit.113174","RatingUnitID":113174,"ValuationVisitOrder":"12700","drvRatingUnitLocation":null,"StreetAddressID":77872,"OccupationLevelDescription":"Ground Floor and Above","StreetAddress":"32 Brixton Street","LocalityName":"Islington","ValuationRollNumber":"23431"},"geometry":{"type":"MultiPolygon","coordinates":[[[[172.505210834604,-43.5389137338838],[172.505272655416,-43.5390761339005],[172.50489560426,-43.5392026417143],[172.50485538563896,-43.5390815858147],[172.504853512461,-43.5390730448454],[172.504853508545,-43.539064385902],[172.504855384362,-43.5390558430546],[172.504859076367,-43.539047623052],[172.504864508717,-43.539039923589],[172.50487153133497,-43.5390329420412],[172.50487998199,-43.5390268487289],[172.504889649034,-43.5390218047589],[172.504897083652,-43.5390189384216],[172.505210834604,-43.5389137338838]]]]}}]}