{"type":"FeatureCollection","features":[{"type":"Feature","properties":{"gml_id":"vwRatingUnit.109499","RatingUnitID":109499,"ValuationVisitOrder":"3000","drvRatingUnitLocation":null,"StreetAddressID":101065,"OccupationLevelDescription":"Ground Floor and Above","StreetAddress":"5 Cephas Close","LocalityName":"Upper Riccarton","ValuationRollNumber":"23413"},"geometry":{"type":"MultiPolygon","coordinates":[[[[172.565908290678,-43.5313274381065],[172.566017653946,-43.5312523944399],[172.566026777455,-43.5312584776477],[172.56592377023,-43.53133628065859],[172.565918554181,-43.5313402204169],[172.566016271171,-43.531679579847],[172.56588746243,-43.5316993673192],[172.565887499606,-43.5316941454079],[172.565881346191,-43.53168962176],[172.56588141027,-43.5316806211255],[172.565875256856,-43.5316760974773],[172.565875288897,-43.53167159716],[172.565869135484,-43.53166707351139],[172.565869167525,-43.5316625731941],[172.565863014114,-43.5316580495452],[172.56586307819597,-43.5316490489106],[172.565856924787,-43.5316445252613],[172.565856956828,-43.531640024944],[172.565789269392,-43.5315902647789],[172.56578930143897,-43.5315857644616],[172.565783148042,-43.5315812408082],[172.565783212136,-43.5315722401733],[172.565715524836,-43.5315224799629],[172.565715556888,-43.5315179796454],[172.565709403503,-43.5315134559878],[172.565709467608,-43.5315044553528],[172.565703314225,-43.5314999316949],[172.56570334627799,-43.531495431377394],[172.565697192896,-43.5314909077191],[172.56569722494896,-43.5314864074016],[172.56569107156898,-43.53148188374289],[172.565691135677,-43.5314728831079],[172.565684982298,-43.531468359448795],[172.56568501435197,-43.5314638591313],[172.56568239584,-43.5314619341305],[172.565817861012,-43.5313894895609],[172.565908290678,-43.5313274381065]]]]}}]}