{"type":"FeatureCollection","features":[{"type":"Feature","properties":{"gml_id":"vwRatingUnit.116033","RatingUnitID":116033,"ValuationVisitOrder":"16200","drvRatingUnitLocation":null,"StreetAddressID":21158,"OccupationLevelDescription":"Ground Floor and Above","StreetAddress":"16 Awatea Road","LocalityName":"Hornby","ValuationRollNumber":"23435"},"geometry":{"type":"MultiPolygon","coordinates":[[[[172.535978420063,-43.5525001746922],[172.536119799744,-43.5526138490303],[172.535671613915,-43.5529087033783],[172.53553023437397,-43.5527950284979],[172.535978420063,-43.5525001746922]]]]}}]}