{"type":"FeatureCollection","features":[{"type":"Feature","properties":{"gml_id":"vwRatingUnit.101794","RatingUnitID":101794,"ValuationVisitOrder":"59800","drvRatingUnitLocation":null,"StreetAddressID":57124,"OccupationLevelDescription":"Ground Floor and Above","StreetAddress":"218 Cannon Hill Crescent","LocalityName":"St Andrews Hill","ValuationRollNumber":"22901"},"geometry":{"type":"MultiPolygon","coordinates":[[[[172.713721913675,-43.56553252812479],[172.714199337526,-43.5656356866447],[172.714142127799,-43.565770409311895],[172.713666254909,-43.5656636091907],[172.713721913675,-43.56553252812479]]]]}}]}