{"type":"FeatureCollection","features":[{"type":"Feature","properties":{"gml_id":"vwRatingUnit.110231","RatingUnitID":110231,"ValuationVisitOrder":"67400","drvRatingUnitLocation":null,"StreetAddressID":138835,"OccupationLevelDescription":"Ground Floor and Above","StreetAddress":"1/94 Racecourse Road","LocalityName":"Sockburn","ValuationRollNumber":"23413"},"geometry":{"type":"MultiPolygon","coordinates":[[[[172.545069766768,-43.5343116809831],[172.544956333895,-43.5343707916495],[172.544952027057,-43.534373456853],[172.54494772021897,-43.5343761220564],[172.544943148761,-43.534380280355194],[172.544938577303,-43.5343844386539],[172.54493534364298,-43.5343892143494],[172.544932109983,-43.5343939900449],[172.544930351734,-43.5343991585919],[172.544928593486,-43.5344043271389],[172.544928399096,-43.5344096459933],[172.544928204706,-43.5344149648478],[172.54492958846,-43.534420195331],[172.544930972215,-43.5344254258141],[172.54493223396,-43.5344279284896],[172.544933495705,-43.5344304311651],[172.544937092303,-43.5344350673854],[172.544940688902,-43.5344397036055],[172.545102711149,-43.5346041493192],[172.54527130279797,-43.5345162268613],[172.545069766768,-43.5343116809831]]]]}}]}