{"type":"FeatureCollection","features":[{"type":"Feature","properties":{"gml_id":"vwRatingUnit.115389","RatingUnitID":115389,"ValuationVisitOrder":"39700","drvRatingUnitLocation":null,"StreetAddressID":74150,"OccupationLevelDescription":"Ground Floor and Above","StreetAddress":"3/51 Neill Street","LocalityName":"Hornby","ValuationRollNumber":"23434"},"geometry":{"type":"MultiPolygon","coordinates":[[[[172.535717266529,-43.5459029183311],[172.53571941901097,-43.5459046668219],[172.53572330906596,-43.545907826767994],[172.535717198853,-43.5459118069319],[172.535605988833,-43.5459842484747],[172.535534755694,-43.5460306485983],[172.53548763498097,-43.5459959913537],[172.535487669262,-43.5459914910459],[172.53540768509998,-43.5459326626209],[172.535407736531,-43.545925912159],[172.535407753675,-43.545923662005],[172.535581946795,-43.5457983520683],[172.535581963932,-43.5457961019143],[172.535585057379,-43.5457961143884],[172.53559275983596,-43.5458017795493],[172.535606583517,-43.5458130087699],[172.53561362886498,-43.545818731828994],[172.535651672401,-43.5458496352293],[172.535661924982,-43.545857963564394],[172.535710585059,-43.5458974908777],[172.535717266529,-43.5459029183311]]]]}}]}