{"type":"FeatureCollection","features":[{"type":"Feature","properties":{"gml_id":"vwRatingUnit.117655","RatingUnitID":117655,"ValuationVisitOrder":"46000","drvRatingUnitLocation":null,"StreetAddressID":525,"OccupationLevelDescription":"Ground Floor and Above","StreetAddress":"2/50B Nottingham Avenue","LocalityName":"Oaklands","ValuationRollNumber":"23443"},"geometry":{"type":"MultiPolygon","coordinates":[[[[172.560487869895,-43.5745050624308],[172.560495498173,-43.5744930478261],[172.560496422783,-43.574491591147996],[172.56052689572,-43.5744435967699],[172.56052772811898,-43.5744422855524],[172.560588559954,-43.57434647489839],[172.560588906363,-43.57434592935729],[172.560590554359,-43.574346482496196],[172.560769798101,-43.574406653454695],[172.560812619661,-43.5744210343696],[172.560813579004,-43.574421356418],[172.560812606313,-43.5744228885508],[172.560709653718,-43.5745850766271],[172.560487869895,-43.5745050624308]]]]}}]}