{"type":"FeatureCollection","features":[{"type":"Feature","properties":{"gml_id":"vwRatingUnit.100982","RatingUnitID":100982,"ValuationVisitOrder":"48700","drvRatingUnitLocation":null,"StreetAddressID":21563,"OccupationLevelDescription":"Ground Floor and Above","StreetAddress":"15 Augusta Street","LocalityName":"Redcliffs","ValuationRollNumber":"22900"},"geometry":{"type":"MultiPolygon","coordinates":[[[[172.737719852212,-43.5630483996789],[172.737874405627,-43.5631697895167],[172.738154438816,-43.5633897493238],[172.738014476419,-43.5634877806595],[172.73757488588296,-43.5631472651772],[172.737719852212,-43.5630483996789]]]]}}]}