{"type":"FeatureCollection","features":[{"type":"Feature","properties":{"gml_id":"vwRatingUnit.105490","RatingUnitID":105490,"ValuationVisitOrder":"3400","drvRatingUnitLocation":null,"StreetAddressID":88017,"OccupationLevelDescription":"Ground Floor and Above","StreetAddress":"4 Lewis Street","LocalityName":"Hoon Hay","ValuationRollNumber":"22952"},"geometry":{"type":"MultiPolygon","coordinates":[[[[172.60202384104596,-43.5597493097587],[172.602440826265,-43.5600214269556],[172.60229117859697,-43.5601427001058],[172.60187419314397,-43.55987059137829],[172.60202384104596,-43.5597493097587]]]]}}]}