{"type":"FeatureCollection","features":[{"type":"Feature","properties":{"gml_id":"vwRatingUnit.103756","RatingUnitID":103756,"ValuationVisitOrder":"9700","drvRatingUnitLocation":null,"StreetAddressID":69813,"OccupationLevelDescription":"Ground Floor and Above","StreetAddress":"29 van Asch Street","LocalityName":"Sumner","ValuationRollNumber":"22920"},"geometry":{"type":"MultiPolygon","coordinates":[[[[172.759244191065,-43.578082276465],[172.759437194355,-43.5781967496806],[172.759630210715,-43.5783112315892],[172.759498443201,-43.5784286475488],[172.759112547623,-43.5781995572459],[172.759244191065,-43.578082276465]]]]}}]}