{"type":"FeatureCollection","features":[{"type":"Feature","properties":{"gml_id":"vwRatingUnit.112662","RatingUnitID":112662,"ValuationVisitOrder":"70400","drvRatingUnitLocation":null,"StreetAddressID":76101,"OccupationLevelDescription":"Ground Floor and Above","StreetAddress":"304 Waterloo Road","LocalityName":"Hei Hei","ValuationRollNumber":"23421"},"geometry":{"type":"MultiPolygon","coordinates":[[[[172.516345050139,-43.5403676967819],[172.516471347522,-43.5405683271367],[172.515965692662,-43.5407368332965],[172.51610017717,-43.5404764253401],[172.516345050139,-43.5403676967819]]]]}}]}