{"type":"FeatureCollection","features":[{"type":"Feature","properties":{"gml_id":"vwRatingUnit.118142","RatingUnitID":118142,"ValuationVisitOrder":"33700","drvRatingUnitLocation":null,"StreetAddressID":83295,"OccupationLevelDescription":"Ground Floor and Above","StreetAddress":"36 Wales Street","LocalityName":"Oaklands","ValuationRollNumber":"23444"},"geometry":{"type":"MultiPolygon","coordinates":[[[[172.562662682824,-43.5788080739351],[172.562940686829,-43.5791927847799],[172.562755506393,-43.5792635041503],[172.562477503031,-43.5788788198608],[172.562662682824,-43.5788080739351]]]]}}]}