{"type":"FeatureCollection","features":[{"type":"Feature","properties":{"gml_id":"vwRatingUnit.107723","RatingUnitID":107723,"ValuationVisitOrder":"10000","drvRatingUnitLocation":null,"StreetAddressID":116554,"OccupationLevelDescription":"Ground Floor and Above","StreetAddress":"7 Hussar Place","LocalityName":"Hoon Hay","ValuationRollNumber":"22980"},"geometry":{"type":"MultiPolygon","coordinates":[[[[172.592224665317,-43.5594706948891],[172.592392986951,-43.5596249331753],[172.592384872935,-43.5596297108874],[172.59237224900897,-43.5596389010234],[172.592361029934,-43.5596490052027],[172.592351327821,-43.5596599158133],[172.592343254903,-43.5596715072417],[172.592336898718,-43.5596836447864],[172.59232994876,-43.559703142851],[172.592324767217,-43.5597136014077],[172.59231786893397,-43.5597235138469],[172.592309341511,-43.559732736466],[172.592299309674,-43.5597411256937],[172.592287959915,-43.5597485561787],[172.592209968663,-43.5597936621151],[172.59199939016298,-43.5596008947693],[172.592092067291,-43.5595473352282],[172.592224665317,-43.5594706948891]]]]}}]}