{"type":"FeatureCollection","features":[{"type":"Feature","properties":{"gml_id":"vwRatingUnit.115253","RatingUnitID":115253,"ValuationVisitOrder":"27000","drvRatingUnitLocation":null,"StreetAddressID":78828,"OccupationLevelDescription":"Ground Floor and Above","StreetAddress":"325 Main South Road","LocalityName":"Hornby","ValuationRollNumber":"23434"},"geometry":{"type":"MultiPolygon","coordinates":[[[[172.53533261917997,-43.5431099067636],[172.535543793342,-43.5431205066659],[172.53551884653098,-43.5433838713629],[172.53530768589,-43.5433730014539],[172.53533261917997,-43.5431099067636]]]]}}]}