{"type":"FeatureCollection","features":[{"type":"Feature","properties":{"gml_id":"vwRatingUnit.10071","RatingUnitID":10071,"ValuationVisitOrder":"83002","drvRatingUnitLocation":null,"StreetAddressID":62469,"OccupationLevelDescription":"Ground Floor and Above","StreetAddress":"244 Withells Road","LocalityName":"Avonhead","ValuationRollNumber":"21894"},"geometry":{"type":"MultiPolygon","coordinates":[[[[172.55741262554696,-43.50895653302259],[172.557725554526,-43.5089969724491],[172.557718696907,-43.5090097994204],[172.55772842516,-43.5091058499544],[172.557313423058,-43.5091281591914],[172.55741262554696,-43.50895653302259]]]]}}]}