{"type":"FeatureCollection","features":[{"type":"Feature","properties":{"gml_id":"vwRatingUnit.104740","RatingUnitID":104740,"ValuationVisitOrder":"6700","drvRatingUnitLocation":null,"StreetAddressID":42817,"OccupationLevelDescription":"Ground Floor and Above","StreetAddress":"105 Scarborough Road","LocalityName":"Scarborough","ValuationRollNumber":"22931"},"geometry":{"type":"MultiPolygon","coordinates":[[[[172.771048805776,-43.57414862373129],[172.77122864673797,-43.5740976950862],[172.771274556577,-43.5740197610621],[172.77146656123,-43.574089264005494],[172.77151786450398,-43.5741513874049],[172.771462294461,-43.5742371328158],[172.77123651520898,-43.57416513295469],[172.771175906507,-43.5741813938609],[172.771171130328,-43.574197315192],[172.771048805776,-43.57414862373129]]]]}}]}