{"type":"FeatureCollection","features":[{"type":"Feature","properties":{"gml_id":"vwRatingUnit.114177","RatingUnitID":114177,"ValuationVisitOrder":"77400","drvRatingUnitLocation":null,"StreetAddressID":11152,"OccupationLevelDescription":"Ground Floor and Above","StreetAddress":"2 Branston Street","LocalityName":"Hornby","ValuationRollNumber":"23432"},"geometry":{"type":"MultiPolygon","coordinates":[[[[172.527688688701,-43.5474769038193],[172.527684757442,-43.5475323242534],[172.527422843094,-43.5477041032299],[172.527307044201,-43.5476287675436],[172.527270863597,-43.5475103111886],[172.527452681098,-43.5474929474757],[172.527688688701,-43.5474769038193]]]]}}]}