{"type":"FeatureCollection","features":[{"type":"Feature","properties":{"gml_id":"vwRatingUnit.118139","RatingUnitID":118139,"ValuationVisitOrder":"33400","drvRatingUnitLocation":null,"StreetAddressID":93099,"OccupationLevelDescription":"Ground Floor and Above","StreetAddress":"42 Wales Street","LocalityName":"Oaklands","ValuationRollNumber":"23444"},"geometry":{"type":"MultiPolygon","coordinates":[[[[172.562143443795,-43.5790063804126],[172.562376969817,-43.5793294126311],[172.56234123235598,-43.5793388898815],[172.56230820036,-43.5793491964537],[172.562275951864,-43.5793607390931],[172.562205757647,-43.5793875470427],[172.561976413616,-43.5790701648277],[172.561979864971,-43.5790688458185],[172.562143443795,-43.5790063804126]]]]}}]}