{"type":"FeatureCollection","features":[{"type":"Feature","properties":{"gml_id":"vwRatingUnit.111450","RatingUnitID":111450,"ValuationVisitOrder":"57700","drvRatingUnitLocation":null,"StreetAddressID":557,"OccupationLevelDescription":"Ground Floor and Above","StreetAddress":"2/51 Ben Nevis Drive","LocalityName":"Masham","ValuationRollNumber":"23415"},"geometry":{"type":"MultiPolygon","coordinates":[[[[172.53379043904596,-43.5249002510106],[172.533946186998,-43.5250807541486],[172.53394358605297,-43.525081878032395],[172.533942561056,-43.525082320942396],[172.533933267631,-43.5250863367457],[172.533926993287,-43.5250890480247],[172.533922949208,-43.5250907954583],[172.533921458305,-43.5250914394781],[172.53391263078498,-43.5250952539099],[172.533911425159,-43.5250957748436],[172.533902312359,-43.5250997126205],[172.533895857383,-43.5251025019218],[172.533881675144,-43.52510863003759],[172.533880289246,-43.5251092289964],[172.533871356713,-43.5251130887455],[172.533864721465,-43.5251159558105],[172.533861038281,-43.5251175474525],[172.533849153321,-43.52512268288089],[172.53384040105598,-43.5251264646023],[172.533833585531,-43.5251294099507],[172.533830082619,-43.5251309233065],[172.533818017383,-43.525136136757],[172.533809445741,-43.5251398407122],[172.533802449586,-43.5251428638226],[172.533799127299,-43.5251442994136],[172.533786881429,-43.525149590884695],[172.533778490054,-43.5251532168123],[172.53377131327,-43.5251563176847],[172.53376817161,-43.5251576752511],[172.53374514495897,-43.5251676252398],[172.533744158139,-43.5251665789624],[172.533575889273,-43.5249881674225],[172.533575518288,-43.5249877739595],[172.533575893453,-43.524987621087995],[172.533591074141,-43.5249814390951],[172.53359183664998,-43.5249811287228],[172.53360201659,-43.5249769829417],[172.533606164888,-43.5249752936441],[172.53361295903798,-43.5249725267874],[172.53362049348,-43.5249694585651],[172.533623901484,-43.52496807063199],[172.53363482171,-43.5249636237427],[172.533645786369,-43.5249591585781],[172.533649150297,-43.5249577886601],[172.53365672881,-43.5249547024196],[172.533663478881,-43.5249519535757],[172.53366767124996,-43.5249502462601],[172.533677807103,-43.524946118748],[172.533678613687,-43.5249457900996],[172.53369213568197,-43.5249402836601],[172.53370049855897,-43.5249368777754],[172.5337064639,-43.524934448569],[172.53371144099,-43.5249324218717],[172.53372079247296,-43.5249286134775],[172.533722383421,-43.524927965707],[172.533737205401,-43.5249219296158],[172.533749449252,-43.5249169435477],[172.533755210706,-43.5249145972068],[172.533763777459,-43.5249111084495],[172.533766153131,-43.5249101410379],[172.53379043904596,-43.5249002510106]]]]}}]}