{"type":"FeatureCollection","features":[{"type":"Feature","properties":{"gml_id":"vwRatingUnit.104576","RatingUnitID":104576,"ValuationVisitOrder":"70600","drvRatingUnitLocation":null,"StreetAddressID":31350,"OccupationLevelDescription":"Ground Floor and Above","StreetAddress":"1/15A Marriner Street","LocalityName":"Sumner","ValuationRollNumber":"22920"},"geometry":{"type":"MultiPolygon","coordinates":[[[[172.758694846322,-43.5675694669759],[172.75872583498,-43.56758935953929],[172.758794520945,-43.5677529106666],[172.758574130874,-43.5679178377721],[172.758571530641,-43.5679197837162],[172.75856876246397,-43.5679178265582],[172.758540374932,-43.5678977573386],[172.758660436826,-43.56780791447989],[172.75866064691,-43.5678077571555],[172.758663638261,-43.5678055188518],[172.758747550912,-43.5677427263046],[172.75875247064297,-43.5677390448662],[172.758750963221,-43.5677379800029],[172.758606566512,-43.5676359551175],[172.758606272086,-43.5676357470974],[172.758624245254,-43.567622297841794],[172.758626072541,-43.5676209303928],[172.758673904629,-43.5675851377495],[172.75867405018,-43.5675850288928],[172.758694846322,-43.5675694669759]]]]}}]}