{"type":"FeatureCollection","features":[{"type":"Feature","properties":{"gml_id":"vwRatingUnit.116582","RatingUnitID":116582,"ValuationVisitOrder":"31012","drvRatingUnitLocation":null,"StreetAddressID":99721,"OccupationLevelDescription":"Ground Floor and Above","StreetAddress":"5 Campion Place","LocalityName":"Westlake","ValuationRollNumber":"23441"},"geometry":{"type":"MultiPolygon","coordinates":[[[[172.554245986885,-43.5688859214641],[172.55427842662698,-43.5688900162173],[172.554243027699,-43.5690384645906],[172.554280297778,-43.569074404844],[172.554533732582,-43.5691571474637],[172.554311315962,-43.5694357178228],[172.554097201837,-43.5693453680996],[172.554264923762,-43.5691353168349],[172.554201176214,-43.5690738379542],[172.554245986885,-43.5688859214641]]]]}}]}