{"type":"FeatureCollection","features":[{"type":"Feature","properties":{"gml_id":"vwRatingUnit.114416","RatingUnitID":114416,"ValuationVisitOrder":"20800","drvRatingUnitLocation":null,"StreetAddressID":32518,"OccupationLevelDescription":"Ground Floor and Above","StreetAddress":"1/20 Trevor Street","LocalityName":"Hornby","ValuationRollNumber":"23433"},"geometry":{"type":"MultiPolygon","coordinates":[[[[172.534403496475,-43.5500937687014],[172.534404545918,-43.5500930802618],[172.534410010061,-43.55008949572589],[172.534549573768,-43.5502020401666],[172.534588273241,-43.5502332474832],[172.534377329928,-43.5503686537622],[172.53436693085598,-43.550360269651],[172.53429666509797,-43.5503036185076],[172.53398797728,-43.5505061291568],[172.533984236665,-43.5505085832446],[172.533981158427,-43.5505061015716],[172.53395107750399,-43.5504818514362],[172.534218942785,-43.5503061215187],[172.534304027113,-43.5502503001184],[172.534395582554,-43.5500989602845],[172.534403496475,-43.5500937687014]]]]}}]}