{"type":"FeatureCollection","features":[{"type":"Feature","properties":{"gml_id":"vwRatingUnit.113917","RatingUnitID":113917,"ValuationVisitOrder":"36200","drvRatingUnitLocation":null,"StreetAddressID":52655,"OccupationLevelDescription":"Ground Floor and Above","StreetAddress":"2/87 Denise Crescent","LocalityName":"Hornby","ValuationRollNumber":"23432"},"geometry":{"type":"MultiPolygon","coordinates":[[[[172.512845712686,-43.5451762414525],[172.512907933049,-43.5454128061458],[172.51291399771097,-43.5454358741856],[172.512783330622,-43.5454541251714],[172.51270452757197,-43.5451959592317],[172.512845712686,-43.5451762414525]]]]}}]}