{"type":"FeatureCollection","features":[{"type":"Feature","properties":{"gml_id":"vwRatingUnit.110553","RatingUnitID":110553,"ValuationVisitOrder":"22300","drvRatingUnitLocation":null,"StreetAddressID":131948,"OccupationLevelDescription":"Ground Floor and Above","StreetAddress":"97A Cheyenne Street","LocalityName":"Upper Riccarton","ValuationRollNumber":"23414"},"geometry":{"type":"MultiPolygon","coordinates":[[[[172.554641949048,-43.52775982756],[172.554829867891,-43.52781753951239],[172.554744937801,-43.5279639901347],[172.554557851032,-43.5279047676713],[172.554641949048,-43.52775982756]]]]}}]}