{"type":"FeatureCollection","features":[{"type":"Feature","properties":{"gml_id":"vwRatingUnit.118371","RatingUnitID":118371,"ValuationVisitOrder":"12500","drvRatingUnitLocation":null,"StreetAddressID":115985,"OccupationLevelDescription":"Ground Floor and Above","StreetAddress":"7 Birchdale Place","LocalityName":"Halswell","ValuationRollNumber":"23445"},"geometry":{"type":"MultiPolygon","coordinates":[[[[172.570406858076,-43.591690741874494],[172.570436214415,-43.5919201082424],[172.57015935958597,-43.5919390684326],[172.57001940791298,-43.5920576537384],[172.57001077596098,-43.59205247318379],[172.569996668853,-43.5920457691182],[172.569980561649,-43.5920399666734],[172.570094401702,-43.59194350694809],[172.570064996789,-43.591714185302],[172.570406858076,-43.591690741874494]]]]}}]}