{"type":"FeatureCollection","features":[{"type":"Feature","properties":{"gml_id":"vwRatingUnit.102764","RatingUnitID":102764,"ValuationVisitOrder":"72718","drvRatingUnitLocation":null,"StreetAddressID":210405,"OccupationLevelDescription":"Ground Floor and Above","StreetAddress":"8R Horizon Heights","LocalityName":"Moncks Spur","ValuationRollNumber":"22902"},"geometry":{"type":"MultiPolygon","coordinates":[[[[172.731702197037,-43.5698856946192],[172.731716663688,-43.5699119646973],[172.731732841001,-43.56993768971329],[172.73175071679597,-43.56996282463539],[172.73176543954298,-43.5699815258707],[172.731615207182,-43.5700784185913],[172.73159046633597,-43.5700493074789],[172.731569468896,-43.57002187015069],[172.731550133007,-43.56999379764169],[172.731532495568,-43.5699651440415],[172.731516593474,-43.5699359634397],[172.731702197037,-43.5698856946192]]]]}}]}