{"type":"FeatureCollection","features":[{"type":"Feature","properties":{"gml_id":"vwRatingUnit.111770","RatingUnitID":111770,"ValuationVisitOrder":"86800","drvRatingUnitLocation":null,"StreetAddressID":108702,"OccupationLevelDescription":"Ground Floor and Above","StreetAddress":"6 Buchanans Road","LocalityName":"Riccarton Park","ValuationRollNumber":"23415"},"geometry":{"type":"MultiPolygon","coordinates":[[[[172.544549561015,-43.5349355197262],[172.544695335872,-43.5350834862186],[172.544843947855,-43.5352343350182],[172.544777139142,-43.5352691203532],[172.544229551341,-43.5351022820108],[172.544549561015,-43.5349355197262]]]]}}]}