{"type":"FeatureCollection","features":[{"type":"Feature","properties":{"gml_id":"vwRatingUnit.117294","RatingUnitID":117294,"ValuationVisitOrder":"11200","drvRatingUnitLocation":null,"StreetAddressID":16489,"OccupationLevelDescription":"Ground Floor and Above","StreetAddress":"18 Cobra Street","LocalityName":"Oaklands","ValuationRollNumber":"23443"},"geometry":{"type":"MultiPolygon","coordinates":[[[[172.567732115372,-43.5710530595421],[172.567919475324,-43.5711159569746],[172.567667480339,-43.5715128916601],[172.567480082215,-43.571450002693695],[172.567732115372,-43.5710530595421]]]]}}]}