{"type":"FeatureCollection","features":[{"type":"Feature","properties":{"gml_id":"vwRatingUnit.103309","RatingUnitID":103309,"ValuationVisitOrder":"67000","drvRatingUnitLocation":null,"StreetAddressID":124366,"OccupationLevelDescription":"Ground Floor and Above","StreetAddress":"80 Revelation Drive","LocalityName":"Clifton","ValuationRollNumber":"22911"},"geometry":{"type":"MultiPolygon","coordinates":[[[[172.74057528819,-43.5780342576372],[172.740182893024,-43.5778455007421],[172.740428835565,-43.5775752827027],[172.740606623416,-43.5776608081551],[172.740739249457,-43.5778541117938],[172.74057528819,-43.5780342576372]]]]}}]}