{"type":"FeatureCollection","features":[{"type":"Feature","properties":{"gml_id":"vwRatingUnit.10485","RatingUnitID":10485,"ValuationVisitOrder":"23300","drvRatingUnitLocation":null,"StreetAddressID":69586,"OccupationLevelDescription":"Ground Floor and Above","StreetAddress":"29 Nortons Road","LocalityName":"Avonhead","ValuationRollNumber":"21895"},"geometry":{"type":"MultiPolygon","coordinates":[[[[172.55594243547196,-43.5244420965403],[172.556128804002,-43.524499143408995],[172.556137945655,-43.5245024910127],[172.556150353471,-43.5245091635512],[172.556160621295,-43.5245175380059],[172.556168343555,-43.5245272527764],[172.556173189156,-43.524537910545895],[172.556174951094,-43.5245490604707],[172.556173558491,-43.524560243230894],[172.55616906429597,-43.5245709819826],[172.556066888796,-43.5247477797118],[172.555811019857,-43.5246694743276],[172.55594243547196,-43.5244420965403]]]]}}]}