{"type":"FeatureCollection","features":[{"type":"Feature","properties":{"gml_id":"vwRatingUnit.110149","RatingUnitID":110149,"ValuationVisitOrder":"61800","drvRatingUnitLocation":null,"StreetAddressID":111550,"OccupationLevelDescription":"Ground Floor and Above","StreetAddress":"61 Epsom Road","LocalityName":"Sockburn","ValuationRollNumber":"23413"},"geometry":{"type":"MultiPolygon","coordinates":[[[[172.549436134945,-43.53527319307219],[172.54955052328796,-43.5353891852325],[172.54903756605597,-43.5356569246726],[172.548923178108,-43.5355409410081],[172.549436134945,-43.53527319307219]]]]}}]}