{"type":"FeatureCollection","features":[{"type":"Feature","properties":{"gml_id":"vwRatingUnit.105629","RatingUnitID":105629,"ValuationVisitOrder":"15800","drvRatingUnitLocation":null,"StreetAddressID":66586,"OccupationLevelDescription":"Ground Floor and Above","StreetAddress":"27 Mathers Road","LocalityName":"Hoon Hay","ValuationRollNumber":"22952"},"geometry":{"type":"MultiPolygon","coordinates":[[[[172.59788453275897,-43.559073537693294],[172.598157166224,-43.5593161315873],[172.59829112738797,-43.559435336394],[172.598149688767,-43.5595193424254],[172.598141239395,-43.5595243713897],[172.597734645049,-43.5591625721666],[172.59788453275897,-43.559073537693294]]]]}}]}