{"type":"FeatureCollection","features":[{"type":"Feature","properties":{"gml_id":"vwRatingUnit.113943","RatingUnitID":113943,"ValuationVisitOrder":"39000","drvRatingUnitLocation":null,"StreetAddressID":106007,"OccupationLevelDescription":"Ground Floor and Above","StreetAddress":"55 Skerten Avenue","LocalityName":"Hornby","ValuationRollNumber":"23432"},"geometry":{"type":"MultiPolygon","coordinates":[[[[172.51644158645897,-43.544835235811],[172.51644268694,-43.5448345232649],[172.516443569057,-43.544835244135996],[172.51655808194397,-43.5449288245493],[172.516564897891,-43.544935315793296],[172.51657060411196,-43.5449429184715],[172.516574585806,-43.5449510722166],[172.516575685692,-43.5449553837469],[172.516576758005,-43.5449595871909],[172.516577060677,-43.5449682383125],[172.516575517227,-43.5449766322449],[172.516575482953,-43.544976818640095],[172.516572076216,-43.544985112136395],[172.516566916067,-43.5449929122232],[172.51656012835,-43.545000030467094],[172.516551899292,-43.5450062786884],[172.516434706954,-43.5450821757991],[172.516432392199,-43.5450804724946],[172.51643242789,-43.5450759721806],[172.516401672223,-43.545053340712194],[172.51640170791597,-43.5450488403981],[172.516275609931,-43.544956051288096],[172.516269423117,-43.5449560253007],[172.516262688322,-43.5449510694939],[172.51644158645897,-43.544835235811]]]]}}]}