{"type":"FeatureCollection","features":[{"type":"Feature","properties":{"gml_id":"vwRatingUnit.106903","RatingUnitID":106903,"ValuationVisitOrder":"800","drvRatingUnitLocation":null,"StreetAddressID":28703,"OccupationLevelDescription":"Ground Floor and Above","StreetAddress":"1 Redgrave Street","LocalityName":"Hoon Hay","ValuationRollNumber":"22970"},"geometry":{"type":"MultiPolygon","coordinates":[[[[172.587866909904,-43.55845502183809],[172.58790004499497,-43.5587660538636],[172.587384718233,-43.5587950558653],[172.587356363288,-43.558756620080295],[172.587638875713,-43.558589721809696],[172.58780892911,-43.558489269445],[172.587866909904,-43.55845502183809]]]]}}]}