{"type":"FeatureCollection","features":[{"type":"Feature","properties":{"gml_id":"vwRatingUnit.10872","RatingUnitID":10872,"ValuationVisitOrder":"58400","drvRatingUnitLocation":null,"StreetAddressID":34765,"OccupationLevelDescription":"Ground Floor and Above","StreetAddress":"1/34 Bevington Street","LocalityName":"Avonhead","ValuationRollNumber":"21895"},"geometry":{"type":"MultiPolygon","coordinates":[[[[172.554187140555,-43.5205704622774],[172.554181003939,-43.5205832331199],[172.554172772185,-43.5205811381831],[172.55399309752096,-43.520535411774],[172.55409755493798,-43.5203180219816],[172.55411231505298,-43.5203288779513],[172.554118499358,-43.5203289019236],[172.55412465075,-43.5203334262306],[172.554130835055,-43.5203334502022],[172.55413698644796,-43.5203379745086],[172.554155539364,-43.5203380464205],[172.55416169076,-43.5203425707254],[172.554167875065,-43.520342594695094],[172.554174026462,-43.5203471189994],[172.554186395075,-43.520347166937],[172.55419254647398,-43.5203516912403],[172.55419873078,-43.5203517152082],[172.554204882181,-43.5203562395109],[172.554211066488,-43.5203562634782],[172.55421721789,-43.5203607877801],[172.554229586505,-43.5203608357131],[172.554235737908,-43.520365360014],[172.554241922216,-43.5203653839796],[172.554248073621,-43.5203699082799],[172.554282087318,-43.5203700400831],[172.55428210376797,-43.5203677899156],[172.554285212372,-43.5203655517298],[172.554285602595,-43.5203655532418],[172.554282066318,-43.52037291260209],[172.554279232174,-43.5203788107473],[172.554275786286,-43.520385981995396],[172.55427265422,-43.5203925001449],[172.554269506252,-43.520399051388395],[172.554266076264,-43.5204061895422],[172.554263226215,-43.520412120781],[172.554259498304,-43.520419878938995],[172.554256946176,-43.5204251901731],[172.554252920341,-43.5204335683354],[172.554250666134,-43.520438259565],[172.554246342376,-43.5204472577315],[172.554244386089,-43.5204513289565],[172.554239764408,-43.5204609471271],[172.554238106042,-43.5204643983476],[172.554236475422,-43.5204677918247],[172.554231825992,-43.5204774677383],[172.55422989744898,-43.5204814812198],[172.554225545939,-43.5204905371287],[172.55422331947398,-43.5204951706143],[172.554219265884,-43.5205036065187],[172.554216741495,-43.5205088600086],[172.554212985825,-43.5205166759083],[172.554210163513,-43.5205225494023],[172.554206705765,-43.5205297452975],[172.554203585529,-43.52053623879569],[172.554200425701,-43.5205428146864],[172.554197007541,-43.52054992818869],[172.554194145635,-43.5205558840749],[172.554190429551,-43.5205636175812],[172.554187865567,-43.52056895346309],[172.554187140555,-43.5205704622774]]]]}}]}