{"type":"FeatureCollection","features":[{"type":"Feature","properties":{"gml_id":"vwRatingUnit.115395","RatingUnitID":115395,"ValuationVisitOrder":"40700","drvRatingUnitLocation":null,"StreetAddressID":108051,"OccupationLevelDescription":"Ground Floor and Above","StreetAddress":"59 Neill Street","LocalityName":"Hornby","ValuationRollNumber":"23434"},"geometry":{"type":"MultiPolygon","coordinates":[[[[172.536033474309,-43.5463315065673],[172.53614768846796,-43.5464242887455],[172.536159248886,-43.5464336782275],[172.53566963213697,-43.5467525690764],[172.535543882527,-43.546650387988294],[172.536033474309,-43.5463315065673]]]]}}]}