{"type":"FeatureCollection","features":[{"type":"Feature","properties":{"gml_id":"vwRatingUnit.105076","RatingUnitID":105076,"ValuationVisitOrder":"8500","drvRatingUnitLocation":null,"StreetAddressID":8411,"OccupationLevelDescription":"Ground Floor and Above","StreetAddress":"2 Smartlea Street","LocalityName":"Hoon Hay","ValuationRollNumber":"22951"},"geometry":{"type":"MultiPolygon","coordinates":[[[[172.604701815817,-43.55957811640929],[172.605108784488,-43.559944220204095],[172.604996159485,-43.5600104040347],[172.604791789728,-43.559877024164095],[172.604643547614,-43.5597802802895],[172.604508173013,-43.5596919240188],[172.604701815817,-43.55957811640929]]]]}}]}