{"type":"FeatureCollection","features":[{"type":"Feature","properties":{"gml_id":"vwRatingUnit.111643","RatingUnitID":111643,"ValuationVisitOrder":"73500","drvRatingUnitLocation":null,"StreetAddressID":30825,"OccupationLevelDescription":"Ground Floor and Above","StreetAddress":"1/14 Kinross Street","LocalityName":"Riccarton Park","ValuationRollNumber":"23415"},"geometry":{"type":"MultiPolygon","coordinates":[[[[172.538524978487,-43.532125597031595],[172.538732699557,-43.5321908705233],[172.538715571695,-43.5322203482011],[172.53864144178797,-43.5323479361675],[172.538447535563,-43.5322886257385],[172.538254006515,-43.5323151492849],[172.537835971601,-43.53225044696379],[172.537840806517,-43.5322327975664],[172.538261559878,-43.5322979158191],[172.538451085604,-43.53225274429819],[172.538524978487,-43.532125597031595]]]]}}]}