{"type":"FeatureCollection","features":[{"type":"Feature","properties":{"gml_id":"vwRatingUnit.107229","RatingUnitID":107229,"ValuationVisitOrder":"32900","drvRatingUnitLocation":null,"StreetAddressID":48382,"OccupationLevelDescription":"Ground Floor and Above","StreetAddress":"12 Herdman Street","LocalityName":"Hoon Hay","ValuationRollNumber":"22970"},"geometry":{"type":"MultiPolygon","coordinates":[[[[172.589544727604,-43.5617324168977],[172.589837220707,-43.562020672093496],[172.589746399056,-43.56207354339319],[172.589618696816,-43.5621478761559],[172.589385154316,-43.56181041624059],[172.589424374103,-43.5617926084191],[172.589463326479,-43.5617740705708],[172.58950173817897,-43.561754945735],[172.589544727604,-43.5617324168977]]]]}}]}