{"type":"FeatureCollection","features":[{"type":"Feature","properties":{"gml_id":"vwRatingUnit.11020","RatingUnitID":11020,"ValuationVisitOrder":"71400","drvRatingUnitLocation":null,"StreetAddressID":61870,"OccupationLevelDescription":"Ground Floor and Above","StreetAddress":"24 Tintern Avenue","LocalityName":"Avonhead","ValuationRollNumber":"21895"},"geometry":{"type":"MultiPolygon","coordinates":[[[[172.560978943667,-43.5198278385568],[172.561514623732,-43.5199915202791],[172.561478689572,-43.520053786622896],[172.561432108881,-43.5201345272415],[172.560896427772,-43.5199708451496],[172.560978943667,-43.5198278385568]]]]}}]}