{"type":"FeatureCollection","features":[{"type":"Feature","properties":{"gml_id":"vwRatingUnit.109461","RatingUnitID":109461,"ValuationVisitOrder":"66000","drvRatingUnitLocation":null,"StreetAddressID":146832,"OccupationLevelDescription":"Ground Floor and Above","StreetAddress":"23 Watts Road","LocalityName":"Sockburn","ValuationRollNumber":"23412"},"geometry":{"type":"MultiPolygon","coordinates":[[[[172.562919542678,-43.5372160812553],[172.563064245943,-43.53736340767189],[172.561740982983,-43.53805510809159],[172.561595796909,-43.537908030207895],[172.561546640178,-43.53785823022879],[172.562254069643,-43.5374884393257],[172.562605887207,-43.5373045386554],[172.562870546918,-43.5371661924404],[172.562919542678,-43.5372160812553]]]]}}]}