{"type":"FeatureCollection","features":[{"type":"Feature","properties":{"gml_id":"vwRatingUnit.101219","RatingUnitID":101219,"ValuationVisitOrder":"55122","drvRatingUnitLocation":null,"StreetAddressID":18358,"OccupationLevelDescription":"Ground Floor and Above","StreetAddress":"16 Inverness Lane","LocalityName":"Balmoral Hill","ValuationRollNumber":"22900"},"geometry":{"type":"MultiPolygon","coordinates":[[[[172.730997245508,-43.5602395239219],[172.731076382246,-43.560402455985894],[172.730670387522,-43.5606075411741],[172.730697408176,-43.5607389310491],[172.73081802338,-43.5609880141257],[172.730950814365,-43.56203292578],[172.730518320015,-43.5621570069006],[172.730514458973,-43.5621484563841],[172.730942429944,-43.5620256698181],[172.730810871541,-43.5609903735976],[172.730679032198,-43.5607409313183],[172.730604853793,-43.5603800526948],[172.730997245508,-43.5602395239219]]]]}}]}