{"type":"FeatureCollection","features":[{"type":"Feature","properties":{"gml_id":"vwRatingUnit.102777","RatingUnitID":102777,"ValuationVisitOrder":"73800","drvRatingUnitLocation":null,"StreetAddressID":139584,"OccupationLevelDescription":"Ground Floor and Above","StreetAddress":"179 Moncks Spur Road","LocalityName":"Moncks Spur","ValuationRollNumber":"22902"},"geometry":{"type":"MultiPolygon","coordinates":[[[[172.726644597331,-43.5718339829667],[172.726657496262,-43.5718118632102],[172.726679015104,-43.5717749939947],[172.72709505696997,-43.5715794599517],[172.727123685752,-43.5715442995398],[172.72715221276397,-43.5714238410066],[172.727054113116,-43.5712291172342],[172.727167281897,-43.5711181290943],[172.72722794052,-43.5710871935049],[172.727331664567,-43.5710342272347],[172.727493754664,-43.5711422197162],[172.727495589989,-43.571155364795295],[172.72749936537,-43.571169279492594],[172.72750496192097,-43.57118286546489],[172.72751427348697,-43.5711989263371],[172.727460159304,-43.571241866195],[172.727634876553,-43.5713582227164],[172.727642899028,-43.5713635699273],[172.72742790217896,-43.5714660199293],[172.726644597331,-43.5718339829667]]]]}}]}