{"type":"FeatureCollection","features":[{"type":"Feature","properties":{"gml_id":"vwRatingUnit.115021","RatingUnitID":115021,"ValuationVisitOrder":"3000","drvRatingUnitLocation":null,"StreetAddressID":3937,"OccupationLevelDescription":"Ground Floor and Above","StreetAddress":"2/277 Main South Road","LocalityName":"Hornby","ValuationRollNumber":"23434"},"geometry":{"type":"MultiPolygon","coordinates":[[[[172.541550327176,-43.5435496984342],[172.541754232641,-43.5435572802287],[172.541741405915,-43.54369286865369],[172.541740375898,-43.5437037567119],[172.541536733146,-43.54369339275409],[172.541550327176,-43.5435496984342]]]]}}]}