{"type":"FeatureCollection","features":[{"type":"Feature","properties":{"gml_id":"vwRatingUnit.113458","RatingUnitID":113458,"ValuationVisitOrder":"41200","drvRatingUnitLocation":null,"StreetAddressID":64781,"OccupationLevelDescription":"Ground Floor and Above","StreetAddress":"26 Davidson Crescent","LocalityName":"Hornby","ValuationRollNumber":"23431"},"geometry":{"type":"MultiPolygon","coordinates":[[[[172.513307623872,-43.5461050114565],[172.513400589721,-43.546457259651],[172.513433550231,-43.5465028266],[172.513410833481,-43.5465149088808],[172.513388255367,-43.5465282248702],[172.513163727483,-43.5464361595558],[172.513070716987,-43.5463980344447],[172.51304725960696,-43.5463091680876],[172.513026613035,-43.546230925705494],[172.51300454903,-43.5461473397714],[172.51317355993,-43.5461237338177],[172.513307623872,-43.5461050114565]]]]}}]}