{"type":"FeatureCollection","features":[{"type":"Feature","properties":{"gml_id":"vwRatingUnit.108204","RatingUnitID":108204,"ValuationVisitOrder":"44900","drvRatingUnitLocation":null,"StreetAddressID":53738,"OccupationLevelDescription":"Ground Floor and Above","StreetAddress":"20 Harling Avenue","LocalityName":"Hillmorton","ValuationRollNumber":"22980"},"geometry":{"type":"MultiPolygon","coordinates":[[[[172.583260926936,-43.556475551994595],[172.583409105283,-43.5566081922018],[172.58341810959797,-43.5566162624482],[172.583031584649,-43.5568446275816],[172.582906630969,-43.5567327547476],[172.582875595543,-43.5567031648602],[172.583260926936,-43.556475551994595]]]]}}]}