{"type":"FeatureCollection","features":[{"type":"Feature","properties":{"gml_id":"vwRatingUnit.103459","RatingUnitID":103459,"ValuationVisitOrder":"83600","drvRatingUnitLocation":null,"StreetAddressID":85459,"OccupationLevelDescription":"Ground Floor and Above","StreetAddress":"38 Sumnervale Drive","LocalityName":"Sumner","ValuationRollNumber":"22911"},"geometry":{"type":"MultiPolygon","coordinates":[[[[172.75285610254997,-43.58231893387939],[172.753121280283,-43.5824909134848],[172.752987261533,-43.582614707579],[172.752623335845,-43.5824202494844],[172.75285610254997,-43.58231893387939]]]]}}]}