{"type":"FeatureCollection","features":[{"type":"Feature","properties":{"gml_id":"vwRatingUnit.101166","RatingUnitID":101166,"ValuationVisitOrder":"54600","drvRatingUnitLocation":null,"StreetAddressID":115938,"OccupationLevelDescription":"Ground Floor and Above","StreetAddress":"7 Balmoral Lane","LocalityName":"Redcliffs","ValuationRollNumber":"22900"},"geometry":{"type":"MultiPolygon","coordinates":[[[[172.730143594436,-43.5574437002027],[172.730389170139,-43.5575762399551],[172.73048177384797,-43.5575105451494],[172.730598837425,-43.5575026458589],[172.73108212079097,-43.5574699664488],[172.731135670004,-43.5575013950618],[172.730667680356,-43.5580032368744],[172.730292487885,-43.55764622742169],[172.73011197363,-43.5574744531699],[172.730143594436,-43.5574437002027]]]]}}]}