{"type":"FeatureCollection","features":[{"type":"Feature","properties":{"gml_id":"vwRatingUnit.117676","RatingUnitID":117676,"ValuationVisitOrder":"48000","drvRatingUnitLocation":null,"StreetAddressID":53996,"OccupationLevelDescription":"Ground Floor and Above","StreetAddress":"20 Nottingham Avenue","LocalityName":"Oaklands","ValuationRollNumber":"23443"},"geometry":{"type":"MultiPolygon","coordinates":[[[[172.564502984054,-43.5756598185284],[172.564683858586,-43.5757205363462],[172.564399880463,-43.5761680444317],[172.56421900480896,-43.5761073351844],[172.564502984054,-43.5756598185284]]]]}}]}