{"type":"FeatureCollection","features":[{"type":"Feature","properties":{"gml_id":"vwRatingUnit.110629","RatingUnitID":110629,"ValuationVisitOrder":"28900","drvRatingUnitLocation":null,"StreetAddressID":12246,"OccupationLevelDescription":"Ground Floor and Above","StreetAddress":"19 Doncaster Street","LocalityName":"Upper Riccarton","ValuationRollNumber":"23414"},"geometry":{"type":"MultiPolygon","coordinates":[[[[172.55548749179,-43.5310318817952],[172.555652918835,-43.5311065349734],[172.555390484546,-43.5314143331614],[172.555225081654,-43.5313396887126],[172.55548749179,-43.5310318817952]]]]}}]}