{"type":"FeatureCollection","features":[{"type":"Feature","properties":{"gml_id":"vwRatingUnit.108260","RatingUnitID":108260,"ValuationVisitOrder":"49700","drvRatingUnitLocation":null,"StreetAddressID":16805,"OccupationLevelDescription":"Ground Floor and Above","StreetAddress":"168 Halswell Road","LocalityName":"Hillmorton","ValuationRollNumber":"22980"},"geometry":{"type":"MultiPolygon","coordinates":[[[[172.583428115731,-43.5597869664665],[172.583683979324,-43.560016114464695],[172.58350038167,-43.5601245585731],[172.583244567931,-43.55989539235],[172.583428115731,-43.5597869664665]]]]}}]}