{"type":"FeatureCollection","features":[{"type":"Feature","properties":{"gml_id":"vwRatingUnit.108397","RatingUnitID":108397,"ValuationVisitOrder":"60700","drvRatingUnitLocation":null,"StreetAddressID":27996,"OccupationLevelDescription":"Ground Floor and Above","StreetAddress":"136 Warren Crescent","LocalityName":"Hillmorton","ValuationRollNumber":"22980"},"geometry":{"type":"MultiPolygon","coordinates":[[[[172.58080730197696,-43.5585498486644],[172.580946917478,-43.5586749901738],[172.580560272714,-43.558903121680395],[172.580420669788,-43.5587779887537],[172.58080730197696,-43.5585498486644]]]]}}]}