{"type":"FeatureCollection","features":[{"type":"Feature","properties":{"gml_id":"vwRatingUnit.114315","RatingUnitID":114315,"ValuationVisitOrder":"11200","drvRatingUnitLocation":null,"StreetAddressID":95766,"OccupationLevelDescription":"Ground Floor and Above","StreetAddress":"45 Trevor Street","LocalityName":"Hornby","ValuationRollNumber":"23433"},"geometry":{"type":"MultiPolygon","coordinates":[[[[172.53151666030098,-43.5487398455234],[172.531655068729,-43.548851470382395],[172.531324728439,-43.5490681823505],[172.53118511482398,-43.548955589098995],[172.531278778109,-43.5488946381982],[172.53151666030098,-43.5487398455234]]]]}}]}