{"type":"FeatureCollection","features":[{"type":"Feature","properties":{"gml_id":"vwRatingUnit.110093","RatingUnitID":110093,"ValuationVisitOrder":"56300","drvRatingUnitLocation":null,"StreetAddressID":43832,"OccupationLevelDescription":"Ground Floor and Above","StreetAddress":"10A Marshwood Place","LocalityName":"Sockburn","ValuationRollNumber":"23413"},"geometry":{"type":"MultiPolygon","coordinates":[[[[172.553253931898,-43.53751637731169],[172.553272582669,-43.5377199776441],[172.553766116267,-43.5377426566767],[172.553763252631,-43.537775543799],[172.553275618436,-43.53775313967359],[172.55328897704996,-43.537898888787],[172.553162727383,-43.5379647893601],[172.55312288697198,-43.5379243827796],[172.553049985542,-43.5378504455646],[172.552939995095,-43.537738893607],[172.552901935676,-43.5377003030373],[172.553085740077,-43.5376042572074],[172.553253931898,-43.53751637731169]]]]}}]}