{"type":"FeatureCollection","features":[{"type":"Feature","properties":{"gml_id":"vwRatingUnit.101584","RatingUnitID":101584,"ValuationVisitOrder":"32300","drvRatingUnitLocation":null,"StreetAddressID":127555,"OccupationLevelDescription":"Ground Floor and Above","StreetAddress":"9 Cannon Hill Crescent","LocalityName":"St Andrews Hill","ValuationRollNumber":"22901"},"geometry":{"type":"MultiPolygon","coordinates":[[[[172.709552570796,-43.5602052517704],[172.710028771595,-43.5602664374946],[172.709863829874,-43.5604897593258],[172.70950841306396,-43.560418022194],[172.709547684124,-43.5602880447349],[172.709552570796,-43.5602052517704]]]]}}]}