{"type":"FeatureCollection","features":[{"type":"Feature","properties":{"gml_id":"vwRatingUnit.104277","RatingUnitID":104277,"ValuationVisitOrder":"49900","drvRatingUnitLocation":null,"StreetAddressID":50595,"OccupationLevelDescription":"Ground Floor and Above","StreetAddress":"126 Nayland Street","LocalityName":"Sumner","ValuationRollNumber":"22920"},"geometry":{"type":"MultiPolygon","coordinates":[[[[172.766719677398,-43.5741654078503],[172.76684829316696,-43.574241783998],[172.76663825425,-43.5744289296913],[172.76650961330796,-43.5743526252678],[172.766719677398,-43.5741654078503]]]]}}]}