{"type":"FeatureCollection","features":[{"type":"Feature","properties":{"gml_id":"vwRatingUnit.101501","RatingUnitID":101501,"ValuationVisitOrder":"23400","drvRatingUnitLocation":null,"StreetAddressID":69528,"OccupationLevelDescription":"Ground Floor and Above","StreetAddress":"29 Marama Crescent","LocalityName":"St Andrews Hill","ValuationRollNumber":"22901"},"geometry":{"type":"MultiPolygon","coordinates":[[[[172.714749741343,-43.558856791702894],[172.715040949199,-43.55888273939949],[172.715027271311,-43.55928879319599],[172.714908045348,-43.5592867617541],[172.714720624544,-43.5588875107029],[172.714749741343,-43.558856791702894]]]]}}]}