{"type":"FeatureCollection","features":[{"type":"Feature","properties":{"gml_id":"vwRatingUnit.114425","RatingUnitID":114425,"ValuationVisitOrder":"21600","drvRatingUnitLocation":null,"StreetAddressID":37455,"OccupationLevelDescription":"Ground Floor and Above","StreetAddress":"1/6 Trevor Street","LocalityName":"Hornby","ValuationRollNumber":"23433"},"geometry":{"type":"MultiPolygon","coordinates":[[[[172.53363662264098,-43.5514386069693],[172.533627061475,-43.5514308971439],[172.533607375416,-43.551415023017],[172.533547115052,-43.551366431192],[172.533543544882,-43.5513635521812],[172.53345494741998,-43.5512921100255],[172.533633056491,-43.5511752586567],[172.53363832862797,-43.5511717996996],[172.533642666313,-43.5511752975603],[172.533757944012,-43.5512682536434],[172.53363662264098,-43.5514386069693]]]]}}]}