{"type":"FeatureCollection","features":[{"type":"Feature","properties":{"gml_id":"vwRatingUnit.102908","RatingUnitID":102908,"ValuationVisitOrder":"200","drvRatingUnitLocation":null,"StreetAddressID":66666,"OccupationLevelDescription":"Ground Floor and Above","StreetAddress":"27 Panorama Road","LocalityName":"Clifton","ValuationRollNumber":"22911"},"geometry":{"type":"MultiPolygon","coordinates":[[[[172.751728678378,-43.5683457165012],[172.751968495449,-43.5683518027196],[172.751999644328,-43.5685761706638],[172.751762962616,-43.568593339508],[172.751728678378,-43.5683457165012]]]]}}]}