{"type":"FeatureCollection","features":[{"type":"Feature","properties":{"gml_id":"vwRatingUnit.100405","RatingUnitID":100405,"ValuationVisitOrder":"13200","drvRatingUnitLocation":null,"StreetAddressID":75585,"OccupationLevelDescription":"Ground Floor and Above","StreetAddress":"30 Wakatu Avenue","LocalityName":"Moncks Bay","ValuationRollNumber":"22900"},"geometry":{"type":"MultiPolygon","coordinates":[[[[172.740040171727,-43.5660008722372],[172.740630805199,-43.5661436516391],[172.74059152420196,-43.5662295813159],[172.740000889983,-43.5660868017222],[172.740040171727,-43.5660008722372]]]]}}]}