{"type":"FeatureCollection","features":[{"type":"Feature","properties":{"gml_id":"vwRatingUnit.113096","RatingUnitID":113096,"ValuationVisitOrder":"7000","drvRatingUnitLocation":null,"StreetAddressID":40539,"OccupationLevelDescription":"Ground Floor and Above","StreetAddress":"10 Mortlake Street","LocalityName":"Islington","ValuationRollNumber":"23431"},"geometry":{"type":"MultiPolygon","coordinates":[[[[172.50845112537397,-43.5400193943065],[172.50852885368198,-43.5401420941072],[172.50851680747,-43.5401660122253],[172.508226889374,-43.5402631996894],[172.508138789211,-43.54012408263749],[172.50845112537397,-43.5400193943065]]]]}}]}