{"type":"FeatureCollection","features":[{"type":"Feature","properties":{"gml_id":"vwRatingUnit.117358","RatingUnitID":117358,"ValuationVisitOrder":"17900","drvRatingUnitLocation":null,"StreetAddressID":69213,"OccupationLevelDescription":"Ground Floor and Above","StreetAddress":"29 Cobra Street","LocalityName":"Oaklands","ValuationRollNumber":"23443"},"geometry":{"type":"MultiPolygon","coordinates":[[[[172.566276690641,-43.5711972060106],[172.56646406207,-43.5712600878635],[172.566212157726,-43.5716567767862],[172.566024760631,-43.5715938854446],[172.566276690641,-43.5711972060106]]]]}}]}