{"type":"FeatureCollection","features":[{"type":"Feature","properties":{"gml_id":"vwRatingUnit.103171","RatingUnitID":103171,"ValuationVisitOrder":"49100","drvRatingUnitLocation":null,"StreetAddressID":132574,"OccupationLevelDescription":"Ground Floor and Above","StreetAddress":"9B Kinsey Terrace","LocalityName":"Clifton","ValuationRollNumber":"22911"},"geometry":{"type":"MultiPolygon","coordinates":[[[[172.751596608367,-43.5660537773734],[172.751590340254,-43.5660534983293],[172.751580225641,-43.56605304773899],[172.751229999862,-43.5660374494508],[172.751237573921,-43.5659468695731],[172.751238028574,-43.5659414288862],[172.751243431619,-43.5658768136862],[172.751243597322,-43.565874830955],[172.751290349607,-43.5658769146811],[172.751382924673,-43.5658810403104],[172.751396451047,-43.56588164302669],[172.751501202365,-43.56588631145139],[172.751502552502,-43.5658863715343],[172.751612440285,-43.56589126870559],[172.7516677744,-43.5658937346191],[172.75163060588696,-43.5659273144031],[172.75160323839,-43.56592557644079],[172.751596608367,-43.5660537773734]]]]}}]}