{"type":"FeatureCollection","features":[{"type":"Feature","properties":{"gml_id":"vwRatingUnit.110293","RatingUnitID":110293,"ValuationVisitOrder":"100","drvRatingUnitLocation":null,"StreetAddressID":5714,"OccupationLevelDescription":"Ground Floor and Above","StreetAddress":"2/2 Middlepark Road","LocalityName":"Upper Riccarton","ValuationRollNumber":"23414"},"geometry":{"type":"MultiPolygon","coordinates":[[[[172.55840575481,-43.5283619476628],[172.55839965406398,-43.5283600808103],[172.55817763982,-43.5282921432647],[172.558276740629,-43.52812072686619],[172.558283383078,-43.5281256112088],[172.558339048932,-43.5281258248742],[172.55834520142898,-43.5281303489371],[172.558351386524,-43.5281303726757],[172.558357539023,-43.528134896738],[172.558363724119,-43.5281349204759],[172.558369876618,-43.5281394445375],[172.558382246811,-43.5281394920117],[172.558388399313,-43.5281440160722],[172.558394584409,-43.5281440398085],[172.558400736912,-43.5281485638683],[172.558456402787,-43.5281487774768],[172.558462555295,-43.5281533015333],[172.558474925491,-43.5281533489975],[172.55848107799997,-43.528157873053],[172.558487263099,-43.5281578967843],[172.55849341561,-43.5281624208391],[172.558511970906,-43.52816249203],[172.55851874181,-43.5281674707974],[172.558406823431,-43.5283601083228],[172.55840575481,-43.5283619476628]]]]}}]}