{"type":"FeatureCollection","features":[{"type":"Feature","properties":{"gml_id":"vwRatingUnit.102208","RatingUnitID":102208,"ValuationVisitOrder":"7200","drvRatingUnitLocation":null,"StreetAddressID":139487,"OccupationLevelDescription":"Ground Floor and Above","StreetAddress":"205 Mt Pleasant Road","LocalityName":"Mt Pleasant","ValuationRollNumber":"22902"},"geometry":{"type":"MultiPolygon","coordinates":[[[[172.719362929473,-43.5673696824365],[172.71962636347996,-43.5669945046316],[172.719831514361,-43.5670707958714],[172.71968624868296,-43.5672776268519],[172.719651947508,-43.5673264525362],[172.719445954366,-43.5673309657679],[172.719362929473,-43.5673696824365]]]]}}]}