{"type":"FeatureCollection","features":[{"type":"Feature","properties":{"gml_id":"vwRatingUnit.11665","RatingUnitID":11665,"ValuationVisitOrder":"67800","drvRatingUnitLocation":null,"StreetAddressID":67939,"OccupationLevelDescription":"Ground Floor and Above","StreetAddress":"28 Hare Street","LocalityName":"Upper Riccarton","ValuationRollNumber":"21896"},"geometry":{"type":"MultiPolygon","coordinates":[[[[172.56174218816,-43.5270536958158],[172.561929841615,-43.527111089021],[172.561693609959,-43.5275200451517],[172.56150595545796,-43.527462651576],[172.56174218816,-43.5270536958158]]]]}}]}