{"type":"FeatureCollection","features":[{"type":"Feature","properties":{"gml_id":"vwRatingUnit.117847","RatingUnitID":117847,"ValuationVisitOrder":"2700","drvRatingUnitLocation":null,"StreetAddressID":79722,"OccupationLevelDescription":"Ground Floor and Above","StreetAddress":"33 Wales Street","LocalityName":"Oaklands","ValuationRollNumber":"23444"},"geometry":{"type":"MultiPolygon","coordinates":[[[[172.564558522794,-43.5787298456914],[172.56484808690098,-43.5791305717699],[172.56467172339,-43.57919792516359],[172.564382172494,-43.5787971986893],[172.564558522794,-43.5787298456914]]]]}}]}