{"type":"FeatureCollection","features":[{"type":"Feature","properties":{"gml_id":"vwRatingUnit.10643","RatingUnitID":10643,"ValuationVisitOrder":"37500","drvRatingUnitLocation":null,"StreetAddressID":35195,"OccupationLevelDescription":"Ground Floor and Above","StreetAddress":"1/37 Avonhead Road","LocalityName":"Avonhead","ValuationRollNumber":"21895"},"geometry":{"type":"MultiPolygon","coordinates":[[[[172.55915321518,-43.5249570750529],[172.5594370951,-43.5250439461977],[172.559437189907,-43.5250439751517],[172.559437093684,-43.52504414217079],[172.559341653488,-43.5252095212532],[172.559340771215,-43.5252110498338],[172.55933570153,-43.52520949845729],[172.55907157002798,-43.5251286702272],[172.559058013432,-43.5251245216843],[172.55915321518,-43.5249570750529]]]]}}]}