{"type":"FeatureCollection","features":[{"type":"Feature","properties":{"gml_id":"vwRatingUnit.108383","RatingUnitID":108383,"ValuationVisitOrder":"60300","drvRatingUnitLocation":null,"StreetAddressID":142625,"OccupationLevelDescription":"Ground Floor and Above","StreetAddress":"130 Warren Crescent","LocalityName":"Hillmorton","ValuationRollNumber":"22980"},"geometry":{"type":"MultiPolygon","coordinates":[[[[172.580375641536,-43.5581629364051],[172.580507407392,-43.5582810382935],[172.58012076338497,-43.5585091773434],[172.57998899783598,-43.5583910660175],[172.580375641536,-43.5581629364051]]]]}}]}