{"type":"FeatureCollection","features":[{"type":"Feature","properties":{"gml_id":"vwRatingUnit.114234","RatingUnitID":114234,"ValuationVisitOrder":"4000","drvRatingUnitLocation":null,"StreetAddressID":33690,"OccupationLevelDescription":"Ground Floor and Above","StreetAddress":"1/27 Tower Street","LocalityName":"Hornby","ValuationRollNumber":"23433"},"geometry":{"type":"MultiPolygon","coordinates":[[[[172.52818413341396,-43.545309881551],[172.52832386513597,-43.5454224287843],[172.528269814211,-43.5454578840156],[172.527971354672,-43.545653660408796],[172.52783173051,-43.5455410447693],[172.52813138362,-43.545344483636995],[172.52818413341396,-43.545309881551]]]]}}]}