{"type":"FeatureCollection","features":[{"type":"Feature","properties":{"gml_id":"vwRatingUnit.103716","RatingUnitID":103716,"ValuationVisitOrder":"7900","drvRatingUnitLocation":null,"StreetAddressID":43305,"OccupationLevelDescription":"Ground Floor and Above","StreetAddress":"107 Wakefield Avenue","LocalityName":"Sumner","ValuationRollNumber":"22920"},"geometry":{"type":"MultiPolygon","coordinates":[[[[172.756855961763,-43.5772476190876],[172.756919445402,-43.5771398480736],[172.756921480078,-43.57713639430689],[172.75693264770797,-43.5771398758197],[172.7572059278,-43.5772250703613],[172.757208107274,-43.577225749911],[172.75720591028198,-43.5772294798812],[172.757184786908,-43.5772653388831],[172.757198710721,-43.5773654610011],[172.756847449417,-43.5772620697089],[172.756855961763,-43.5772476190876]]]]}}]}