{"type":"FeatureCollection","features":[{"type":"Feature","properties":{"gml_id":"vwRatingUnit.114587","RatingUnitID":114587,"ValuationVisitOrder":"38200","drvRatingUnitLocation":null,"StreetAddressID":87418,"OccupationLevelDescription":"Ground Floor and Above","StreetAddress":"4 Blankney Street","LocalityName":"Hornby","ValuationRollNumber":"23433"},"geometry":{"type":"MultiPolygon","coordinates":[[[[172.53022208602297,-43.5550690636925],[172.530638360948,-43.55524195688],[172.530558169896,-43.5553440601682],[172.530542034152,-43.5553646064341],[172.530335432034,-43.555278796185],[172.53012577103,-43.5551917129589],[172.53022208602297,-43.5550690636925]]]]}}]}