{"type":"FeatureCollection","features":[{"type":"Feature","properties":{"gml_id":"vwRatingUnit.114253","RatingUnitID":114253,"ValuationVisitOrder":"6200","drvRatingUnitLocation":null,"StreetAddressID":2712,"OccupationLevelDescription":"Ground Floor and Above","StreetAddress":"2/41 Amyes Road","LocalityName":"Hornby","ValuationRollNumber":"23433"},"geometry":{"type":"MultiPolygon","coordinates":[[[[172.529322235482,-43.547797821359],[172.529475383259,-43.547921327352],[172.529290610589,-43.5480426711978],[172.529169328794,-43.5479424509539],[172.528872630181,-43.548138178322],[172.528841583081,-43.5481131378591],[172.52916421587,-43.5479014869186],[172.529322235482,-43.547797821359]]]]}}]}