{"type":"FeatureCollection","features":[{"type":"Feature","properties":{"gml_id":"vwRatingUnit.114814","RatingUnitID":114814,"ValuationVisitOrder":"63200","drvRatingUnitLocation":null,"StreetAddressID":94054,"OccupationLevelDescription":"Ground Floor and Above","StreetAddress":"43 Witham Street","LocalityName":"Hornby","ValuationRollNumber":"23433"},"geometry":{"type":"MultiPolygon","coordinates":[[[[172.527388539175,-43.553730376261],[172.527730999877,-43.5540055515097],[172.527614731483,-43.5540818794108],[172.527588945194,-43.5540988033568],[172.527427698272,-43.5539680612784],[172.527248127297,-43.553822455316094],[172.527388539175,-43.553730376261]]]]}}]}