{"type":"FeatureCollection","features":[{"type":"Feature","properties":{"gml_id":"vwRatingUnit.107952","RatingUnitID":107952,"ValuationVisitOrder":"26100","drvRatingUnitLocation":null,"StreetAddressID":6474,"OccupationLevelDescription":"Ground Floor and Above","StreetAddress":"23A Hoon Hay Road","LocalityName":"Hoon Hay","ValuationRollNumber":"22980"},"geometry":{"type":"MultiPolygon","coordinates":[[[[172.596209982888,-43.555536110362894],[172.596244670784,-43.5555549413868],[172.596472061306,-43.5553276009117],[172.596498456204,-43.555322102099794],[172.59661327909697,-43.5553853550258],[172.596789331015,-43.5552138145176],[172.596730938759,-43.55517488892829],[172.596651545269,-43.55510589931879],[172.596209982888,-43.555536110362894]]]]}}]}