{"type":"FeatureCollection","features":[{"type":"Feature","properties":{"gml_id":"vwRatingUnit.115721","RatingUnitID":115721,"ValuationVisitOrder":"68300","drvRatingUnitLocation":null,"StreetAddressID":106430,"OccupationLevelDescription":"Ground Floor and Above","StreetAddress":"56 Oakhampton Street","LocalityName":"Hornby","ValuationRollNumber":"23434"},"geometry":{"type":"MultiPolygon","coordinates":[[[[172.533256970382,-43.5470347340632],[172.53351329721,-43.5472430180812],[172.53371648012296,-43.5471094665061],[172.53374668410297,-43.5471340082019],[172.533391561882,-43.5473669263037],[172.53324718152498,-43.5474616247469],[172.533118329358,-43.54735770925429],[172.533103140644,-43.5473454604757],[172.533136979068,-43.5471134736084],[172.533256970382,-43.5470347340632]]]]}}]}