{"type":"FeatureCollection","features":[{"type":"Feature","properties":{"gml_id":"vwRatingUnit.108529","RatingUnitID":108529,"ValuationVisitOrder":"6600","drvRatingUnitLocation":null,"StreetAddressID":63823,"OccupationLevelDescription":"Ground Floor and Above","StreetAddress":"25 Lunns Road","LocalityName":"Middleton","ValuationRollNumber":"23411"},"geometry":{"type":"MultiPolygon","coordinates":[[[[172.577520663732,-43.5419797632757],[172.577985162831,-43.5424010130924],[172.578093566561,-43.5424993213055],[172.57764478825,-43.5427611844764],[172.577073571415,-43.5422431335666],[172.577520663732,-43.5419797632757]]]]}}]}