{"type":"FeatureCollection","features":[{"type":"Feature","properties":{"gml_id":"vwRatingUnit.103021","RatingUnitID":103021,"ValuationVisitOrder":"14701","drvRatingUnitLocation":null,"StreetAddressID":96511,"OccupationLevelDescription":"Ground Floor and Above","StreetAddress":"46 Revelation Drive","LocalityName":"Clifton","ValuationRollNumber":"22911"},"geometry":{"type":"MultiPolygon","coordinates":[[[[172.742226731163,-43.57311644288709],[172.742469167535,-43.5733042563465],[172.742366379891,-43.573375221168696],[172.742246996019,-43.5733893198279],[172.74196159349296,-43.573221535095],[172.742013070344,-43.573197204662],[172.742226731163,-43.57311644288709]]]]}}]}