{"type":"FeatureCollection","features":[{"type":"Feature","properties":{"gml_id":"vwRatingUnit.113345","RatingUnitID":113345,"ValuationVisitOrder":"29400","drvRatingUnitLocation":null,"StreetAddressID":16702,"OccupationLevelDescription":"Ground Floor and Above","StreetAddress":"167 Foremans Road","LocalityName":"Islington","ValuationRollNumber":"23431"},"geometry":{"type":"MultiPolygon","coordinates":[[[[172.515043030339,-43.541098541975],[172.515066886243,-43.5411887418619],[172.515068182617,-43.5411968751706],[172.515067730265,-43.54120552316879],[172.515065398454,-43.5412140102352],[172.51506127544,-43.54122212972],[172.515055449407,-43.54122968397359],[172.515048058102,-43.5412364665544],[172.515039288408,-43.54124231623229],[172.51502936411,-43.5412470989354],[172.51501853373898,-43.5412506806963],[172.51500705777,-43.5412529816032],[172.514692203167,-43.5412969926829],[172.514639820346,-43.5410988681981],[172.515043030339,-43.541098541975]]]]}}]}