{"type":"FeatureCollection","features":[{"type":"Feature","properties":{"gml_id":"vwRatingUnit.115353","RatingUnitID":115353,"ValuationVisitOrder":"36300","drvRatingUnitLocation":null,"StreetAddressID":108469,"OccupationLevelDescription":"Ground Floor and Above","StreetAddress":"5E Florida Street","LocalityName":"Hornby","ValuationRollNumber":"23434"},"geometry":{"type":"MultiPolygon","coordinates":[[[[172.536008843107,-43.54500858222819],[172.536039130884,-43.54498793918919],[172.536067497792,-43.54500996164159],[172.536037222387,-43.545030604737796],[172.536008843107,-43.54500858222819]]]]}}]}