{"type":"FeatureCollection","features":[{"type":"Feature","properties":{"gml_id":"vwRatingUnit.104048","RatingUnitID":104048,"ValuationVisitOrder":"30000","drvRatingUnitLocation":null,"StreetAddressID":92493,"OccupationLevelDescription":"Ground Floor and Above","StreetAddress":"41A Colenso Street","LocalityName":"Sumner","ValuationRollNumber":"22920"},"geometry":{"type":"MultiPolygon","coordinates":[[[[172.761857869267,-43.5742072690086],[172.762106913842,-43.5743549480274],[172.76215027815599,-43.5743806615175],[172.761995566801,-43.57451856318429],[172.761755672216,-43.5747323700234],[172.761714765747,-43.5747080925249],[172.76190005034,-43.5745429648065],[172.761648560085,-43.5743938132373],[172.761857869267,-43.5742072690086]]]]}}]}