{"type":"FeatureCollection","features":[{"type":"Feature","properties":{"gml_id":"vwRatingUnit.105439","RatingUnitID":105439,"ValuationVisitOrder":"47400","drvRatingUnitLocation":null,"StreetAddressID":84466,"OccupationLevelDescription":"Ground Floor and Above","StreetAddress":"37 Wyn Street","LocalityName":"Hoon Hay","ValuationRollNumber":"22951"},"geometry":{"type":"MultiPolygon","coordinates":[[[[172.605578067158,-43.561873935732095],[172.605724467239,-43.5619694478786],[172.605289217994,-43.562317880893],[172.605145788212,-43.5622242955263],[172.605578067158,-43.561873935732095]]]]}}]}