{"type":"FeatureCollection","features":[{"type":"Feature","properties":{"gml_id":"vwRatingUnit.102682","RatingUnitID":102682,"ValuationVisitOrder":"61900","drvRatingUnitLocation":null,"StreetAddressID":15735,"OccupationLevelDescription":"Ground Floor and Above","StreetAddress":"175 Soleares Avenue","LocalityName":"McCormacks Bay","ValuationRollNumber":"22902"},"geometry":{"type":"MultiPolygon","coordinates":[[[[172.720912976847,-43.5669135730224],[172.721349727071,-43.5669780900814],[172.721682881687,-43.5670272530495],[172.721673876039,-43.5672215618929],[172.72118910396,-43.5671500267928],[172.721233718791,-43.5669945692056],[172.720881169306,-43.5669424689026],[172.720896616041,-43.566929167427794],[172.720912976847,-43.5669135730224]]]]}}]}