{"type":"FeatureCollection","features":[{"type":"Feature","properties":{"gml_id":"vwRatingUnit.10260","RatingUnitID":10260,"ValuationVisitOrder":"4900","drvRatingUnitLocation":null,"StreetAddressID":109540,"OccupationLevelDescription":"Ground Floor and Above","StreetAddress":"6 Nortons Road","LocalityName":"Avonhead","ValuationRollNumber":"21895"},"geometry":{"type":"MultiPolygon","coordinates":[[[[172.55542743488496,-43.5263213518995],[172.55600082596098,-43.5264968063671],[172.555928513638,-43.526621954939],[172.555355109214,-43.526446500077],[172.55542743488496,-43.5263213518995]]]]}}]}