{"type":"FeatureCollection","features":[{"type":"Feature","properties":{"gml_id":"vwRatingUnit.106822","RatingUnitID":106822,"ValuationVisitOrder":"59908","drvRatingUnitLocation":null,"StreetAddressID":72034,"OccupationLevelDescription":"Ground Floor and Above","StreetAddress":"3 Worsleys Road","LocalityName":"Hoon Hay Valley","ValuationRollNumber":"22960"},"geometry":{"type":"MultiPolygon","coordinates":[[[[172.615796830367,-43.5743003908747],[172.616048298091,-43.5743480670224],[172.61604298066098,-43.57436287345829],[172.61595493917,-43.5746082001749],[172.615734796593,-43.574473195497],[172.615796830367,-43.5743003908747]]]]}}]}