{"type":"FeatureCollection","features":[{"type":"Feature","properties":{"gml_id":"vwRatingUnit.109066","RatingUnitID":109066,"ValuationVisitOrder":"19600","drvRatingUnitLocation":null,"StreetAddressID":99444,"OccupationLevelDescription":"Ground Floor and Above","StreetAddress":"4C Owens Terrace","LocalityName":"Upper Riccarton","ValuationRollNumber":"23412"},"geometry":{"type":"MultiPolygon","coordinates":[[[[172.568681829155,-43.5351714725068],[172.568691063509,-43.5352330707376],[172.56841441271897,-43.5352555403148],[172.568407213123,-43.535207209304],[172.568405142123,-43.5351933060324],[172.568681829155,-43.5351714725068]]]]}}]}