{"type":"FeatureCollection","features":[{"type":"Feature","properties":{"gml_id":"vwRatingUnit.107780","RatingUnitID":107780,"ValuationVisitOrder":"13200","drvRatingUnitLocation":null,"StreetAddressID":33843,"OccupationLevelDescription":"Ground Floor and Above","StreetAddress":"1/28 Mathers Road","LocalityName":"Hoon Hay","ValuationRollNumber":"22980"},"geometry":{"type":"MultiPolygon","coordinates":[[[[172.596984578195,-43.5591854857495],[172.597156256241,-43.5591009317982],[172.597269853711,-43.5592048638237],[172.597108008691,-43.5593010046742],[172.596984578195,-43.5591854857495]]]]}}]}