{"type":"FeatureCollection","features":[{"type":"Feature","properties":{"gml_id":"vwRatingUnit.104635","RatingUnitID":104635,"ValuationVisitOrder":"71300","drvRatingUnitLocation":null,"StreetAddressID":154839,"OccupationLevelDescription":"Ground Floor and Above","StreetAddress":"1/20 Esplanade","LocalityName":"Sumner","ValuationRollNumber":"22920"},"geometry":{"type":"MultiPolygon","coordinates":[[[[172.758914108042,-43.5671370982062],[172.758996309323,-43.5672207944867],[172.758900567317,-43.5673020854472],[172.758866863685,-43.5672764610605],[172.758856607872,-43.5672667152707],[172.75881891778798,-43.5672308995174],[172.758774494963,-43.5671886684676],[172.758773980751,-43.5671881795504],[172.758774497639,-43.5671879908976],[172.758776236946,-43.5671873561982],[172.758914108042,-43.5671370982062]]]]}}]}