{"type":"FeatureCollection","features":[{"type":"Feature","properties":{"gml_id":"vwRatingUnit.107310","RatingUnitID":107310,"ValuationVisitOrder":"41100","drvRatingUnitLocation":null,"StreetAddressID":65044,"OccupationLevelDescription":"Ground Floor and Above","StreetAddress":"26 Leicester Crescent","LocalityName":"Hoon Hay","ValuationRollNumber":"22970"},"geometry":{"type":"MultiPolygon","coordinates":[[[[172.584898663684,-43.5631979005796],[172.585019868815,-43.5633065440783],[172.584639014171,-43.5635312356913],[172.58451779688596,-43.5634225917522],[172.584898663684,-43.5631979005796]]]]}}]}