{"type":"FeatureCollection","features":[{"type":"Feature","properties":{"gml_id":"vwRatingUnit.104706","RatingUnitID":104706,"ValuationVisitOrder":"2701","drvRatingUnitLocation":null,"StreetAddressID":18764,"OccupationLevelDescription":"Ground Floor and Above","StreetAddress":"16 Scarborough Fare","LocalityName":"Scarborough","ValuationRollNumber":"22931"},"geometry":{"type":"MultiPolygon","coordinates":[[[[172.771071335254,-43.5752031958663],[172.771079671329,-43.5752085856265],[172.771309340047,-43.5753570701439],[172.771107366756,-43.5755220446841],[172.770869534288,-43.5753683953511],[172.771071335254,-43.5752031958663]]]]}}]}