{"type":"FeatureCollection","features":[{"type":"Feature","properties":{"gml_id":"vwRatingUnit.104783","RatingUnitID":104783,"ValuationVisitOrder":"12500","drvRatingUnitLocation":null,"StreetAddressID":40936,"OccupationLevelDescription":"Ground Floor and Above","StreetAddress":"10 Taylors Mistake Road","LocalityName":"Scarborough","ValuationRollNumber":"22931"},"geometry":{"type":"MultiPolygon","coordinates":[[[[172.775244380605,-43.5697861665457],[172.77526139551696,-43.5697775861915],[172.775279716812,-43.56977056545129],[172.775298935409,-43.5697652655376],[172.775366162824,-43.5697485383319],[172.775387326106,-43.5697395249969],[172.775408070301,-43.56973002482],[172.775428209409,-43.5697234936116],[172.775468493783,-43.5697154894479],[172.77548824109,-43.5697145197447],[172.775506187903,-43.5697150766182],[172.775545169525,-43.56971799644119],[172.775565828719,-43.5697215197181],[172.775578819977,-43.56972657618479],[172.775607172583,-43.5697384848027],[172.775623093573,-43.56974462700389],[172.775545868271,-43.5700029339412],[172.775460320619,-43.5702890810308],[172.775351210582,-43.5706540171609],[172.775268907075,-43.5709293338365],[172.775054654169,-43.5716459465681],[172.774924570995,-43.5720810268336],[172.774870840239,-43.5720557390097],[172.774591463821,-43.57262152055349],[172.77390641777,-43.5726812512924],[172.773199859166,-43.5728166745049],[172.773015487897,-43.5729622729484],[172.772506400037,-43.5725382608037],[172.773409384326,-43.5716326628866],[172.773557295006,-43.5714836802454],[172.773587272178,-43.571451481349],[172.773753656813,-43.5712842727234],[172.773946232402,-43.5710907527577],[172.774124704476,-43.570911407625],[172.774244219588,-43.5707912960649],[172.774253547418,-43.5707962015185],[172.77434988936,-43.5706994817668],[172.77434049980997,-43.5706945311981],[172.774527219581,-43.5705069031278],[172.7747360294,-43.5702970416885],[172.775244380605,-43.5697861665457]]]]}}]}