{"type":"FeatureCollection","features":[{"type":"Feature","properties":{"gml_id":"vwRatingUnit.108388","RatingUnitID":108388,"ValuationVisitOrder":"60502","drvRatingUnitLocation":null,"StreetAddressID":32376,"OccupationLevelDescription":"Ground Floor and Above","StreetAddress":"1/2 Fountainhead Lane","LocalityName":"Hillmorton","ValuationRollNumber":"22980"},"geometry":{"type":"MultiPolygon","coordinates":[[[[172.580527592834,-43.559193912863996],[172.580442955488,-43.5592141575674],[172.580239579054,-43.5592628045623],[172.58019988326896,-43.5592722997159],[172.580240451767,-43.5586647507024],[172.580659580855,-43.5584174408034],[172.58066364024197,-43.5584210738491],[172.580255459596,-43.55866191614399],[172.58022780655799,-43.5590760853189],[172.580450234511,-43.5590228797503],[172.580527592834,-43.559193912863996]]]]}}]}