{"type":"FeatureCollection","features":[{"type":"Feature","properties":{"gml_id":"vwRatingUnit.112174","RatingUnitID":112174,"ValuationVisitOrder":"21600","drvRatingUnitLocation":null,"StreetAddressID":25230,"OccupationLevelDescription":"Ground Floor and Above","StreetAddress":"14 Aurora Street","LocalityName":"Hei Hei","ValuationRollNumber":"23421"},"geometry":{"type":"MultiPolygon","coordinates":[[[[172.525134064414,-43.5298936163287],[172.525325310891,-43.529951921397],[172.52512127574,-43.5303062031296],[172.524930040708,-43.5302478977859],[172.525134064414,-43.5298936163287]]]]}}]}