{"type":"FeatureCollection","features":[{"type":"Feature","properties":{"gml_id":"vwRatingUnit.10741","RatingUnitID":10741,"ValuationVisitOrder":"46400","drvRatingUnitLocation":null,"StreetAddressID":113145,"OccupationLevelDescription":"Ground Floor and Above","StreetAddress":"64 Nortons Road","LocalityName":"Avonhead","ValuationRollNumber":"21895"},"geometry":{"type":"MultiPolygon","coordinates":[[[[172.556372586425,-43.522231547389],[172.556822725366,-43.5222494030339],[172.556861286934,-43.5223438361731],[172.556427339681,-43.5224533700802],[172.556413270858,-43.5224217316184],[172.556405670669,-43.5224020713143],[172.556398838477,-43.5223822609555],[172.556387502298,-43.522342262174796],[172.556379273768,-43.5223018613341],[172.556376341566,-43.522281552960195],[172.556374201375,-43.52226119363489],[172.556372586425,-43.522231547389]]]]}}]}