{"type":"FeatureCollection","features":[{"type":"Feature","properties":{"gml_id":"vwRatingUnit.104902","RatingUnitID":104902,"ValuationVisitOrder":"31500","drvRatingUnitLocation":null,"StreetAddressID":60911,"OccupationLevelDescription":"Ground Floor and Above","StreetAddress":"239 Taylors Mistake Road","LocalityName":"Scarborough","ValuationRollNumber":"22931"},"geometry":{"type":"MultiPolygon","coordinates":[[[[172.774978402916,-43.58221514452789],[172.774816831549,-43.5821878380567],[172.774825298534,-43.5821613933145],[172.77472360196197,-43.5821442116401],[172.774764172794,-43.5820606947581],[172.77502665405396,-43.582026130646],[172.775278647216,-43.5820693361451],[172.775349344493,-43.5822778329353],[172.774978402916,-43.58221514452789]]]]}}]}