{"type":"FeatureCollection","features":[{"type":"Feature","properties":{"gml_id":"vwRatingUnit.100839","RatingUnitID":100839,"ValuationVisitOrder":"42501","drvRatingUnitLocation":null,"StreetAddressID":43229,"OccupationLevelDescription":"Ground Floor and Above","StreetAddress":"107 Moncks Spur Road","LocalityName":"Moncks Spur","ValuationRollNumber":"22900"},"geometry":{"type":"MultiPolygon","coordinates":[[[[172.734530585873,-43.5683465960201],[172.734891299003,-43.568635467510994],[172.734982248797,-43.5687083012522],[172.734859169618,-43.5688966696059],[172.734657834268,-43.568691535866094],[172.734565578722,-43.5685147969635],[172.734530585873,-43.5683465960201]]]]}}]}