{"type":"FeatureCollection","features":[{"type":"Feature","properties":{"gml_id":"vwRatingUnit.10033","RatingUnitID":10033,"ValuationVisitOrder":"78900","drvRatingUnitLocation":null,"StreetAddressID":60049,"OccupationLevelDescription":"Ground Floor and Above","StreetAddress":"23 Strathean Avenue","LocalityName":"Avonhead","ValuationRollNumber":"21894"},"geometry":{"type":"MultiPolygon","coordinates":[[[[172.5600460864,-43.5073222584093],[172.560090856188,-43.5076250596064],[172.55991611950998,-43.507638747303396],[172.55985657882,-43.5076434158632],[172.559839184419,-43.5073361379051],[172.559875427885,-43.507334728513996],[172.55993534531498,-43.5073309344817],[172.5600460864,-43.5073222584093]]]]}}]}