{"type":"FeatureCollection","features":[{"type":"Feature","properties":{"gml_id":"vwRatingUnit.117931","RatingUnitID":117931,"ValuationVisitOrder":"12300","drvRatingUnitLocation":null,"StreetAddressID":85137,"OccupationLevelDescription":"Ground Floor and Above","StreetAddress":"38 Fern Drive","LocalityName":"Oaklands","ValuationRollNumber":"23444"},"geometry":{"type":"MultiPolygon","coordinates":[[[[172.56255091645,-43.5762395253538],[172.562710473341,-43.5762931358243],[172.562722725121,-43.5762972506139],[172.56251591784797,-43.5766227172692],[172.562344108447,-43.5765649917117],[172.56255091645,-43.5762395253538]]]]}}]}