{"type":"FeatureCollection","features":[{"type":"Feature","properties":{"gml_id":"vwRatingUnit.111982","RatingUnitID":111982,"ValuationVisitOrder":"6900","drvRatingUnitLocation":null,"StreetAddressID":40969,"OccupationLevelDescription":"Ground Floor and Above","StreetAddress":"10 Tirangi Street","LocalityName":"Hei Hei","ValuationRollNumber":"23421"},"geometry":{"type":"MultiPolygon","coordinates":[[[[172.52976794863,-43.5321879107257],[172.529994061462,-43.5322568633998],[172.529849734328,-43.5325074090547],[172.52984191654096,-43.5325185112779],[172.529833523678,-43.5325271808985],[172.529823677547,-43.5325349984938],[172.529812515341,-43.5325418206089],[172.529800248133,-43.5325475490954],[172.529787062321,-43.5325520767032],[172.529773193513,-43.5325553323872],[172.529758864737,-43.5325572720535],[172.529744311461,-43.5325578426585],[172.529729781038,-43.5325570542136],[172.52971549608,-43.5325549166295],[172.529701716173,-43.5325514579695],[172.52957992091896,-43.5325143084174],[172.52976794863,-43.5321879107257]]]]}}]}