{"type":"FeatureCollection","features":[{"type":"Feature","properties":{"gml_id":"vwRatingUnit.104930","RatingUnitID":104930,"ValuationVisitOrder":"39913","drvRatingUnitLocation":null,"StreetAddressID":48309,"OccupationLevelDescription":"Ground Floor and Above","StreetAddress":"12 Godley Drive","LocalityName":"Scarborough","ValuationRollNumber":"22931"},"geometry":{"type":"MultiPolygon","coordinates":[[[[172.772216705196,-43.5760522090726],[172.77261464436398,-43.5757687222683],[172.77272045591,-43.5757882271473],[172.772653187368,-43.5761501824143],[172.772644575506,-43.57618558219409],[172.772216705196,-43.5760522090726]]]]}}]}