{"type":"FeatureCollection","features":[{"type":"Feature","properties":{"gml_id":"vwRatingUnit.116083","RatingUnitID":116083,"ValuationVisitOrder":"22600","drvRatingUnitLocation":null,"StreetAddressID":35763,"OccupationLevelDescription":"Ground Floor and Above","StreetAddress":"41 Oakley Crescent","LocalityName":"Hornby","ValuationRollNumber":"23435"},"geometry":{"type":"MultiPolygon","coordinates":[[[[172.532413659072,-43.5553310354078],[172.532459266412,-43.5552729604965],[172.532549523001,-43.555158033474],[172.53255360196,-43.5551528394532],[172.532562807238,-43.5551580873673],[172.53256810766,-43.5551611088398],[172.532570758224,-43.5551626200972],[172.532574268473,-43.5551646211481],[172.532578708854,-43.5551671528251],[172.532580429641,-43.555168133717295],[172.532586659844,-43.55517168529399],[172.532592751985,-43.555175158335],[172.532594610834,-43.5551762180222],[172.532598913156,-43.5551786709033],[172.532602561467,-43.5551807507484],[172.53260507433,-43.5551821832112],[172.532610512459,-43.5551852834755],[172.53261123550396,-43.5551856955189],[172.532618463452,-43.5551898162021],[172.532623557496,-43.5551927203917],[172.532626414089,-43.5551943489266],[172.532629718672,-43.5551962326983],[172.532634365084,-43.555198881652],[172.532635879849,-43.5551997450046],[172.532650266723,-43.5552079468397],[172.532654363383,-43.5552102821814],[172.53265821772197,-43.5552124795635],[172.532660524206,-43.5552137944849],[172.532666168365,-43.5552170122851],[172.532666685385,-43.5552173070494],[172.532674119366,-43.55522154500769],[172.532679007748,-43.5552243316576],[172.532682070369,-43.5552260777298],[172.532685168929,-43.5552278442211],[172.532690021015,-43.5552306104497],[172.53269133011298,-43.555231356524395],[172.532705923028,-43.555239675631],[172.532709813308,-43.5552418936905],[172.532713873678,-43.5552442083493],[172.532715974495,-43.5552454059924],[172.532721824687,-43.5552487410685],[172.53272213568198,-43.55524891829399],[172.532729775339,-43.5552532737857],[172.532734458056,-43.555255943156],[172.53273772635,-43.5552578065038],[172.532738682108,-43.5552583512683],[172.53274058279598,-43.55526421258109],[172.532742889865,-43.5552713286046],[172.53274662769098,-43.5552828565538],[172.532748734718,-43.5552893542017],[172.53275267294597,-43.5553015005276],[172.532754579219,-43.5553073795371],[172.532758718208,-43.555320144241],[172.532760424079,-43.5553254051334],[172.532764763471,-43.5553387882139],[172.532766268587,-43.55534343046789],[172.532770808738,-43.5553574321864],[172.532772113456,-43.5553614558034],[172.53277685400798,-43.5553760761584],[172.532778762029,-43.5553819608926],[172.532789196337,-43.5553866115421],[172.532794987903,-43.55538855139859],[172.532802553265,-43.55539108508109],[172.532807670275,-43.5553922544052],[172.53281145086098,-43.5553931183653],[172.532816587847,-43.5553942924484],[172.532831065774,-43.5553961692739],[172.532845752454,-43.5553966878346],[172.532860412091,-43.5553958380776],[172.532874810107,-43.555393637246],[172.53288869856598,-43.5553901202034],[172.532924194466,-43.5553800742886],[172.532925339149,-43.555379750133],[172.532955548226,-43.5553712004363],[172.532956346924,-43.5553709744264],[172.532986902335,-43.5553623265769],[172.532987354333,-43.5553621987101],[172.533018256075,-43.5553534529676],[172.53301836173299,-43.5553534229854],[172.53315934904796,-43.5553135207156],[172.53331603324,-43.5552691754019],[172.533316118482,-43.555269151314896],[172.533347040901,-43.555260399590594],[172.53335010208997,-43.5552595332071],[172.533359154223,-43.5552863473584],[172.533166972103,-43.5553407784898],[172.533136420623,-43.5553494313411],[172.53312356156997,-43.5553530734461],[172.533120754663,-43.555353868337],[172.53307394946,-43.5553671247304],[172.533073757129,-43.5553671790535],[172.533042942014,-43.5553759067078],[172.533042425545,-43.5553760530277],[172.53301193419898,-43.5553846889354],[172.533011093595,-43.5553849269919],[172.532980926735,-43.55539347089619],[172.532979761995,-43.5553938006892],[172.532949919262,-43.5554022528487],[172.532948430026,-43.5554026746365],[172.53291891142,-43.5554110350514],[172.532917098406,-43.55541154857669],[172.532887903929,-43.555419816987296],[172.53288576641899,-43.555420422507],[172.532856896427,-43.5554285991747],[172.53285443478197,-43.5554292961704],[172.532825888918,-43.555437381094],[172.53282310277598,-43.5554381700838],[172.532794881042,-43.5554461630035],[172.532791771119,-43.5554470439901],[172.53277627666898,-43.5554514322507],[172.532776105108,-43.5554514809393],[172.532763873512,-43.55545494516609],[172.532760439097,-43.5554559176265],[172.532745268776,-43.5554602144068],[172.532744773439,-43.55546035457299],[172.532732865976,-43.5554637270604],[172.532729107421,-43.5554647915159],[172.53271426123496,-43.5554689962961],[172.532713441401,-43.5554692284566],[172.532701858073,-43.555472508945],[172.532697775736,-43.555473665396796],[172.532685878824,-43.5554770347131],[172.532413659072,-43.5553310354078]]]]}}]}