{"type":"FeatureCollection","features":[{"type":"Feature","properties":{"gml_id":"vwRatingUnit.116920","RatingUnitID":116920,"ValuationVisitOrder":"77403","drvRatingUnitLocation":null,"StreetAddressID":79120,"OccupationLevelDescription":"Ground Floor and Above","StreetAddress":"33 Brigham Drive","LocalityName":"Oaklands","ValuationRollNumber":"23441"},"geometry":{"type":"MultiPolygon","coordinates":[[[[172.551962205404,-43.57133121074989],[172.551987966858,-43.5713194027776],[172.55200739957598,-43.57131135955029],[172.552047380379,-43.5712967895528],[172.55206787875,-43.5712902895914],[172.552088682691,-43.5712843218603],[172.552131095678,-43.5712740096574],[172.552174396126,-43.5712659060808],[172.55221838571097,-43.571260046362596],[172.552240572287,-43.5712579723177],[172.552285155638,-43.5712555441836],[172.552329883068,-43.571255411795],[172.552352209429,-43.5712562185266],[172.552374494492,-43.5712575921437],[172.55240912008796,-43.5712608768193],[172.552306837994,-43.57152288904079],[172.552166979339,-43.5715510855563],[172.551962205404,-43.57133121074989]]]]}}]}