{"type":"FeatureCollection","features":[{"type":"Feature","properties":{"gml_id":"vwRatingUnit.11248","RatingUnitID":11248,"ValuationVisitOrder":"20100","drvRatingUnitLocation":null,"StreetAddressID":89741,"OccupationLevelDescription":"Ground Floor and Above","StreetAddress":"3/32A Peer Street","LocalityName":"Upper Riccarton","ValuationRollNumber":"21896"},"geometry":{"type":"MultiPolygon","coordinates":[[[[172.570172992774,-43.5283777181811],[172.570174013873,-43.528375948677],[172.570179891156,-43.52837774394789],[172.570220550681,-43.5283901637688],[172.570240643857,-43.5283553452228],[172.570240812632,-43.5283554692908],[172.570253182862,-43.5283555154885],[172.570370097575,-43.52844146038179],[172.570376282699,-43.5284414834738],[172.570394742948,-43.5284550537078],[172.570397835511,-43.5284550652532],[172.570397502585,-43.528502318612695],[172.57039128574698,-43.52850679584179],[172.57039125404,-43.52851129616159],[172.57039052159297,-43.528511823653396],[172.570345154525,-43.5284979644374],[172.570336280781,-43.5285133411356],[172.57032629430796,-43.5285133038479],[172.57029552722597,-43.5284906867715],[172.570283156968,-43.5284906405786],[172.570277003555,-43.5284861171616],[172.570270818427,-43.5284860940643],[172.57026466501597,-43.5284815706467],[172.57025847988797,-43.5284815475487],[172.570252326478,-43.5284770241304],[172.570239956222,-43.5284769779328],[172.570233802814,-43.5284724545134],[172.57022761768698,-43.5284724314138],[172.57022146428,-43.5284679079938],[172.57021527915398,-43.5284678848935],[172.570209125748,-43.5284633614728],[172.57020294062198,-43.5284633383718],[172.57019678721798,-43.5284588149504],[172.570184416967,-43.528458768746795],[172.570178263564,-43.5284542453245],[172.57017207843896,-43.5284542222218],[172.570165925038,-43.5284496987988],[172.570159739913,-43.52844967569549],[172.570153586514,-43.5284451522718],[172.570135031141,-43.5284450829588],[172.570134391104,-43.528444612461],[172.570172992774,-43.5283777181811]]]]}}]}