{"type":"FeatureCollection","features":[{"type":"Feature","properties":{"gml_id":"vwRatingUnit.10587","RatingUnitID":10587,"ValuationVisitOrder":"33200","drvRatingUnitLocation":null,"StreetAddressID":55789,"OccupationLevelDescription":"Ground Floor and Above","StreetAddress":"21 Harrowdale Drive","LocalityName":"Avonhead","ValuationRollNumber":"21895"},"geometry":{"type":"MultiPolygon","coordinates":[[[[172.55376279651,-43.52188434206099],[172.55397657332,-43.5219386365933],[172.553791322965,-43.5223250658134],[172.553651977381,-43.5222851552141],[172.55358047161698,-43.5222646796847],[172.55376279651,-43.52188434206099]]]]}}]}