{"type":"FeatureCollection","features":[{"type":"Feature","properties":{"gml_id":"vwRatingUnit.107062","RatingUnitID":107062,"ValuationVisitOrder":"16300","drvRatingUnitLocation":null,"StreetAddressID":28779,"OccupationLevelDescription":"Ground Floor and Above","StreetAddress":"1 Stanton Crescent","LocalityName":"Hoon Hay","ValuationRollNumber":"22970"},"geometry":{"type":"MultiPolygon","coordinates":[[[[172.583073238052,-43.5623631260312],[172.583294296636,-43.5625609970814],[172.583299336726,-43.56256607372999],[172.583303557155,-43.5625715524502],[172.583306896593,-43.5625773520134],[172.583309293706,-43.5625833911911],[172.583310724354,-43.5625895798886],[172.583311176591,-43.5625958550572],[172.583310638652,-43.562602126646794],[172.583309111093,-43.5626083136525],[172.583306631658,-43.5626143262031],[172.583303213155,-43.5626201013394],[172.583298918084,-43.5626255492796],[172.583293784007,-43.562630607154],[172.583287898057,-43.5626352032713],[172.583283298207,-43.562638156897],[172.583139808483,-43.5627229113918],[172.58287127711097,-43.5624823396685],[172.583073238052,-43.5623631260312]]]]}}]}