{"type":"FeatureCollection","features":[{"type":"Feature","properties":{"gml_id":"vwRatingUnit.10924","RatingUnitID":10924,"ValuationVisitOrder":"62700","drvRatingUnitLocation":null,"StreetAddressID":111233,"OccupationLevelDescription":"Ground Floor and Above","StreetAddress":"60 Staveley Street","LocalityName":"Avonhead","ValuationRollNumber":"21895"},"geometry":{"type":"MultiPolygon","coordinates":[[[[172.555605615312,-43.519029074419],[172.555793518598,-43.5190768660906],[172.555587144668,-43.5195064571435],[172.555399252644,-43.5194586561968],[172.555605615312,-43.519029074419]]]]}}]}