{"type":"FeatureCollection","features":[{"type":"Feature","properties":{"gml_id":"vwRatingUnit.102325","RatingUnitID":102325,"ValuationVisitOrder":"21200","drvRatingUnitLocation":null,"StreetAddressID":21126,"OccupationLevelDescription":"Ground Floor and Above","StreetAddress":"16 Aratoro Place","LocalityName":"McCormacks Bay","ValuationRollNumber":"22902"},"geometry":{"type":"MultiPolygon","coordinates":[[[[172.720753257813,-43.5581357531899],[172.721146215,-43.55825271116879],[172.72113723751698,-43.5582781160664],[172.721128033926,-43.5583096677992],[172.721120673227,-43.5583414759982],[172.721115168044,-43.5583734866907],[172.721111489351,-43.5584066358652],[172.720886684802,-43.5583959849982],[172.720753257813,-43.5581357531899]]]]}}]}