{"type":"FeatureCollection","features":[{"type":"Feature","properties":{"gml_id":"vwRatingUnit.109761","RatingUnitID":109761,"ValuationVisitOrder":"27100","drvRatingUnitLocation":null,"StreetAddressID":60223,"OccupationLevelDescription":"Ground Floor and Above","StreetAddress":"23 English Street","LocalityName":"Upper Riccarton","ValuationRollNumber":"23413"},"geometry":{"type":"MultiPolygon","coordinates":[[[[172.56249928491496,-43.532079869487994],[172.562509322125,-43.5320742747033],[172.56278042934997,-43.5319231575696],[172.56278176327598,-43.5319224140735],[172.562782838903,-43.5319231667229],[172.5629345548,-43.5320293291171],[172.562936949908,-43.5320310050654],[172.562934533032,-43.53203236591439],[172.56265101660998,-43.5321920200414],[172.562628535124,-43.5322046797582],[172.56249928491496,-43.532079869487994]]]]}}]}