{"type":"FeatureCollection","features":[{"type":"Feature","properties":{"gml_id":"vwRatingUnit.102597","RatingUnitID":102597,"ValuationVisitOrder":"52100","drvRatingUnitLocation":null,"StreetAddressID":61660,"OccupationLevelDescription":"Ground Floor and Above","StreetAddress":"24 Patmos Place","LocalityName":"Mt Pleasant","ValuationRollNumber":"22902"},"geometry":{"type":"MultiPolygon","coordinates":[[[[172.724527810428,-43.5631311873678],[172.724565307266,-43.5633027100969],[172.724235172322,-43.563378255930594],[172.723958996795,-43.5633809894125],[172.72403227051,-43.5633207708795],[172.72407868292098,-43.5632364296854],[172.724072412676,-43.5631860116727],[172.724157886779,-43.5631867918754],[172.724527810428,-43.5631311873678]]]]}}]}