{"type":"FeatureCollection","features":[{"type":"Feature","properties":{"gml_id":"vwRatingUnit.113483","RatingUnitID":113483,"ValuationVisitOrder":"44200","drvRatingUnitLocation":null,"StreetAddressID":12218,"OccupationLevelDescription":"Ground Floor and Above","StreetAddress":"19 Davidson Crescent","LocalityName":"Hornby","ValuationRollNumber":"23431"},"geometry":{"type":"MultiPolygon","coordinates":[[[[172.51436174893198,-43.5464626848022],[172.514454711074,-43.5468146799892],[172.514444131631,-43.5468161475426],[172.51426892529398,-43.54684061133669],[172.514175951665,-43.5464886339432],[172.51436174893198,-43.5464626848022]]]]}}]}