{"type":"FeatureCollection","features":[{"type":"Feature","properties":{"gml_id":"vwRatingUnit.115227","RatingUnitID":115227,"ValuationVisitOrder":"24800","drvRatingUnitLocation":null,"StreetAddressID":59463,"OccupationLevelDescription":"Ground Floor and Above","StreetAddress":"23 Dickson Crescent","LocalityName":"Hornby","ValuationRollNumber":"23434"},"geometry":{"type":"MultiPolygon","coordinates":[[[[172.538570026197,-43.5440733919697],[172.538649371211,-43.5441349969353],[172.538804100811,-43.5442551035275],[172.538918149237,-43.5443436519243],[172.538885208285,-43.5443995145712],[172.53874300279196,-43.54464062799239],[172.53871273914396,-43.54463205494],[172.538685327783,-43.5446259235453],[172.53865742385,-43.5446211133016],[172.538629138567,-43.544617642656],[172.538600607907,-43.5446155301547],[172.538570445689,-43.544614815248],[172.538570026197,-43.5440733919697]]]]}}]}