{"type":"FeatureCollection","features":[{"type":"Feature","properties":{"gml_id":"vwRatingUnit.118295","RatingUnitID":118295,"ValuationVisitOrder":"49900","drvRatingUnitLocation":null,"StreetAddressID":112671,"OccupationLevelDescription":"Ground Floor and Above","StreetAddress":"63 Nottingham Avenue","LocalityName":"Oaklands","ValuationRollNumber":"23444"},"geometry":{"type":"MultiPolygon","coordinates":[[[[172.559521005881,-43.5746814104914],[172.55970188506,-43.5747421272652],[172.559400547899,-43.5752162985659],[172.55923139361096,-43.5751587224109],[172.559220118277,-43.5751548899982],[172.559521005881,-43.5746814104914]]]]}}]}