{"type":"FeatureCollection","features":[{"type":"Feature","properties":{"gml_id":"vwRatingUnit.110301","RatingUnitID":110301,"ValuationVisitOrder":"600","drvRatingUnitLocation":null,"StreetAddressID":4442,"OccupationLevelDescription":"Ground Floor and Above","StreetAddress":"2/3 Bucknell Street","LocalityName":"Upper Riccarton","ValuationRollNumber":"23414"},"geometry":{"type":"MultiPolygon","coordinates":[[[[172.55770809724,-43.5283652019381],[172.557693886554,-43.528389654792],[172.557688751549,-43.5283880837261],[172.557443917972,-43.5283131759915],[172.557443947161,-43.52830915455439],[172.557456382715,-43.5283002014799],[172.557456448042,-43.5282912008318],[172.557462665817,-43.528286724294],[172.55746269847896,-43.52828222397],[172.55746891625296,-43.5282777474319],[172.557468981578,-43.5282687467838],[172.55747519935,-43.528264270245295],[172.557475297336,-43.5282507692731],[172.55748151510497,-43.5282462927343],[172.557481547767,-43.52824179241019],[172.557487765535,-43.5282373158711],[172.557487798196,-43.528232815547],[172.557494015962,-43.52822833900749],[172.557494081284,-43.5282193383593],[172.557500299048,-43.5282148618195],[172.557500331709,-43.52821036149529],[172.557506549472,-43.5282058849552],[172.557506614791,-43.528196884306894],[172.557512832553,-43.5281924077664],[172.557512865212,-43.5281879074423],[172.557519082973,-43.5281834309014],[172.55751914829,-43.5281744302531],[172.557525366049,-43.5281699537119],[172.557525398707,-43.5281654533878],[172.557531616464,-43.5281609768462],[172.55753164912198,-43.52815647652199],[172.557537866877,-43.5281519999801],[172.55753796485,-43.5281384990076],[172.55754418260298,-43.5281340224654],[172.557544247917,-43.5281250218169],[172.557550465668,-43.5281205452744],[172.557550498325,-43.5281160449502],[172.55755671607497,-43.5281115684073],[172.557556781387,-43.5281025677588],[172.557557183855,-43.5281022779971],[172.557716400303,-43.5281510016303],[172.557809818701,-43.5281795867238],[172.557815034392,-43.52818118266999],[172.557809741066,-43.5281902916695],[172.55773429866,-43.5283201161276],[172.557730463967,-43.5283267146375],[172.557728316147,-43.5283304104789],[172.557725990624,-43.528334412098],[172.55772205268,-43.5283411882738],[172.55772151728,-43.5283421095583],[172.55770952574,-43.5283627438627],[172.55770809724,-43.5283652019381]]]]}}]}