{"type":"FeatureCollection","features":[{"type":"Feature","properties":{"gml_id":"vwRatingUnit.106255","RatingUnitID":106255,"ValuationVisitOrder":"10800","drvRatingUnitLocation":null,"StreetAddressID":127927,"OccupationLevelDescription":"Ground Floor and Above","StreetAddress":"9 Greta Place","LocalityName":"Hoon Hay","ValuationRollNumber":"22960"},"geometry":{"type":"MultiPolygon","coordinates":[[[[172.614217379532,-43.5721033125005],[172.61435810408696,-43.5723840371739],[172.614136403227,-43.5724522775742],[172.61431600775296,-43.57272782181699],[172.614291558649,-43.5727277671288],[172.61427463183597,-43.572728412623],[172.614055818478,-43.57239272963639],[172.613921926114,-43.572253293253695],[172.61404986915298,-43.5721883490995],[172.614204538083,-43.5721098310849],[172.614217379532,-43.5721033125005]]]]}}]}