{"type":"FeatureCollection","features":[{"type":"Feature","properties":{"gml_id":"vwRatingUnit.105241","RatingUnitID":105241,"ValuationVisitOrder":"23400","drvRatingUnitLocation":null,"StreetAddressID":93961,"OccupationLevelDescription":"Ground Floor and Above","StreetAddress":"43 Sparks Road","LocalityName":"Hoon Hay","ValuationRollNumber":"22951"},"geometry":{"type":"MultiPolygon","coordinates":[[[[172.610863280075,-43.5635129139303],[172.61106207448,-43.5638919023639],[172.610854988885,-43.5639492857212],[172.610656207836,-43.5635703149711],[172.610863280075,-43.5635129139303]]]]}}]}