{"type":"FeatureCollection","features":[{"type":"Feature","properties":{"gml_id":"vwRatingUnit.117510","RatingUnitID":117510,"ValuationVisitOrder":"32600","drvRatingUnitLocation":null,"StreetAddressID":15037,"OccupationLevelDescription":"Ground Floor and Above","StreetAddress":"17 Cunningham Place","LocalityName":"Oaklands","ValuationRollNumber":"23443"},"geometry":{"type":"MultiPolygon","coordinates":[[[[172.567053424147,-43.572838318819],[172.56705524885,-43.5728354436198],[172.567057190254,-43.572832384435095],[172.567060478348,-43.5728272034243],[172.567063450108,-43.572822520521996],[172.567081396337,-43.5727942416002],[172.567082229298,-43.5727929287792],[172.567086625831,-43.57278600114359],[172.567088489143,-43.572783064864694],[172.567091855323,-43.5727777606867],[172.567094748987,-43.5727732009499],[172.567112773276,-43.5727447991167],[172.567113528504,-43.5727436092032],[172.567118002761,-43.5727365586586],[172.567119787982,-43.5727337452856],[172.56712323224497,-43.5727283182002],[172.567126047815,-43.572723881368994],[172.567144150164,-43.5726953566243],[172.567144827303,-43.572694289617],[172.567149379641,-43.5726871161647],[172.56715108712797,-43.572684425698995],[172.56715460911596,-43.5726788757049],[172.567157346951,-43.5726745617806],[172.56717552700397,-43.5726459138631],[172.56717612605098,-43.5726449700221],[172.56718075647,-43.572637673662],[172.567182385866,-43.5726351061023],[172.567185985937,-43.5726294332006],[172.567188645679,-43.5726252421821],[172.567191470278,-43.57262079108789],[172.567193036044,-43.5726183238762],[172.567200488638,-43.5726208249295],[172.56738013246,-43.5726811110883],[172.567380437384,-43.5726812133388],[172.567380128284,-43.572681700039],[172.567230187173,-43.5729179615464],[172.567217881842,-43.5729373508164],[172.567109254298,-43.5729019565288],[172.567087730641,-43.5728503402365],[172.567053424147,-43.572838318819]]]]}}]}