{"type":"FeatureCollection","features":[{"type":"Feature","properties":{"gml_id":"vwRatingUnit.115735","RatingUnitID":115735,"ValuationVisitOrder":"69800","drvRatingUnitLocation":null,"StreetAddressID":32526,"OccupationLevelDescription":"Ground Floor and Above","StreetAddress":"1/20 Oakhampton Street","LocalityName":"Hornby","ValuationRollNumber":"23434"},"geometry":{"type":"MultiPolygon","coordinates":[[[[172.531313399141,-43.5451567426142],[172.531421031318,-43.5452442063048],[172.53126201221298,-43.5453536585091],[172.531184519169,-43.5452886102433],[172.531169975094,-43.545296827282],[172.531139687943,-43.5452706572937],[172.531313399141,-43.5451567426142]]]]}}]}