{"type":"FeatureCollection","features":[{"type":"Feature","properties":{"gml_id":"vwPark.76","ParkID":76,"GreenspaceParkID":31,"ParkName":"Barrington Park","ParkTypeDescription":"Sports Park","Area":57853,"Perimeter":1379},"geometry":{"type":"MultiPolygon","coordinates":[[[[172.615614060875,-43.5541640530202],[172.61559680472,-43.554173882996],[172.61561296447496,-43.55418898310099],[172.615620134483,-43.5541956728065],[172.615623982802,-43.5541992297754],[172.61592522063998,-43.55446837890539],[172.616035450457,-43.55456986037729],[172.617993491458,-43.556321243288],[172.618010324794,-43.5563181623795],[172.618016346101,-43.5563140928757],[172.618097445997,-43.5563872535977],[172.618097884219,-43.5563922487403],[172.618113022109,-43.556404950098695],[172.618214229761,-43.5564950223112],[172.618262293445,-43.5565370352921],[172.618272544035,-43.5565462114453],[172.618281542157,-43.5565546520743],[172.618286293772,-43.556558690379795],[172.618317544962,-43.5565867690162],[172.618322546849,-43.5565909909929],[172.61833980033,-43.5566060413386],[172.618343154326,-43.5566044052153],[172.61893778720898,-43.556252580082095],[172.619869045525,-43.5557014516102],[172.619442116051,-43.5553201067577],[172.619313114672,-43.5552041022569],[172.619184113512,-43.555089097966295],[172.619055112119,-43.5549730935235],[172.618925110616,-43.5548580892745],[172.618796109264,-43.5547430848867],[172.618667108016,-43.5546270805303],[172.618538106644,-43.5545120762005],[172.618419105357,-43.554406072265394],[172.618224103481,-43.5542310656082],[172.618604432926,-43.5540062647574],[172.618610895419,-43.5540029876062],[172.618617828023,-43.5539999630877],[172.61863209889597,-43.5539960486029],[172.618648447638,-43.5539948836884],[172.618659413447,-43.5539960335205],[172.618684104645,-43.5539806949658],[172.618682171768,-43.5539787078513],[172.618662827087,-43.5539613832963],[172.618654687078,-43.5539565460511],[172.61864769299896,-43.5539551081206],[172.618631740128,-43.5539553383262],[172.618619262185,-43.553959824429],[172.618602085552,-43.5539691053189],[172.618579246925,-43.5539837605948],[172.618551547088,-43.5539585458596],[172.618572134755,-43.5539462466947],[172.618585494358,-43.5539366183019],[172.618592936515,-43.5539280450678],[172.618595223585,-43.5539167679564],[172.618595284055,-43.5539070955774],[172.618592382447,-43.5538984881327],[172.618579167317,-43.553885010287395],[172.61855988020497,-43.5538973059012],[172.618557465954,-43.5538986331679],[172.618557897608,-43.5539077689357],[172.618555258017,-43.5539182370581],[172.618549603061,-43.5539280560793],[172.618541170038,-43.5539367677764],[172.61853304073998,-43.5539424563841],[172.61815310276097,-43.5541670632483],[172.618011101186,-43.5540410583849],[172.61788509997697,-43.5539280542586],[172.61775909861,-43.5538160499836],[172.617634097346,-43.5537040457719],[172.617508096208,-43.5535910415726],[172.617382094905,-43.5534790372247],[172.617256093373,-43.5533660330963],[172.617139092228,-43.553262029092],[172.616690083004,-43.5535280361307],[172.616497079235,-43.55364203909329],[172.616092070746,-43.5538820454717],[172.615614060875,-43.5541640530202]]],[[[172.618803463328,-43.5538885901894],[172.618766832131,-43.553855849178],[172.618669390396,-43.5537687566975],[172.618665392804,-43.5537651837112],[172.618673152615,-43.5537710329925],[172.618685118739,-43.55377715687499],[172.618687070654,-43.5537777515359],[172.61869861947,-43.5537812699412],[172.61871302519,-43.5537831897288],[172.618727655385,-43.5537828149607],[172.618741829822,-43.5537801706787],[172.618748550653,-43.553778032756796],[172.618759095606,-43.5537730574941],[172.618760826398,-43.5537722408809],[172.619094307018,-43.5535748048095],[172.619291944819,-43.5534577727719],[172.619649941834,-43.5532457987699],[172.619658083553,-43.5532400921912],[172.6196665034,-43.5532313892069],[172.619669330935,-43.5532264796694],[172.61967215847,-43.5532215701318],[172.619674797897,-43.5532110928865],[172.619674930102,-43.5532057650957],[172.619672842309,-43.5531952272946],[172.61966768228598,-43.5531852553293],[172.619659902889,-43.5531765259481],[172.619717223237,-43.5532277066691],[172.619762186258,-43.5532678562392],[172.619797975149,-43.553299814292394],[172.619776786646,-43.5533123579964],[172.619493949601,-43.5534797981321],[172.618803463328,-43.5538885901894]]]]}}]}