{"type":"FeatureCollection","features":[{"type":"Feature","properties":{"gml_id":"vwPark.1788","ParkID":1788,"GreenspaceParkID":null,"ParkName":"Dixon Reserve","ParkTypeDescription":"Local/Community Park","Area":7671,"Perimeter":555},"geometry":{"type":"MultiPolygon","coordinates":[[[[172.69645660146497,-43.50130007051439],[172.696445000662,-43.501271925140195],[172.696455442566,-43.501167241601],[172.696465632665,-43.5011131075853],[172.696478563581,-43.501006625247],[172.696488861529,-43.500930827143],[172.696546128012,-43.5008858442084],[172.696530618036,-43.5008321936306],[172.696586808642,-43.5008268575022],[172.696668486917,-43.500831928147896],[172.696761468976,-43.5008290604898],[172.698520153258,-43.5006914947976],[172.699350458467,-43.5006241252951],[172.69933955786,-43.5006643459816],[172.69935310679,-43.5007409211186],[172.699249873419,-43.5007551235843],[172.69907823962598,-43.500775042908],[172.698996656548,-43.5007898842755],[172.698746948943,-43.5008529923206],[172.698496063696,-43.500908126477],[172.698293879522,-43.5009554176431],[172.698060090988,-43.5009973119494],[172.697978529301,-43.5010077247323],[172.697960845607,-43.5009787388786],[172.697932547283,-43.500984055161894],[172.697932304685,-43.501006717705394],[172.697920029415,-43.5010288250734],[172.697888289278,-43.5010508812921],[172.6978250724,-43.5010418593055],[172.6977908115,-43.5010106823297],[172.69774680392197,-43.5010189497653],[172.697754468378,-43.5010505295608],[172.697717826812,-43.50107965752619],[172.697659326767,-43.5011007577356],[172.697555818537,-43.501120853938],[172.697302506767,-43.50117420795889],[172.697057723654,-43.5012249271447],[172.696851847966,-43.5012801763341],[172.69667649167,-43.5013142516423],[172.696529239524,-43.5013236044917],[172.69645660146497,-43.50130007051439]]]]}}]}