{"type":"FeatureCollection","features":[{"type":"Feature","properties":{"gml_id":"vwPark.1460","ParkID":1460,"GreenspaceParkID":1861,"ParkName":"Pavilion Park","ParkTypeDescription":"Local/Community Park","Area":8377,"Perimeter":393},"geometry":{"type":"MultiPolygon","coordinates":[[[[172.592871954748,-43.5492805016184],[172.59287908079565,-43.549277123378324],[172.59288634738547,-43.54927405911075],[172.59289374069337,-43.549271314645004],[172.59290124665128,-43.54926889520538],[172.59290885096922,-43.54926680539392],[172.5929165392008,-43.5492650491886],[172.592924296692,-43.5492636299269],[172.59293497097678,-43.54926320641809],[172.59294565346863,-43.549263271441305],[172.592956321816,-43.54926382486155],[172.59296695369264,-43.54926486552176],[172.59297752685595,-43.549266391239144],[172.59298801920522,-43.54926839882884],[172.592998408781,-43.5492708840902],[172.593038124813,-43.5492875062657],[172.59319174953498,-43.5494189048986],[172.59334670828,-43.5495563014289],[172.593473671119,-43.549670124778395],[172.593516248561,-43.5497088310178],[172.593542204037,-43.5497431813606],[172.59354668897865,-43.549751500404504],[172.5935505931884,-43.54976010728751],[172.59355389829574,-43.549768961527654],[172.59355658875572,-43.549778021477316],[172.5935586519117,-43.54978724452484],[172.59356007807216,-43.549796587294615],[172.59356086051048,-43.549806005839855],[172.5935609955559,-43.54981545586639],[172.593560482581,-43.5498248929281],[172.59355724600752,-43.54983240948966],[172.59355353615317,-43.54983970409011],[172.5935493681827,-43.549846746966054],[172.59354475908182,-43.54985350938658],[172.59353972765527,-43.54985996375944],[172.59353429443576,-43.549866083751105],[172.59352848158954,-43.54987184439232],[172.5935223128399,-43.54987722218355],[172.59351581334198,-43.5498821951785],[172.59303084140296,-43.550149173682996],[172.592876766665,-43.5502338832412],[172.592754885133,-43.5502941636306],[172.59273510584168,-43.550304100172106],[172.59271518505193,-43.55031374988903],[172.59269512691387,-43.55032311076683],[172.59267493560762,-43.550332180846446],[172.59265461536052,-43.55034095823612],[172.59263417040347,-43.55034944110597],[172.59261360502597,-43.5503576276837],[172.59260888688004,-43.55035962960584],[172.5926040408558,-43.55036129833751],[172.5925990904579,-43.55036262578505],[172.59259405967893,-43.55036360550911],[172.59258897291872,-43.55036423276214],[172.5925838548355,-43.55036450450461],[172.59257873025487,-43.5503644194141],[172.59257362401692,-43.550363977907175],[172.59256856088174,-43.55036318212114],[172.5925635654057,-43.55036203591953],[172.59255866180314,-43.55036054485571],[172.59255387385198,-43.55035871616018],[172.5925492247697,-43.55035655870051],[172.5925447370973,-43.55035408293951],[172.59254043258625,-43.55035130087708],[172.59253633212938,-43.55034822600657],[172.592532455594,-43.5503448732378],[172.59252712829036,-43.55034076756227],[172.59252184626163,-43.55033660379376],[172.59251661015145,-43.5503323824323],[172.59251142058199,-43.550328103981876],[172.5925062781716,-43.550323768955415],[172.59250118354973,-43.5503193778767],[172.592496137316,-43.5503149312685],[172.592000832806,-43.5498703728743],[172.59199810397692,-43.5498674550452],[172.59199559012993,-43.54986435006867],[172.5919933040859,-43.54986107375043],[172.59199125746812,-43.54985764277079],[172.59198946069952,-43.54985407459388],[172.59198792292588,-43.54985038738413],[172.59198665196888,-43.54984659991168],[172.5919856543114,-43.54984273145782],[172.59198493501387,-43.54983880171311],[172.59198449776156,-43.54983483068263],[172.591984344757,-43.5498308385829],[172.59198549747086,-43.54982678231119],[172.5919869364697,-43.54982281855518],[172.59198865444338,-43.549818967492676],[172.5919906426279,-43.549815248728905],[172.59199289091336,-43.54981168119229],[172.59199538785467,-43.549808283047234],[172.59199812073345,-43.54980507158869],[172.59200107563808,-43.54980206316758],[172.59200423753276,-43.54979927309613],[172.5920075903268,-43.54979671557868],[172.592011116939,-43.5497944036346],[172.592079984515,-43.549753291635895],[172.592117954532,-43.5497869451122],[172.592263225979,-43.549700311104694],[172.592237858981,-43.54967313101589],[172.59224005596496,-43.5496623209656],[172.592251749382,-43.5496612033],[172.59228626094,-43.5496865739473],[172.592453975921,-43.5495865549129],[172.592428267763,-43.5495567404646],[172.592431514133,-43.5495478658779],[172.592445865934,-43.5495463712467],[172.592477697916,-43.549572407943096],[172.592647671238,-43.5494710414516],[172.592620256408,-43.5494422869443],[172.592622984481,-43.549431478764795],[172.59263626359999,-43.5494315257208],[172.592669549346,-43.5494579940258],[172.592841357806,-43.5493555324453],[172.592803088246,-43.5493216138278],[172.592871954748,-43.5492805016184]]]]}}]}