{"type":"FeatureCollection","features":[{"type":"Feature","properties":{"gml_id":"vwPark.1855","ParkID":1855,"GreenspaceParkID":null,"ParkName":"Glen Kerran Drainage Reserve","ParkTypeDescription":"Local/Community Park","Area":9310,"Perimeter":859},"geometry":{"type":"MultiPolygon","coordinates":[[[[172.526968354794,-43.5237218867803],[172.526819012568,-43.5237411412078],[172.526782346879,-43.5237458685822],[172.526727165801,-43.5237529830436],[172.526663823109,-43.5237611495868],[172.52648833170497,-43.5237840157184],[172.526517661906,-43.5236632113963],[172.526542774311,-43.5235597788914],[172.52655516512098,-43.523505622084],[172.52656755591,-43.5234514652746],[172.526577261157,-43.52334964453999],[172.52657322679,-43.5232423073772],[172.526566467972,-43.5231289158524],[172.526546645564,-43.5230094432703],[172.526522167106,-43.5228774277772],[172.5265242895,-43.5227480091934],[172.526483107975,-43.5225518163652],[172.526507127959,-43.52251034825099],[172.526484327341,-43.522503355079294],[172.5264806179548,-43.522502298034155],[172.52647699351292,-43.52250097886281],[172.52647347249874,-43.52249940429827],[172.52647007287302,-43.52249758237121],[172.52646681199982,-43.5224955223839],[172.52646370651925,-43.52249323484647],[172.52646077227834,-43.52249073143684],[172.526458024251,-43.522488024929764],[172.52645547645443,-43.52248512913684],[172.52645314190886,-43.522482058839365],[172.526451032519,-43.5224788297057],[172.52644993348804,-43.5224758083496],[172.52644905296984,-43.52247271624037],[172.5264483954597,-43.522469569159504],[172.5264479643083,-43.522466383165],[172.52644776171653,-43.522463174520446],[172.52644778872488,-43.52245995959856],[172.52644804518056,-43.52245675480844],[172.52644852979572,-43.52245357650644],[172.5264492400711,-43.52245044091069],[172.52645017240866,-43.52244736402831],[172.526451322036,-43.5224443615616],[172.526209862976,-43.52237022344929],[172.526341742386,-43.5221425392839],[172.526431707695,-43.5219872207464],[172.52659412877,-43.5220371166143],[172.526669535048,-43.5222520995385],[172.52667313196434,-43.522260190968154],[172.52667721135003,-43.52226805021019],[172.52668175828873,-43.522275648530915],[172.52668675614402,-43.52228295814528],[172.52669218665324,-43.52228995232871],[172.5266980299566,-43.52229660550983],[172.526704264695,-43.5223028933649],[172.52671188442034,-43.52230955807497],[172.52671989360894,-43.522315749307374],[172.52672826289924,-43.52232144435583],[172.52673696158305,-43.522326622331086],[172.5267459577553,-43.52233126424289],[172.52675521843045,-43.52233535306365],[172.526764709629,-43.5223388737989],[172.5267750023777,-43.52234292027434],[172.52678552121142,-43.522346336261755],[172.52679622753928,-43.522349109236515],[172.5268070820966,-43.52235122902128],[172.52681804505482,-43.52235268784352],[172.52682907621784,-43.52235348035548],[172.526840135138,-43.5223536036486],[172.527017312473,-43.5223601167681],[172.527173060841,-43.522359310818],[172.527324974473,-43.5223474841354],[172.527473102683,-43.5223250845215],[172.527619250472,-43.5222969741947],[172.52776539848,-43.5222688636844],[172.527837671221,-43.522252460590494],[172.52790994392197,-43.5222360574515],[172.528053349505,-43.5222001475927],[172.528195202192,-43.5221598554301],[172.528332100335,-43.5221054527625],[172.528477405563,-43.5220307999557],[172.52848776425,-43.5219861597797],[172.528465581379,-43.5219438588426],[172.528299271318,-43.521891438854],[172.52830323994564,-43.521886464863165],[172.52830693815847,-43.52188128666602],[172.52831035549022,-43.521875918948346],[172.5283134822457,-43.52187037692965],[172.52831630954822,-43.52186467632781],[172.52831882939788,-43.52185883330272],[172.528321034633,-43.5218528644272],[172.52832189164474,-43.52184893440428],[172.5283226080246,-43.521844976326975],[172.52832318283615,-43.52184099523037],[172.52832361535545,-43.521836996169434],[172.5283239050368,-43.52183298423006],[172.52832405150548,-43.52182896451634],[172.52832405458597,-43.52182494213619],[172.52832386572118,-43.521822960799916],[172.5283236420255,-43.521820983096404],[172.52832338355796,-43.52181900963841],[172.5283230903951,-43.521817041031674],[172.52832276263143,-43.52181507788737],[172.52832240036514,-43.52181312081848],[172.528322003719,-43.521811170427796],[172.528318829779,-43.5217976854852],[172.528316825054,-43.5217891687744],[172.528312857455,-43.52177231253],[172.528310560517,-43.52176255376139],[172.528308681337,-43.5217545691022],[172.528602566977,-43.5217176611276],[172.5286024446759,-43.52171920162609],[172.5286023212138,-43.52172074203007],[172.52860219661665,-43.52172228234303],[172.5286020708663,-43.52172382256321],[172.52860194396996,-43.521725362688805],[172.52860181592402,-43.52172690271973],[172.528601686728,-43.5217284426529],[172.52860159287226,-43.52172953352038],[172.52860149843397,-43.52173062433757],[172.52860140342815,-43.52173171510548],[172.52860130783662,-43.52173280582246],[172.52860121167393,-43.52173389649032],[172.5286011149364,-43.52173498710527],[172.528601017617,-43.52173607766849],[172.52860078180674,-43.52173863101967],[172.5286005428461,-43.521741184076745],[172.52860030072767,-43.521743736839184],[172.52860005545514,-43.52174628929969],[172.52859980702124,-43.52174884145279],[172.5285995554295,-43.52175139329852],[172.52859930069596,-43.5217539448311],[172.528599078301,-43.5217560989188],[172.5285985509836,-43.52176097161829],[172.52859801218074,-43.521765843059256],[172.52859746187457,-43.52177071321784],[172.52859690007605,-43.5217755820613],[172.5285963267852,-43.521780449564176],[172.52859574199826,-43.521785315700996],[172.528595145744,-43.5217901804462],[172.52859259450196,-43.52181025559129],[172.528589177629,-43.5218371422986],[172.528561866794,-43.5220520561819],[172.528554373074,-43.52211102763139],[172.528524453676,-43.5223464647614],[172.5285233312752,-43.522350520919666],[172.5285219225225,-43.522354486724],[172.5285202345767,-43.52235834198836],[172.52851827603442,-43.52236206708039],[172.52851605686007,-43.52236564304075],[172.52851358836773,-43.52236905166682],[172.52851088310123,-43.52237227560362],[172.5285079548557,-43.52237529844205],[172.5285048185142,-43.52237810478982],[172.52850149005099,-43.52238068036606],[172.528497986428,-43.5223830120586],[172.5284936445605,-43.522385847138345],[172.5284891115989,-43.52238836541437],[172.52848441062085,-43.52239055406607],[172.52847956553885,-43.52239240195012],[172.52847460102927,-43.52239389966052],[172.5284695423688,-43.52239503957206],[172.52846441529977,-43.522395815884],[172.52845924593564,-43.522396224643664],[172.5284540605753,-43.52239626376649],[172.52844888561958,-43.522395933059876],[172.528443747426,-43.5223952342047],[172.52833719174197,-43.5223880542675],[172.52831683275872,-43.52238647602646],[172.52829645273232,-43.522385198139084],[172.52827605607305,-43.52238422088157],[172.52825564722295,-43.52238354446671],[172.52823523061306,-43.52238316903822],[172.52821481068528,-43.52238309468341],[172.528194391886,-43.5223833214156],[172.52817397829494,-43.5223832764114],[172.52815356626886,-43.522383532399544],[172.5281331602309,-43.52238408932316],[172.52811276462305,-43.52238494705852],[172.52809238386908,-43.52238610542008],[172.5280720224182,-43.522387564156865],[172.52805168469,-43.5223893229534],[172.52803143320486,-43.52239080738953],[172.5280112058208,-43.522392590261006],[172.5279910069148,-43.52239467117942],[172.52797084089246,-43.522397049688145],[172.52795071211946,-43.52239972527423],[172.52793062498677,-43.522402697353826],[172.527910583867,-43.5224059652845],[172.52789071033473,-43.522408967657775],[172.52787088323748,-43.52241226272963],[172.52785110687543,-43.522415849782185],[172.52783138555236,-43.52241972803493],[172.52781172354662,-43.52242389664025],[172.52779212514724,-43.52242835469968],[172.527772594617,-43.5224331012414],[172.52749305822996,-43.5224994783919],[172.527245167577,-43.5225583692548],[172.526784193161,-43.522667880512],[172.526799872865,-43.5227749227468],[172.52680254891305,-43.522791658391704],[172.52680534995667,-43.52280837356738],[172.52680827587025,-43.522825067340804],[172.52681132646828,-43.52284173877887],[172.5268145015834,-43.52285838695024],[172.5268178010519,-43.5228750109254],[172.526821224667,-43.5228916097749],[172.5268250958834,-43.522908220631514],[172.52682909106443,-43.522924802113266],[172.52683320996582,-43.52294135329611],[172.5268374523657,-43.52295787325419],[172.5268418180167,-43.52297436106346],[172.52684630668955,-43.5229908158126],[172.526850918139,-43.5230072365776],[172.5268526734653,-43.523013804973736],[172.5268543304446,-43.523020398863075],[172.52685588871097,-43.523027016777625],[172.52685734791882,-43.52303365723491],[172.52685870774073,-43.523040318756095],[172.52685996787474,-43.523046999851424],[172.52686112803,-43.5230536990302],[172.52686192829424,-43.523060384777665],[172.52686262857242,-43.52306708173819],[172.5268632287043,-43.5230737884176],[172.5268637285553,-43.52308050331157],[172.52686412800904,-43.52308722492489],[172.5268644269745,-43.52309395175692],[172.526864625407,-43.523100682307],[172.5268647904886,-43.52311354191442],[172.52686502904902,-43.523126400368696],[172.5268653410894,-43.52313925724956],[172.5268657265842,-43.523152112138625],[172.52686618552613,-43.52316496461389],[172.5268667179043,-43.52317781425699],[172.526867323699,-43.5231906606467],[172.526868855959,-43.52321140727688],[172.5268705794842,-43.52323213889212],[172.52687249414154,-43.523252853730796],[172.5268745997673,-43.523273550030346],[172.5268768961723,-43.52329422602815],[172.52687938317828,-43.52331487996887],[172.526882060558,-43.5233355100935],[172.52688569597373,-43.523357652196836],[172.5268895500885,-43.52337975727823],[172.5268936225402,-43.52340182317857],[172.52689791292502,-43.52342384774419],[172.52690242082096,-43.5234458288196],[172.52690714580237,-43.52346776425835],[172.526912087385,-43.5234896519153],[172.526951273294,-43.52365138577469],[172.526968354794,-43.5237218867803]]]]}}]}