{"type":"FeatureCollection","features":[{"type":"Feature","properties":{"gml_id":"vwPark.84","ParkID":84,"GreenspaceParkID":39,"ParkName":"Bickerton Reserve","ParkTypeDescription":"Local/Community Park","Area":5373,"Perimeter":527},"geometry":{"type":"MultiPolygon","coordinates":[[[[172.686349567758,-43.5169744273233],[172.686389546291,-43.5169736271733],[172.686440734742,-43.51697922122819],[172.686489387439,-43.51699208112599],[172.68652802799,-43.5170085501195],[172.686550401126,-43.5170304293755],[172.686555295042,-43.5170504428302],[172.686553914993,-43.517075893777296],[172.686546326406,-43.517094055042],[172.686518657357,-43.5171303435448],[172.686242072664,-43.51747231927269],[172.686227420724,-43.5174688006281],[172.68565463728,-43.5172273682553],[172.685566625372,-43.5173378367294],[172.685478625564,-43.517448305169],[172.685390625484,-43.5175587646456],[172.685298803246,-43.5176740198209],[172.685314546949,-43.5176742249483],[172.685875386604,-43.51791067584689],[172.68585647706098,-43.5179344130446],[172.685384358834,-43.517735368722896],[172.68528685547,-43.5178034445462],[172.68513366751696,-43.51791039528759],[172.685014416327,-43.5179936496143],[172.68501248220798,-43.5177000768182],[172.685012277085,-43.5176703468051],[172.685009449183,-43.5172433627743],[172.68501168787697,-43.5172135022847],[172.68563552957,-43.5171188437199],[172.686349567758,-43.5169744273233]]]]}}]}