{"type":"FeatureCollection","features":[{"type":"Feature","properties":{"gml_id":"vwPark.290","ParkID":290,"GreenspaceParkID":1234,"ParkName":"Little Hagley Park","ParkTypeDescription":"Garden & Heritage Park","Area":69182,"Perimeter":2272},"geometry":{"type":"MultiPolygon","coordinates":[[[[172.619512209423,-43.5224531123921],[172.619601414174,-43.522440242832296],[172.619747210875,-43.5224305806424],[172.619839719915,-43.5224308861455],[172.61999302997998,-43.5224289094975],[172.620003445697,-43.5224285784391],[172.620064348962,-43.522427105321796],[172.620207811567,-43.52242440119699],[172.620408100668,-43.5224193914162],[172.620472499554,-43.5224186854437],[172.620536904306,-43.5224189879278],[172.620579821271,-43.5224196694773],[172.620651378659,-43.5224214083714],[172.620722909633,-43.52242348918309],[172.620819303685,-43.522427335054196],[172.620851433436,-43.5224282237355],[172.620869318804,-43.5224283366971],[172.620887193908,-43.5224280896388],[172.620922961468,-43.5224267581223],[172.62099448113096,-43.5224226732659],[172.621051946091,-43.5224190731131],[172.621109280014,-43.5224147164055],[172.621127957359,-43.5224127437701],[172.621146515089,-43.5224101316051],[172.621183450091,-43.5224041144493],[172.62120816145,-43.522400460506],[172.621222371578,-43.5223988152067],[172.62123873182597,-43.5223975367027],[172.62128151473,-43.5223958772681],[172.621324290554,-43.5223954149663],[172.62135281258696,-43.5223956348343],[172.621596031513,-43.5223991526924],[172.621638873196,-43.5224000495897],[172.62168165925698,-43.522401909276],[172.621710095328,-43.5224040100431],[172.621812117984,-43.5224137780826],[172.621938917079,-43.5224254093765],[172.62206782143298,-43.5224346265859],[172.62221186992,-43.5224432448559],[172.622217259029,-43.522443838772794],[172.622222534603,-43.522444828168396],[172.622232820618,-43.5224476882431],[172.622252837193,-43.5224551435837],[172.622266291484,-43.5224596699735],[172.622274196368,-43.522461514019],[172.622283540888,-43.52246257992099],[172.622382488626,-43.5224656136052],[172.622526008908,-43.5224715838066],[172.622579310375,-43.5224731896479],[172.622632667285,-43.5224738596898],[172.622668217063,-43.5224737781516],[172.622684063841,-43.5224734521698],[172.622699888506,-43.5224727747074],[172.622731493005,-43.52247058322039],[172.622752520267,-43.5224686629876],[172.622813961114,-43.5224622125323],[172.622847112355,-43.5224579197244],[172.622868880904,-43.5224541297261],[172.62288115514096,-43.5224514878621],[172.622991747085,-43.522425702545],[172.623043279255,-43.52240941784],[172.623052863871,-43.5224056778449],[172.623061773459,-43.5224010625822],[172.623078757874,-43.5223907943375],[172.623090424124,-43.5223844599182],[172.62309868302899,-43.5223810396941],[172.62312506892798,-43.5223726743926],[172.623136537501,-43.5223683284563],[172.623142753261,-43.5223652615243],[172.623155590403,-43.5223575897662],[172.623167479142,-43.522349293964],[172.623174875168,-43.5223434318614],[172.623184053931,-43.52233525298669],[172.623195084274,-43.5223237321974],[172.62320075487196,-43.522316865070295],[172.623206642942,-43.522308792645795],[172.623212614146,-43.5222992893974],[172.623218422407,-43.5222881203356],[172.623231002852,-43.5222599619548],[172.623242544288,-43.5222317372727],[172.623249612679,-43.522212822686996],[172.623258193143,-43.5221874143768],[172.6232774533,-43.5221251379228],[172.623295594021,-43.5220739016199],[172.623327626163,-43.5219683909822],[172.623355666911,-43.5218642892744],[172.623358666106,-43.5218513469669],[172.623365141611,-43.5218122326432],[172.623368860606,-43.5217948821803],[172.623372150237,-43.52178493817039],[172.623376737021,-43.5217753043246],[172.623380498432,-43.5217690700753],[172.62338637428098,-43.5217609976012],[172.623395652621,-43.5217507308724],[172.623401686106,-43.5217451252534],[172.62340919531098,-43.5217389661624],[172.623418562599,-43.521732282141],[172.623433921846,-43.5217227825575],[172.62344969505799,-43.5217143824699],[172.623460462401,-43.5217093321761],[172.623475169912,-43.5217032239151],[172.623495487023,-43.5216960626255],[172.62355351542,-43.5216792227083],[172.623599706631,-43.5216664036849],[172.623635773362,-43.5216566206295],[172.623672023478,-43.5216472163398],[172.623687951713,-43.5216436680535],[172.623704111824,-43.5216406876588],[172.62373671207496,-43.5216354207134],[172.623758356858,-43.5216316031139],[172.623787978794,-43.52162589444059],[172.62381728299,-43.5216195814571],[172.623836498953,-43.5216144869981],[172.623847330266,-43.5216111018975],[172.623859528625,-43.5216067135692],[172.62387346966497,-43.5216005304971],[172.62388627811,-43.5215934166038],[172.623894312859,-43.5215882674115],[172.62390457435697,-43.5215810193963],[172.623917711171,-43.521570873356],[172.623956345431,-43.5215398567176],[172.623976838311,-43.521522246006995],[172.62398993833,-43.5215100116756],[172.624010647965,-43.5214892785198],[172.62401692629197,-43.5214821253507],[172.624024334272,-43.5214722667692],[172.624027944875,-43.5214664369553],[172.62403138874,-43.5214595536781],[172.624068101598,-43.521375065806],[172.624102428096,-43.5212929963735],[172.624104577971,-43.5212867431324],[172.624106549305,-43.5212799538128],[172.624109256553,-43.5212661915377],[172.624113909646,-43.5212196454284],[172.624115755943,-43.52120909367999],[172.62412011115197,-43.5211887928871],[172.624124997683,-43.5211685751823],[172.624128952086,-43.5211551769617],[172.624135517664,-43.5211374575901],[172.624144655776,-43.5211178027072],[172.62415510239197,-43.521098584075496],[172.624162700342,-43.5210859988092],[172.62417353866,-43.5210694637849],[172.624189059061,-43.5210477953734],[172.624236838163,-43.5209838927654],[172.624324570384,-43.5209338193827],[172.62434859872099,-43.5209204866601],[172.624373462969,-43.5209080026857],[172.624390727391,-43.5209004172339],[172.624410836802,-43.520892760227596],[172.62447243908096,-43.5208718724101],[172.624528915727,-43.5208597613116],[172.624625699552,-43.5208622911581],[172.625296594577,-43.5209640258054],[172.625381451185,-43.5209879918922],[172.625451703352,-43.5210301195005],[172.625482385099,-43.5210511911356],[172.622551354516,-43.5228470995143],[172.62236987930297,-43.522949725777295],[172.622178324374,-43.5230421385635],[172.62197767019597,-43.5231236572038],[172.62176907083,-43.523193835528],[172.621553728111,-43.5232522452031],[172.621332893996,-43.5232985573565],[172.621291586046,-43.5232996365977],[172.62109344422,-43.5233089935234],[172.620895361112,-43.523322049885195],[172.620698357794,-43.52334004962909],[172.613587235728,-43.5240490425848],[172.61335458786,-43.5239685333852],[172.613437086686,-43.5239636349461],[172.61348023989498,-43.523960404549996],[172.613560815324,-43.5239525562769],[172.61359816297897,-43.5239480371817],[172.613622925274,-43.5239444117992],[172.613751384135,-43.5239227369495],[172.613826692,-43.5239107033274],[172.613833962305,-43.5239092425518],[172.613841149804,-43.5239071514616],[172.613845614369,-43.5239053483228],[172.613850803634,-43.5239023683755],[172.613853228599,-43.5239003424058],[172.613855409853,-43.5238977126137],[172.61387058395,-43.523872876027696],[172.613908831102,-43.5238063353181],[172.61391511773198,-43.5237961224668],[172.61393568071,-43.5237660476611],[172.61394441355,-43.523752368713495],[172.61394768033696,-43.5237463490962],[172.613950428099,-43.5237402198734],[172.613954712589,-43.5237277590513],[172.613959512492,-43.5237081353728],[172.613961239525,-43.5236971332013],[172.613961706004,-43.5236859646157],[172.613961407129,-43.5236785019453],[172.613960369021,-43.5236685886476],[172.613958088579,-43.5236555748052],[172.613956541495,-43.523651807334],[172.613953917372,-43.523648225210394],[172.613947566029,-43.5236413002859],[172.613944268479,-43.5236366086619],[172.613943308885,-43.5236338152462],[172.61394213965,-43.5236231183816],[172.613942556954,-43.52361193169659],[172.61394385355698,-43.5236044294102],[172.6139470448,-43.5235946563525],[172.613949688602,-43.523589318745],[172.61395351045,-43.5235835258158],[172.61396441025298,-43.523569467117],[172.613975717245,-43.5235556348697],[172.614012831335,-43.5235117362854],[172.614060479413,-43.5234783769855],[172.61406373256696,-43.5234764257842],[172.614067280208,-43.5234748443907],[172.614075099517,-43.5234725843794],[172.614103886528,-43.5234681533904],[172.614110093874,-43.5234665632358],[172.614128676732,-43.5234600818714],[172.614146511063,-43.5234526170726],[172.614149527023,-43.5234510068636],[172.614152223281,-43.5234491166932],[172.614156865339,-43.5234446588355],[172.614169787382,-43.5234276817997],[172.614173247239,-43.523424336059],[172.614177918012,-43.5234212103661],[172.614180808333,-43.5234199238505],[172.614184241051,-43.5234188912709],[172.614199882424,-43.52341596452639],[172.614215652751,-43.52341410906579],[172.61422622129896,-43.523413325482],[172.614325471651,-43.52340971558209],[172.614402112316,-43.5234059038181],[172.61442763463398,-43.523405242293],[172.614433917591,-43.5234053623615],[172.614440124034,-43.52340583332],[172.614452395144,-43.5234076745903],[172.614460473555,-43.52340945659459],[172.614471117762,-43.52341235469169],[172.614565027552,-43.5234435237348],[172.614617242955,-43.5234604760987],[172.614717382425,-43.523490441922995],[172.614729398314,-43.5234935603163],[172.61476656992897,-43.5235011284281],[172.614782600248,-43.5235051605965],[172.614791351711,-43.5235080609082],[172.61480085056797,-43.5235121252842],[172.61482088794196,-43.5235220842013],[172.614932701439,-43.5235780022505],[172.614987679767,-43.5236060704123],[172.615006611753,-43.5236147746243],[172.615025969399,-43.5236227059667],[172.61508535250798,-43.523644695598996],[172.615187528172,-43.5236833175567],[172.615197515493,-43.5236864561517],[172.615207990809,-43.5236886783536],[172.615215183057,-43.5236897285381],[172.615224936594,-43.5236906882539],[172.615238093601,-43.5236913443243],[172.615255520803,-43.5236915556511],[172.615273829506,-43.5236912656838],[172.61532879123297,-43.5236887131879],[172.615353212982,-43.52368802048839],[172.615367671554,-43.5236882309777],[172.61541104831,-43.5236906800304],[172.615430329958,-43.5236910773869],[172.61544134109198,-43.5236906912814],[172.615449608754,-43.5236899446056],[172.615457755309,-43.5236887478701],[172.615473758596,-43.5236852999903],[172.615498109081,-43.5236782346634],[172.615508447324,-43.5236747228947],[172.615538430329,-43.5236630768963],[172.615552004018,-43.5236584328172],[172.615560021362,-43.523656200397895],[172.615641179844,-43.5236362103898],[172.615812931462,-43.5235947679483],[172.615945497534,-43.5235610161997],[172.616043624055,-43.52353560114139],[172.61605690939,-43.5235315860779],[172.616069803269,-43.5235268856088],[172.616095100894,-43.5235166999054],[172.61611221046,-43.5235103934323],[172.616117824061,-43.5235088100274],[172.616135349362,-43.5235052319747],[172.616142945278,-43.5235030971381],[172.616156534615,-43.5234979399665],[172.616169572441,-43.523491988991],[172.616177763941,-43.52348756082039],[172.616187886251,-43.5234810600182],[172.616193180931,-43.5234770273986],[172.616198691432,-43.5234721312778],[172.616204246047,-43.5234661283219],[172.616283036394,-43.5233702802709],[172.61630325104898,-43.523344263258295],[172.616322589525,-43.52331790127289],[172.616326788116,-43.5233111195028],[172.616330098698,-43.523304002081],[172.616335904909,-43.5232894580806],[172.616340614052,-43.523280157866495],[172.61634412112096,-43.5232751921631],[172.61634915154596,-43.5232699523861],[172.616402795871,-43.52322305697529],[172.616433753929,-43.5232038083354],[172.616446472913,-43.5231953808276],[172.616458306152,-43.5231862574319],[172.616465472037,-43.5231797376599],[172.616473916869,-43.5231704589817],[172.616497252613,-43.5231378366918],[172.61651852391697,-43.5231089970953],[172.616540436602,-43.5230804023923],[172.616556188967,-43.5230617242745],[172.61656253864797,-43.5230551477157],[172.61656946772496,-43.52304890629829],[172.6165845456,-43.5230371742626],[172.616726054132,-43.5229382855467],[172.616742672924,-43.5229273958095],[172.616759992695,-43.522917102570894],[172.616814605678,-43.5228872216918],[172.616833887954,-43.52287764584399],[172.616847110846,-43.5228717133428],[172.616865363277,-43.5228645915676],[172.61687615936,-43.5228610001074],[172.616891858796,-43.5228566329986],[172.616907826275,-43.522852923847],[172.616939979962,-43.5228461090101],[172.616961102123,-43.5228409048105],[172.616988399333,-43.522833372029794],[172.617015512537,-43.5228255054183],[172.617033298907,-43.5228197320697],[172.617085057413,-43.5228011645458],[172.61713625153098,-43.52278185722069],[172.617203050633,-43.5227554636878],[172.61721984802696,-43.5227496150257],[172.61723138289898,-43.522746566094],[172.617238120066,-43.5227452743574],[172.617245968229,-43.52274430159189],[172.617260802608,-43.5227437297087],[172.617275704557,-43.5227442294215],[172.617305462536,-43.522746569335],[172.61735718339096,-43.5227517368258],[172.617374507604,-43.5227525504973],[172.617503199858,-43.5227542561239],[172.617602514931,-43.5227539559946],[172.61762354727,-43.5227532068543],[172.617644451105,-43.5227513050762],[172.61765834010498,-43.5227495780549],[172.617772843536,-43.522731722554],[172.617831699154,-43.5227214589191],[172.617859912046,-43.5227157470843],[172.617887845412,-43.5227092691225],[172.617902006548,-43.5227056079013],[172.617915873348,-43.5227015495898],[172.617943019213,-43.5226924318947],[172.61796086033,-43.5226857673339],[172.61798465551297,-43.52267640458629],[172.617993822792,-43.522672231644],[172.61800214092298,-43.5226673356566],[172.618007185744,-43.5226636441749],[172.618013268735,-43.5226581557001],[172.618016226553,-43.5226539442197],[172.61801760366197,-43.5226493584142],[172.618017883404,-43.5226461550993],[172.618017044555,-43.5226280515137],[172.618017924189,-43.5226238510724],[172.618020327041,-43.52261939472919],[172.618029016168,-43.5226085866244],[172.618038322687,-43.5225979783633],[172.618045032233,-43.5225911689936],[172.618054795807,-43.5225825786749],[172.618060873146,-43.5225779905275],[172.61806831289698,-43.5225731007184],[172.618092621182,-43.5225588519326],[172.61814466481,-43.5225302581071],[172.618172412747,-43.5225158408511],[172.61819166777,-43.5225065708689],[172.618203920468,-43.5225014719252],[172.618216650413,-43.522497220849],[172.618225348644,-43.5224948194793],[172.618237190648,-43.5224921044183],[172.618253288566,-43.5224892685716],[172.618275099275,-43.52248666765419],[172.61829557993,-43.5224851334364],[172.618316093074,-43.5224844003834],[172.618329748485,-43.5224844277193],[172.618347901627,-43.52248518993049],[172.618423027656,-43.5224919014943],[172.618448139027,-43.522493595677],[172.618498231937,-43.52249598499879],[172.618548364587,-43.5224979603846],[172.618662662107,-43.5225010301892],[172.618818728485,-43.5225083516075],[172.618876976537,-43.5225101374686],[172.618960228091,-43.5225111062268],[172.61898795192,-43.5225124039888],[172.618994811871,-43.522513173949],[172.619001508001,-43.522514437986494],[172.61901456018597,-43.52251800069959],[172.619040211457,-43.5225263571431],[172.61909301142,-43.5225428865278],[172.619103904827,-43.5225454697432],[172.61911518634298,-43.5225473342746],[172.619122850445,-43.5225481424959],[172.619133138451,-43.5225486625731],[172.619146746702,-43.5225482935442],[172.61915438360498,-43.5225475089091],[172.619162890059,-43.5225460698227],[172.6192006995,-43.522536717053995],[172.61924690359,-43.5225280400058],[172.619261857457,-43.52252416525009],[172.61929974569,-43.5225120854127],[172.619407556058,-43.5224764115443],[172.619420928798,-43.522472225360396],[172.61943449686396,-43.5224683909669],[172.619462134366,-43.5224617135918],[172.61948084754897,-43.5224579590985],[172.619506082458,-43.5224537671446],[172.619512209423,-43.5224531123921]]]]}}]}