{"type":"FeatureCollection","features":[{"type":"Feature","properties":{"gml_id":"vwPark.114","ParkID":114,"GreenspaceParkID":77,"ParkName":"Calbreath Reserve","ParkTypeDescription":"Local/Community Park","Area":2745,"Perimeter":230},"geometry":{"type":"MultiPolygon","coordinates":[[[[172.54251545232,-43.5141540888082],[172.542494357996,-43.5141585903907],[172.542474899538,-43.51416024591979],[172.542476801402,-43.514171228812],[172.542478224056,-43.5141931851227],[172.54247451371796,-43.5142116551188],[172.542462443592,-43.5142335577457],[172.542447632381,-43.5142505394509],[172.54242211714,-43.5142660344406],[172.542399830857,-43.5142743216651],[172.542372801919,-43.5142799905927],[172.54234577514399,-43.5142853706983],[172.542328270521,-43.5142910775198],[172.54230438165,-43.5143013801182],[172.54227887068797,-43.5143162974449],[172.542262478523,-43.514332406361],[172.54225925387,-43.5143390364853],[172.542260060872,-43.5143695816291],[172.54247518773096,-43.5144352536326],[172.542713710938,-43.51450806612],[172.542896101941,-43.5145637421532],[172.543078518039,-43.5146194268871],[172.543178172503,-43.5146498499515],[172.543341331342,-43.514395266799],[172.543354699665,-43.5143824684016],[172.543369639914,-43.5143700456014],[172.543353848784,-43.5143593637735],[172.543341392357,-43.5143477636838],[172.543333824643,-43.51433282959939],[172.54332881252898,-43.5143184645645],[172.543326581291,-43.5143087680829],[172.54332823019698,-43.5142936842985],[172.54333113527,-43.5142817726094],[172.543308119564,-43.5142787004007],[172.54328601727,-43.514275460505],[172.542919770557,-43.5142177762587],[172.54251545232,-43.5141540888082]]]]}}]}