{"type":"FeatureCollection","features":[{"type":"Feature","properties":{"gml_id":"vwPark.1163","ParkID":1163,"GreenspaceParkID":1594,"ParkName":"Police Reserve","ParkTypeDescription":"Local/Community Park","Area":1563,"Perimeter":272},"geometry":{"type":"MultiPolygon","coordinates":[[[[172.6907860167,-43.6037136657578],[172.690824212372,-43.6037507035055],[172.690798761497,-43.6037651946544],[172.6907628833,-43.6037285990578],[172.6904383667,-43.6034510323579],[172.6903128667,-43.6035414490579],[172.6901376667,-43.6034125490578],[172.6906072167,-43.6030550323578],[172.69062305,-43.6030436490579],[172.69062925,-43.60303974905779],[172.6906361,-43.603036482357794],[172.6906434833,-43.6030338990579],[172.6906512667,-43.6030320323579],[172.6906593167,-43.6030309490578],[172.6906675,-43.60303064905789],[172.6906756833,-43.6030311157578],[172.6906836833,-43.6030323823579],[172.6906914,-43.6030343990578],[172.6906986833,-43.60303714905779],[172.6907053833,-43.6030405490579],[172.6907114333,-43.6030445823578],[172.6907166833,-43.6030491657579],[172.6909554167,-43.6032874657579],[172.6909571333,-43.6032891990579],[172.6906728333,-43.60330123235789],[172.6905655333,-43.603305765757895],[172.69050603329998,-43.6034741990578],[172.6907860167,-43.6037136657578]]]]}}]}