{"type":"FeatureCollection","features":[{"type":"Feature","properties":{"gml_id":"vwPark.705","ParkID":705,"GreenspaceParkID":1262,"ParkName":"Heathcote Riverbank Reserve","ParkTypeDescription":"Local/Community Park","Area":4317,"Perimeter":556},"geometry":{"type":"MultiPolygon","coordinates":[[[[172.666093605135,-43.5566699405591],[172.666153323482,-43.5566992055574],[172.666169315943,-43.55670554217159],[172.66622073943498,-43.55663438017119],[172.666369525514,-43.5564708643602],[172.666672816452,-43.5561468151228],[172.666795062676,-43.5560162007392],[172.666869371488,-43.5558815030316],[172.666904143767,-43.5558206190894],[172.66693491722,-43.55566933606809],[172.66693375271,-43.5556083483517],[172.666938540558,-43.55553770832079],[172.666947924329,-43.5554809755245],[172.666936153516,-43.5554428263165],[172.666933420334,-43.5553949021438],[172.666932321217,-43.5553219355404],[172.66693266595797,-43.5552587741624],[172.666929885238,-43.5552195619012],[172.666917959943,-43.5552097264101],[172.666901530718,-43.5552020559251],[172.666883781964,-43.5551754925754],[172.666875659386,-43.5551018468301],[172.666862475577,-43.554979363261594],[172.666680669888,-43.5545146300923],[172.66668088458798,-43.5546704000075],[172.666310925914,-43.5550978896758],[172.66648440022297,-43.5551371399365],[172.666529085961,-43.5551496686684],[172.666562037856,-43.5551644883806],[172.66659495589298,-43.5551855077572],[172.66661507875696,-43.5552080400888],[172.666619038091,-43.5552364371923],[172.66663726582,-43.5553327010585],[172.66664079517,-43.5553345563912],[172.66668079322199,-43.5553345320434],[172.666704923345,-43.5556659492529],[172.66663697828096,-43.5556648393493],[172.666639750611,-43.5558678509055],[172.666634459738,-43.5558797994646],[172.66660761596697,-43.5559404215942],[172.666552171874,-43.5560656323277],[172.66646405692896,-43.5562187361529],[172.666410194626,-43.55629582963779],[172.666355271645,-43.556367059416296],[172.66633963861398,-43.5563861555752],[172.666252451387,-43.556496613193595],[172.66618917788597,-43.55655970345119],[172.666093605135,-43.5566699405591]]]]}}]}