{"type":"FeatureCollection","features":[{"type":"Feature","properties":{"gml_id":"vwPark.108","ParkID":108,"GreenspaceParkID":67,"ParkName":"Buchan Playground","ParkTypeDescription":"Local/Community Park","Area":3320,"Perimeter":251},"geometry":{"type":"MultiPolygon","coordinates":[[[[172.638160133053,-43.5452481682087],[172.638160493508,-43.54536585233319],[172.63763296164396,-43.545366311904],[172.637366480565,-43.545365848959094],[172.637366481054,-43.5452768460781],[172.637366481312,-43.5452328445442],[172.637365482169,-43.5451108406059],[172.637365482331,-43.5451038404408],[172.63761197875297,-43.5451033257186],[172.637611111452,-43.544824417646495],[172.637667593039,-43.5448246882701],[172.637667712028,-43.5448057674094],[172.638118457268,-43.5448071833384],[172.638158952198,-43.54482350142529],[172.638160133053,-43.5452481682087]]]]}}]}