{"type":"FeatureCollection","features":[{"type":"Feature","properties":{"gml_id":"vwPark.333","ParkID":333,"GreenspaceParkID":1197,"ParkName":"New Brighton Beach","ParkTypeDescription":"Regional Park","Area":99621,"Perimeter":2939},"geometry":{"type":"MultiPolygon","coordinates":[[[[172.729500995377,-43.5027569228453],[172.729367425022,-43.5027796470777],[172.729386545764,-43.5028316872801],[172.729616666578,-43.5034296114551],[172.729775919946,-43.5038579290683],[172.729788331648,-43.5038692767709],[172.72991029028998,-43.5038496718176],[172.73025633092,-43.5037940493141],[172.730417931845,-43.5042272563007],[172.73044349926,-43.5042144783474],[172.73045872635097,-43.5042550172804],[172.730652363083,-43.5047731265713],[172.730680150458,-43.504770250280096],[172.730685919652,-43.5047869056629],[172.730779792723,-43.5050469263447],[172.730787957013,-43.5050698194631],[172.730831633524,-43.5051922904967],[172.730870503109,-43.5053012822394],[172.730910597867,-43.5054019531154],[172.730939710324,-43.5054841458404],[172.730949316792,-43.505511267575],[172.731002056298,-43.5056650231894],[172.731037960738,-43.5057696977504],[172.731042700849,-43.50578351687509],[172.731058054151,-43.505828277221994],[172.731060505919,-43.5058356234389],[172.731068283552,-43.5058589275023],[172.731069529553,-43.5058625247728],[172.731101638246,-43.5059552241112],[172.731156829771,-43.5061079002636],[172.731159761002,-43.5061151171823],[172.731186832333,-43.506111133080196],[172.731198916401,-43.5061088399278],[172.731299606001,-43.5063795011841],[172.73125747177,-43.506388247789],[172.731318294403,-43.5065457107804],[172.731392809125,-43.506748876385],[172.731400594031,-43.5067690045558],[172.73141101953,-43.5067959600598],[172.731421445039,-43.5068229155626],[172.731422487324,-43.506825610425196],[172.731423752105,-43.50682888055619],[172.731540851035,-43.5071499397915],[172.731563890744,-43.5072131091294],[172.731587400436,-43.5072758562119],[172.731614323625,-43.5072708923713],[172.731698407492,-43.507502961334794],[172.7316742185,-43.5075075713782],[172.731686805323,-43.5075402163688],[172.731783246182,-43.5077915037598],[172.731802879824,-43.5078447613515],[172.731810092522,-43.5078612938919],[172.731836987406,-43.5079358462984],[172.731821062459,-43.5079392859168],[172.73180049486297,-43.50796120413259],[172.731792408298,-43.5079698217162],[172.731800625444,-43.5079939387121],[172.731809666652,-43.5080166144181],[172.731822456152,-43.5080486909584],[172.73187993422,-43.5081929791965],[172.73188027936297,-43.5081930034543],[172.732188770695,-43.5089428192252],[172.732165135823,-43.5089337097098],[172.732138312145,-43.5089233711338],[172.732075191916,-43.5089307516978],[172.73202602861798,-43.5089392938593],[172.731951682504,-43.5089489911301],[172.731904250003,-43.5089977248277],[172.731891672178,-43.5090357094853],[172.73187545139396,-43.5090789549146],[172.73184782106196,-43.509129701270794],[172.73183225644098,-43.5091413326502],[172.731827312787,-43.5091635396366],[172.731822369129,-43.5091857466225],[172.731822283489,-43.5091900624135],[172.73182219784798,-43.5091943782045],[172.73180820937898,-43.5092003676161],[172.731817080009,-43.5092621785541],[172.731835660652,-43.5094190740692],[172.731939485737,-43.5097061401274],[172.732038276014,-43.5099434781551],[172.732116133535,-43.510161645741],[172.732178917377,-43.5102229810144],[172.732230654896,-43.5104066688173],[172.732589333646,-43.5112909207908],[172.732771262326,-43.511742613042394],[172.733342852832,-43.513208652527],[172.733680629292,-43.5140737300388],[172.733711439297,-43.514238246890294],[172.7337216982,-43.51429563535479],[172.733914242805,-43.5142604890667],[172.734895374225,-43.514075163187],[172.73402710704298,-43.5116526536277],[172.733853298753,-43.511080731075396],[172.733528916333,-43.510328381395695],[172.733403600909,-43.50999510721519],[172.733269107395,-43.5096482332104],[172.733131452525,-43.509305867252394],[172.732987685412,-43.5089590021881],[172.732843804783,-43.5086166370512],[172.732690763586,-43.5082742657503],[172.732519150996,-43.5079363978552],[172.732338245004,-43.507598446092395],[172.732163473837,-43.5072649933502],[172.732001049341,-43.5069225217919],[172.731854226676,-43.5065801636042],[172.7317104735,-43.5062332810314],[172.73156976809096,-43.5058910139323],[172.731432132498,-43.5055441298355],[172.731297660242,-43.5051972682599],[172.731169323609,-43.5048459821439],[172.73104719721297,-43.5044991026162],[172.730934348722,-43.50414782147019],[172.73087721510498,-43.5037922166923],[172.730841701548,-43.5034320998815],[172.730756704175,-43.503076321400194],[172.730628355045,-43.5027295349706],[172.730575304937,-43.5025926968686],[172.729935552354,-43.5026904948847],[172.729500995377,-43.5027569228453]]]]}}]}