{"type":"FeatureCollection","features":[{"type":"Feature","properties":{"gml_id":"vwPark.1039","ParkID":1039,"GreenspaceParkID":1494,"ParkName":"Paparua Stream Reserve No. 2","ParkTypeDescription":"Local/Community Park","Area":2352,"Perimeter":342},"geometry":{"type":"MultiPolygon","coordinates":[[[[172.551006685447,-43.5346314993819],[172.55118316757,-43.5345394063352],[172.55122604077997,-43.5345454780998],[172.551415120584,-43.5345722726927],[172.551604138905,-43.5345990578385],[172.551625816404,-43.5346021305143],[172.551836691654,-43.5346682261346],[172.551855293225,-43.5346740502556],[172.552087467082,-43.5347359349537],[172.55190511109097,-43.5348311116458],[172.551620230837,-43.53476781512679],[172.551228607803,-43.53468080753209],[172.551006685447,-43.5346314993819]]],[[[172.552970630125,-43.5351300705214],[172.552970406532,-43.5351298437842],[172.553173501852,-43.5350238366464],[172.55325846652497,-43.5351090988132],[172.553583993247,-43.5354358160075],[172.553378127578,-43.5355432621598],[172.552970630125,-43.5351300705214]]]]}}]}