{"type":"FeatureCollection","features":[{"type":"Feature","properties":{"gml_id":"vwPark.521","ParkID":521,"GreenspaceParkID":1232,"ParkName":"Southshore Beach Park","ParkTypeDescription":"Regional Park","Area":280399,"Perimeter":4538},"geometry":{"type":"MultiPolygon","coordinates":[[[[172.74824454496297,-43.5484191628356],[172.74809906695,-43.5484652191376],[172.748100367588,-43.5484499668683],[172.748095005703,-43.5484361600133],[172.748019563968,-43.5482891417091],[172.747910541609,-43.5480766812455],[172.747844419648,-43.5479404713109],[172.747873144472,-43.54792328412519],[172.747901255434,-43.5478957552379],[172.747915857432,-43.5478590000638],[172.74791963002198,-43.5478202504939],[172.74791163733397,-43.5477932149748],[172.747913819972,-43.5477653416835],[172.747511176223,-43.546969321275],[172.747371858841,-43.5470067202426],[172.746905361317,-43.5460840233002],[172.74684346549998,-43.545961496349],[172.746905309085,-43.5459449298468],[172.746982780386,-43.5459242063711],[172.746905268049,-43.5457709935532],[172.746084361592,-43.54414821229129],[172.745945050184,-43.5441855011762],[172.745325812937,-43.5429617712798],[172.745465122336,-43.5429243903318],[172.745181397073,-43.5423643741475],[172.745130245761,-43.542263103622794],[172.744990919134,-43.5423003142009],[172.74493290659,-43.542185450022],[172.744694428928,-43.5417136530024],[172.743949326437,-43.5402389299524],[172.74387273714,-43.5400873404899],[172.74381656158,-43.5399762532545],[172.743571165257,-43.5394905967238],[172.74342237609,-43.5391731466314],[172.74347444872,-43.539131732239],[172.74347460746097,-43.5390939778239],[172.743354755316,-43.5388566258792],[172.74339787206597,-43.5388295236999],[172.743408394515,-43.5387955678205],[172.743377414702,-43.5387577441065],[172.74334299124297,-43.5387306979956],[172.74333063905496,-43.5387278043767],[172.743324496096,-43.5387172527837],[172.743312354564,-43.5386951870593],[172.743261195162,-43.5385799094593],[172.742989542903,-43.53810231951879],[172.742944433118,-43.538054540792196],[172.742963166361,-43.5380214238612],[172.74296708946696,-43.5379919533149],[172.742965964828,-43.5379583259904],[172.742962307588,-43.5379246930198],[172.742955092932,-43.5378822366747],[172.743136551185,-43.5378352277198],[172.744762335257,-43.5374133141702],[172.74492797727999,-43.5377389130327],[172.745099744105,-43.5380768510657],[172.745271513244,-43.5384146959767],[172.745446447475,-43.5387526403827],[172.745621384063,-43.539090568944],[172.745796226968,-43.5394239966078],[172.745878242197,-43.539582432349],[172.745971167456,-43.5397618472522],[172.746146109582,-43.5400997750503],[172.7463179092,-43.5404377107814],[172.74649285503,-43.5407711375845],[172.746664639658,-43.541108980024],[172.746839589851,-43.5414469219196],[172.747008309424,-43.5417848496462],[172.747180119065,-43.542122691211],[172.747345773799,-43.542460627332],[172.74751451921497,-43.54280297729219],[172.747677032818,-43.5431409059546],[172.747833412279,-43.5434832438198],[172.747989697955,-43.5438255967453],[172.748139867318,-43.5441679360522],[172.748290038329,-43.5445102904621],[172.748437142418,-43.5448526225884],[172.74858731714397,-43.5451995696926],[172.74873749334597,-43.545541908025],[172.748887671194,-43.5458842616431],[172.749043969179,-43.546226597264],[172.749203432492,-43.5465644391413],[172.749366061672,-43.5469068654503],[172.749531647391,-43.5472447045359],[172.749700417166,-43.5475826432371],[172.749869170709,-43.5479204732547],[172.750037944606,-43.5482584111808],[172.750209865286,-43.54859634027],[172.750381693097,-43.5489341760307],[172.750553541692,-43.5492721043434],[172.750725468553,-43.5496100169845],[172.750888112995,-43.5499388621651],[172.751117999575,-43.5504524125724],[172.751277486294,-43.5507947513202],[172.75144004288398,-43.55113268887099],[172.751605766542,-43.5514750251405],[172.751765258765,-43.5518174403506],[172.751924752724,-43.5521597935337],[172.75207803439,-43.5525021330999],[172.752222015261,-43.55284446797629],[172.752356810189,-43.5531913139581],[172.752479159263,-43.5535380712893],[172.752589043324,-43.553889333134],[172.752671173297,-43.5542405043079],[172.752728484864,-43.554596184325],[172.752761112255,-43.554960796753],[172.752547351602,-43.5553461014693],[172.752333718397,-43.5548256113742],[172.75229746972397,-43.554737301508],[172.75225481626498,-43.5546507057486],[172.752170847292,-43.5544802536103],[172.752086891302,-43.5543098014252],[172.75200292328,-43.5541393491394],[172.75191895576899,-43.5539688879432],[172.751835001206,-43.5537984355367],[172.751817191445,-43.5537622872468],[172.751726572598,-43.5535783284594],[172.75168459560197,-43.553493102203895],[172.751617420704,-43.5533567346354],[172.751604705154,-43.5533309119611],[172.751591989258,-43.5533050890244],[172.75152481478,-43.553168721391],[172.75135670172398,-43.5528274195228],[172.751272774746,-43.5526570295728],[172.751188811372,-43.5524865674753],[172.751113341773,-43.552333350823],[172.751104860512,-43.5523161326202],[172.751096379615,-43.5522989141576],[172.751087898721,-43.5522816959541],[172.751012429636,-43.5521284792223],[172.750936960972,-43.551975253334],[172.750624301941,-43.5513404546315],[172.7506193344,-43.5513325954612],[172.75061074465697,-43.551323981229295],[172.750599809451,-43.5513169013629],[172.750587035211,-43.551311689378],[172.750573039504,-43.5513085898821],[172.750565765737,-43.551307881248896],[172.75055113753,-43.5513081916742],[172.750536933155,-43.5513107709696],[172.750140417564,-43.5514169670784],[172.750060897442,-43.55125548824189],[172.75005649261,-43.5512464779999],[172.750044146022,-43.5512498226439],[172.749580714366,-43.5513738689101],[172.749176564169,-43.5505748687452],[172.74931611697,-43.5505374836083],[172.748315588218,-43.54855978743199],[172.748351572802,-43.54853606983],[172.748384543093,-43.5485321042663],[172.748406535863,-43.548514758065],[172.748383092921,-43.5484540938581],[172.74824454496297,-43.5484191628356]]]]}}]}