{"type":"FeatureCollection","features":[{"type":"Feature","properties":{"gml_id":"vwPark.1030","ParkID":1030,"GreenspaceParkID":1491,"ParkName":"Glen Oaks Reserve","ParkTypeDescription":"Local/Community Park","Area":21140,"Perimeter":872},"geometry":{"type":"MultiPolygon","coordinates":[[[[172.61413740796,-43.4628712924498],[172.614167879599,-43.4629168557914],[172.614176454068,-43.4629296769273],[172.614222039392,-43.4629477222136],[172.614317948572,-43.4629571986133],[172.614369327938,-43.4629623643842],[172.614409227346,-43.4629762295476],[172.614493485499,-43.4630214507734],[172.614747707195,-43.4630250022471],[172.61471502359,-43.4629363375448],[172.614712513769,-43.4628846756587],[172.614633196768,-43.46286788026579],[172.614517267,-43.46280963908549],[172.614494528607,-43.462799263123095],[172.614226321329,-43.4625805478821],[172.614346877578,-43.4625047745274],[172.614328545266,-43.4624803777973],[172.614363450851,-43.4623913963642],[172.614388907537,-43.4623265019259],[172.61443857097,-43.4621721941848],[172.614487980465,-43.46202673330679],[172.61448529355,-43.4619182446382],[172.614484024577,-43.46186687176969],[172.614424394346,-43.4618134397182],[172.614895059825,-43.46170771936299],[172.614904466811,-43.461705125645196],[172.614922936003,-43.4617034338637],[172.614964726486,-43.4616942207309],[172.614936264155,-43.4616263135022],[172.614933886139,-43.461621628852],[172.614926667107,-43.4616210200467],[172.614913009397,-43.4616233125569],[172.614892106786,-43.4616290882589],[172.614876004542,-43.4616372184014],[172.614865997766,-43.4616390793554],[172.61457059447096,-43.4617052440223],[172.61433956274496,-43.4617569975848],[172.614253423788,-43.4617232427653],[172.614254132762,-43.4617020407596],[172.614248646774,-43.46170048260599],[172.614227967171,-43.4616948701247],[172.614213206058,-43.4616892775344],[172.614200141793,-43.46168276681729],[172.614179910302,-43.4616731525753],[172.614162203609,-43.4616653944754],[172.614143643621,-43.4616588652757],[172.614126760979,-43.4616544973131],[172.614111132931,-43.4616522891671],[172.614100568115,-43.4616516377584],[172.614075207096,-43.4616509365956],[172.614053042972,-43.46165235625289],[172.61404196317798,-43.4616192905405],[172.614035905202,-43.4616061482782],[172.614032895775,-43.46160183100189],[172.61390401631,-43.4616303566014],[172.613701742733,-43.4616288658088],[172.613688081839,-43.46162793782],[172.61355312851097,-43.4616187344353],[172.613456175895,-43.4616090019333],[172.613374853948,-43.4615799699477],[172.613276932163,-43.4615535822082],[172.61325331358196,-43.4615328814151],[172.613197259337,-43.4614789026386],[172.613177691194,-43.4614605647226],[172.61306549768096,-43.4613932731393],[172.612969733746,-43.4613424007875],[172.612894550057,-43.461311984889],[172.61269860763,-43.4612458237281],[172.61265559891999,-43.4612333203121],[172.612499301859,-43.4611878687747],[172.612386583196,-43.4611800353358],[172.612215452122,-43.4611471976744],[172.612205862199,-43.4611459452815],[172.61218582527,-43.4611417854856],[172.612157766876,-43.4611370139946],[172.612116514599,-43.4611877334146],[172.612078569115,-43.4612232648051],[172.612022908569,-43.461268089647],[172.611951204963,-43.461311691051],[172.611915786034,-43.4613285242335],[172.611864316652,-43.4613453031256],[172.611812048444,-43.4613614947086],[172.611767835232,-43.4613730368417],[172.611773315054,-43.4613946849975],[172.611776653635,-43.4614159055575],[172.611785363483,-43.4614142250012],[172.611807367111,-43.46140906984],[172.611808063974,-43.4614354359871],[172.611777181696,-43.4614358265361],[172.611781585927,-43.4616192364223],[172.611825903875,-43.4617443559041],[172.61184656235997,-43.461783508142],[172.611910589347,-43.4619048507911],[172.612091529316,-43.4620936369604],[172.612130124281,-43.4621426025799],[172.612306905675,-43.4621003421215],[172.612414507755,-43.4620674179728],[172.612437401744,-43.4620604216747],[172.612463128028,-43.4620571797872],[172.612534023396,-43.4620474328777],[172.612581916294,-43.4620617417688],[172.612628560937,-43.4620926902108],[172.612689443935,-43.4621303441963],[172.612721371717,-43.4621400221106],[172.612789262914,-43.4621535662034],[172.612879476889,-43.4621601119432],[172.612980049599,-43.462154625800295],[172.613096619246,-43.4621487774027],[172.613150332936,-43.4621460457997],[172.613197723514,-43.4621495342802],[172.61323981986,-43.462177138384796],[172.613326676011,-43.4622627304204],[172.613367347067,-43.4622899135796],[172.613408018159,-43.462317096724],[172.613522512767,-43.4623682458511],[172.613647202591,-43.4624331602995],[172.61387154124498,-43.4625483412318],[172.613974006573,-43.4626048586556],[172.61403322466597,-43.4626350166111],[172.61407076506,-43.4626605246074],[172.614102421866,-43.462713058946996],[172.614118258196,-43.4627380778564],[172.61413740796,-43.4628712924498]]]]}}]}