{"type":"FeatureCollection","features":[{"type":"Feature","properties":{"gml_id":"vwPark.1047","ParkID":1047,"GreenspaceParkID":1539,"ParkName":"Kumara Reserve","ParkTypeDescription":"Local/Community Park","Area":5468,"Perimeter":293},"geometry":{"type":"MultiPolygon","coordinates":[[[[172.51809517933,-43.53241093690839],[172.51809265138576,-43.53240282436834],[172.5180897105856,-43.53239485219637],[172.51808636468192,-43.53238704138857],[172.5180826224823,-43.53237941251245],[172.51807849383837,-43.53237198566057],[172.51807398962407,-43.53236478039232],[172.518069121704,-43.53235781568179],[172.518117054087,-43.5322976950574],[172.51824605356,-43.5320735352768],[172.518375051898,-43.5318493752027],[172.518373032631,-43.5317889562352],[172.51838547137595,-43.531788166057765],[172.51839783914693,-43.5317866216319],[172.51841009023335,-43.53178432866115],[172.51842217938244,-43.531781295616376],[172.5184340619271,-43.53177753370255],[172.51844569396053,-43.53177305682055],[172.518457032531,-43.5317678815114],[172.518535650014,-43.53180170303149],[172.51878732173597,-43.53187837268369],[172.51903795726,-43.531954731302996],[172.519094007877,-43.5319606241338],[172.51909592661102,-43.53196754621967],[172.51909829645953,-43.53197432711749],[172.51910110717284,-43.531980937463224],[172.51910434656745,-43.53198734863326],[172.51910800061884,-43.53199353286071],[172.51911205350913,-43.53199946336462],[172.51911648767415,-43.532005114462656],[172.5191212839272,-43.53201046168214],[172.51912642148815,-43.53201548186915],[172.51913187810712,-43.532020153279504],[172.5191376301518,-43.532024455686035],[172.5191436527238,-43.532028370455],[172.5191499197317,-43.53203188063343],[172.5191564040433,-43.53203497102185],[172.51916307757344,-43.53203762823613],[172.519169911422,-43.53203984076935],[172.5191768759905,-43.53204159903907],[172.51918394112724,-43.532042895431],[172.51919107622956,-43.532043724333555],[172.51919825040383,-43.53204408215242],[172.51920543257071,-43.532043967341444],[172.5192125916437,-43.53204338039722],[172.519219696604,-43.5320423238616],[172.51924550697797,-43.5320950231967],[172.519157829195,-43.5322473671877],[172.518981658777,-43.5325532666284],[172.51889962463,-43.5326036627411],[172.518894051871,-43.53259782060914],[172.51888808737928,-43.53259237900782],[172.51888175988276,-43.532587364143176],[172.51887509983496,-43.53258280016052],[172.51886813931193,-43.53257870903507],[172.51886091182675,-43.53257511046831],[172.51885345218759,-43.5325720217861],[172.51884579630857,-43.53256945786233],[172.51883798105698,-43.53256743104247],[172.51883004406406,-43.53256595108359],[172.51882202354315,-43.53256502511612],[172.51881395811503,-43.53256465759477],[172.51880588661874,-43.53256485029123],[172.5187978479225,-43.53256560227782],[172.5187898807271,-43.53256690993111],[172.51878202339864,-43.532568766957404],[172.51877431377213,-43.53257116441454],[172.5187667889622,-43.5325740907574],[172.51875948521408,-43.53257753189609],[172.51875243769607,-43.53258147125953],[172.518745680326,-43.5325858898808],[172.51868515005,-43.5325674456769],[172.51843458654,-43.5324910954901],[172.51818288824,-43.5324143980392],[172.51809517933,-43.53241093690839]]]]}}]}