{"type":"FeatureCollection","features":[{"type":"Feature","properties":{"gml_id":"vwPark.356","ParkID":356,"GreenspaceParkID":278,"ParkName":"Parkham Reserve","ParkTypeDescription":"Local/Community Park","Area":1997,"Perimeter":266},"geometry":{"type":"MultiPolygon","coordinates":[[[[172.572187103802,-43.504050745079596],[172.57219311409,-43.5040428210328],[172.572206727861,-43.5040356476892],[172.57222165640596,-43.504029683240496],[172.572235565493,-43.5040275678047],[172.572252114274,-43.504026425394],[172.572272939886,-43.5040286701057],[172.572411841027,-43.5040568787127],[172.57243355707797,-43.5040400291002],[172.57243650770397,-43.5040377226462],[172.572623685414,-43.5038913976285],[172.572822879012,-43.5040189704016],[172.573045684904,-43.504161652963],[172.57329444210697,-43.5043209662621],[172.573387386412,-43.5043805013506],[172.573240616299,-43.504490263012194],[172.573214673181,-43.5045096716908],[172.573121741516,-43.5044501273349],[172.573103752615,-43.5044320046643],[172.573057177991,-43.5043850987835],[172.572800163425,-43.5042554214567],[172.572749595183,-43.5042949456417],[172.572482011987,-43.5041136888002],[172.572367748293,-43.5040915084944],[172.572274638498,-43.50416376554659],[172.57226884447496,-43.5041408679299],[172.57228873886297,-43.5040872434409],[172.572201529182,-43.50406934041919],[172.572193670931,-43.5040577527413],[172.572187103802,-43.504050745079596]]]]}}]}