{"type":"FeatureCollection","features":[{"type":"Feature","properties":{"gml_id":"vwPark.258","ParkID":258,"GreenspaceParkID":243,"ParkName":"Jollies Bush","ParkTypeDescription":"Regional Park","Area":14017,"Perimeter":658},"geometry":{"type":"MultiPolygon","coordinates":[[[[172.739355137925,-43.5876051640757],[172.739305806346,-43.5875743776852],[172.73920950723,-43.5875789871948],[172.73912005399396,-43.587535347181],[172.739100474231,-43.5874556659915],[172.739094163974,-43.5873784279586],[172.739131826539,-43.5871106427777],[172.739198956095,-43.5869394537535],[172.739302892438,-43.5867007767711],[172.739423108486,-43.5865369469265],[172.739550333855,-43.58628625592739],[172.739694229459,-43.5860187095693],[172.739791471264,-43.5857920832776],[172.73972908895496,-43.585785997150396],[172.737753245315,-43.5875626269626],[172.738315847086,-43.5880911741081],[172.739355137925,-43.5876051640757]]]]}}]}