{"type":"FeatureCollection","features":[{"type":"Feature","properties":{"gml_id":"vwPark.121","ParkID":121,"GreenspaceParkID":83,"ParkName":"Carlsen Reserve","ParkTypeDescription":"Local/Community Park","Area":3386,"Perimeter":330},"geometry":{"type":"MultiPolygon","coordinates":[[[[172.682972630688,-43.4956386564023],[172.682999781382,-43.4956196045585],[172.682520029694,-43.49525733097539],[172.682863546126,-43.4950162573914],[172.68287870037898,-43.4950072306827],[172.68289986265597,-43.4949923862529],[172.682748368379,-43.4949348138842],[172.682444744369,-43.4948183045023],[172.682258092585,-43.49474667789839],[172.682255468214,-43.4947456784545],[172.6821688641,-43.4948083376495],[172.68187801855797,-43.4950080810931],[172.6818771576,-43.4950086716953],[172.681881851465,-43.4950121492309],[172.682405772439,-43.4954077153839],[172.682550894821,-43.495517286837],[172.68268619027597,-43.4954223332007],[172.682972630688,-43.4956386564023]]]]}}]}