{"type":"FeatureCollection","features":[{"type":"Feature","properties":{"gml_id":"vwPark.540","ParkID":540,"GreenspaceParkID":289,"ParkName":"Wilson Park","ParkTypeDescription":"Local/Community Park","Area":1750,"Perimeter":273},"geometry":{"type":"MultiPolygon","coordinates":[[[[172.643060732246,-43.5365019969958],[172.643083553227,-43.53649488861029],[172.643263036857,-43.5365018154226],[172.643591428766,-43.536502831694094],[172.643723638913,-43.5365070631607],[172.643773524719,-43.5365123141781],[172.643809335893,-43.5365283523123],[172.643833414486,-43.5365572568045],[172.64402141656998,-43.5367740983973],[172.643557364299,-43.5366617927859],[172.642835347806,-43.5366629411484],[172.642835424383,-43.5366899976857],[172.642798801924,-43.5368443997317],[172.642797721918,-43.5364943397845],[172.642819067503,-43.5364831190504],[172.642868967604,-43.5364951906036],[172.643060732246,-43.5365019969958]]]]}}]}