{"type":"FeatureCollection","features":[{"type":"Feature","properties":{"gml_id":"vwPark.1261","ParkID":1261,"GreenspaceParkID":1728,"ParkName":"Western Valley Streamside Esplanade","ParkTypeDescription":"Local/Community Park","Area":1406,"Perimeter":255},"geometry":{"type":"MultiPolygon","coordinates":[[[[172.796930447158,-43.7622102254025],[172.797087022781,-43.7622825568141],[172.796795711851,-43.7625348124051],[172.796622792044,-43.762662617113],[172.796588939687,-43.762736692627094],[172.796569695235,-43.7628010046947],[172.79658268371,-43.7628532177635],[172.79665279000798,-43.7629053438099],[172.796701943768,-43.7629595986232],[172.796777013218,-43.7629974599734],[172.796717958795,-43.7631268682768],[172.796458400712,-43.7629420443431],[172.796403419221,-43.7627988155532],[172.79660557662896,-43.7625231030433],[172.796915441308,-43.7622247046874],[172.796930447158,-43.7622102254025]]]]}}]}