{"type":"FeatureCollection","features":[{"type":"Feature","properties":{"gml_id":"vwPark.53","ParkID":53,"GreenspaceParkID":8,"ParkName":"Aranui Playground","ParkTypeDescription":"Local/Community Park","Area":6482,"Perimeter":530},"geometry":{"type":"MultiPolygon","coordinates":[[[[172.702378267474,-43.51764951570469],[172.702347457185,-43.517668756395295],[172.702423005088,-43.5177387630298],[172.702442628933,-43.5177567447445],[172.702467139797,-43.5177831068838],[172.70248708636,-43.5178022848242],[172.702544338761,-43.5178514441401],[172.702586160992,-43.5178248196272],[172.703057046365,-43.517529110912896],[172.703141754126,-43.517600215427],[172.703287975238,-43.5177238691939],[172.703434234113,-43.51784722255089],[172.70358075858397,-43.517970228684995],[172.70367476061898,-43.5179112270551],[172.703936743444,-43.5177470058831],[172.70404239245698,-43.517680672320694],[172.704088045716,-43.5176572244791],[172.704078957336,-43.5176344885272],[172.704072513383,-43.5176084122517],[172.704068427111,-43.5175703880379],[172.704072541116,-43.5175350147791],[172.704082545292,-43.5175044382571],[172.704094165375,-43.5174793647258],[172.704106412323,-43.51746050888309],[172.704116343373,-43.517444994207],[172.704128239742,-43.5174306799801],[172.704076885689,-43.5174083189005],[172.703864767687,-43.51732020855389],[172.703710740775,-43.5171234863562],[172.703541765372,-43.51690719414349],[172.703403678208,-43.5167299142835],[172.70337297471,-43.5166905473206],[172.703349772593,-43.5166597956192],[172.70328360691,-43.5166871193251],[172.7033074168,-43.516717623477],[172.703645170128,-43.5171505628548],[172.70351375606697,-43.51720484956719],[172.70348108832397,-43.5172183474306],[172.703316993695,-43.5172861231647],[172.703120131604,-43.517367449973996],[172.702949120627,-43.5174380874461],[172.702849164702,-43.51735378999209],[172.702674450682,-43.51746350750209],[172.702499748123,-43.5175732248464],[172.702378267474,-43.51764951570469]]]]}}]}