{"type":"FeatureCollection","features":[{"type":"Feature","properties":{"gml_id":"vwPark.1553","ParkID":1553,"GreenspaceParkID":1470,"ParkName":"Styx River Reserve Living Laboratory","ParkTypeDescription":"Regional Park","Area":42489,"Perimeter":1709},"geometry":{"type":"MultiPolygon","coordinates":[[[[172.66002364871696,-43.45573835560129],[172.658191769469,-43.4556269697062],[172.658178734978,-43.4547266672997],[172.658818461567,-43.4547489863954],[172.658816606165,-43.4546170814028],[172.659564804089,-43.4546431032981],[172.659602362233,-43.454734151203],[172.65970104688,-43.45487535344459],[172.659793760655,-43.4550415155995],[172.659847029735,-43.45519996377399],[172.65985345884,-43.4555243400667],[172.66002364871696,-43.45573835560129]]],[[[172.662501707363,-43.4562204011745],[172.662508895086,-43.4561563718489],[172.662370119597,-43.4558770790474],[172.661998135125,-43.4557554610357],[172.66217078539398,-43.4556566265009],[172.66256081951,-43.455493157096],[172.663049651027,-43.455299913556],[172.663428816729,-43.4551884435675],[172.66383978501,-43.4551394778487],[172.664238480846,-43.4551000067592],[172.66442432723198,-43.455183917145796],[172.664592246033,-43.455312689497894],[172.664705876874,-43.4555017529134],[172.664785624991,-43.4557207803061],[172.664859172534,-43.4559485023504],[172.664669691706,-43.4561762655371],[172.66461674414097,-43.4559839412666],[172.662501707363,-43.4562204011745]]],[[[172.664667614237,-43.4582587706742],[172.664568003609,-43.4582330901914],[172.664466896072,-43.4577639282253],[172.664398168218,-43.457591953672996],[172.664391946088,-43.45739820893749],[172.664411003239,-43.45725843559159],[172.664510918172,-43.457089375823],[172.664641594729,-43.4569524580637],[172.664842721986,-43.4567710115541],[172.665040824408,-43.4566113560751],[172.665129766807,-43.4564868362353],[172.66520232823396,-43.4564314043868],[172.665312630514,-43.4563545706269],[172.665404932077,-43.4562571799642],[172.665501963647,-43.4561533766174],[172.665790728461,-43.455869906596],[172.665853232204,-43.4558856269813],[172.665256494252,-43.457063472817495],[172.664667614237,-43.4582587706742]]]]}}]}