{"type":"FeatureCollection","features":[{"type":"Feature","properties":{"gml_id":"vwPark.1735","ParkID":1735,"GreenspaceParkID":38,"ParkName":"Bexley Park","ParkTypeDescription":"Sports Park","Area":512351,"Perimeter":3775},"geometry":{"type":"MultiPolygon","coordinates":[[[[172.720197825567,-43.520752401024694],[172.72022305433,-43.5207014744651],[172.720234641173,-43.5206871303454],[172.72026930276,-43.5206656561417],[172.720290770125,-43.5206501383269],[172.72030893481,-43.5206370078652],[172.720317240927,-43.5206202603913],[172.720306871819,-43.5205748320286],[172.720198686324,-43.5202999329585],[172.720091738792,-43.5200296140355],[172.719971160455,-43.51971440456779],[172.719761940499,-43.5192525065095],[172.719675957087,-43.5190746990207],[172.719594854464,-43.5189298597094],[172.719521299996,-43.5187850387171],[172.719410158815,-43.5186071697084],[172.719301525765,-43.5184311376008],[172.719224097573,-43.5183082778599],[172.719086802763,-43.5180735865061],[172.719029430845,-43.5179663382789],[172.71900580837797,-43.5179058605966],[172.718956064588,-43.5177812372927],[172.718912644458,-43.517649305757395],[172.718818290956,-43.517378100626],[172.718656774941,-43.516941033863],[172.718481584864,-43.516469146047],[172.718323847461,-43.5160320878908],[172.718313906894,-43.5160055153535],[172.718216648752,-43.5157789934634],[172.718182082488,-43.5156932967234],[172.7181707056,-43.5156678653242],[172.718145943709,-43.5156041346269],[172.718053852289,-43.5153892347172],[172.718010552062,-43.5152921760225],[172.717988051173,-43.5152356202396],[172.717960236474,-43.5151684764076],[172.717926116911,-43.515074376085295],[172.717759713612,-43.5147274057139],[172.71759658026798,-43.5143420908322],[172.717414059262,-43.5139626439859],[172.71719358372698,-43.5134952197124],[172.717017866975,-43.5131414215979],[172.71689132041698,-43.5128989657247],[172.71688683279396,-43.5128989178974],[172.716711465761,-43.5128970487665],[172.71572729071798,-43.5128865486888],[172.715740289752,-43.5122391970066],[172.715370049702,-43.512392265835494],[172.715010310069,-43.5119310982344],[172.71500923212596,-43.5119315456614],[172.715368971796,-43.5123927042301],[172.714999869875,-43.512545288738],[172.714629663309,-43.51269831929049],[172.714258376909,-43.5128517960797],[172.71421334765,-43.512870405769],[172.71402351538896,-43.5129488792677],[172.713763945115,-43.5130561704383],[172.71360248710397,-43.5128492478642],[172.713736544389,-43.5125810818006],[172.71384946052197,-43.51236402273529],[172.713863963494,-43.5123361413632],[172.71386183739,-43.5123338503166],[172.713852863113,-43.512322763838995],[172.713351762261,-43.5125294813954],[172.713075565497,-43.5126434184473],[172.712812604424,-43.5127510785281],[172.712790177748,-43.512760937127396],[172.711932835037,-43.5131162031187],[172.71184286591,-43.513152888944994],[172.711356187714,-43.5133525282377],[172.710763139024,-43.5135982502655],[172.710120735933,-43.513864239874],[172.709964606464,-43.5139278123607],[172.709867180741,-43.5139683566097],[172.709877727902,-43.513982597806],[172.709885665146,-43.51399440917739],[172.709889404272,-43.5139992751513],[172.710128402505,-43.514280311952],[172.71025281348398,-43.51437766153809],[172.710521745653,-43.5145880813457],[172.710766319578,-43.5147794477299],[172.71097859937598,-43.5149455396861],[172.711108829149,-43.5150474213767],[172.711127582903,-43.5150621036148],[172.711166754731,-43.5153249860663],[172.711193184536,-43.5155024378806],[172.71123529383897,-43.5157849942005],[172.711283072563,-43.5161057005733],[172.71130500846598,-43.516252916839],[172.710371979918,-43.5162870981285],[172.710280866836,-43.5162904309699],[172.71038985300098,-43.5163702664194],[172.710427562498,-43.5164003035825],[172.710461940758,-43.5164387162023],[172.710481513184,-43.5164758938876],[172.710489616707,-43.5165022634982],[172.710496063131,-43.51653102432589],[172.710497600802,-43.516553784348],[172.71049423540296,-43.5165693458866],[172.71056352902596,-43.516574449972],[172.710935377675,-43.5166064724415],[172.711138062816,-43.5167682284667],[172.710995218022,-43.5168637902638],[172.710786440373,-43.517003469702594],[172.710648421092,-43.5170958120065],[172.71050923506698,-43.5171889253268],[172.710370060839,-43.517282038369],[172.710230873964,-43.517375151354],[172.710110000159,-43.5174560152423],[172.709772887026,-43.5172683567676],[172.709707267323,-43.517233556698194],[172.709648054322,-43.5172005823498],[172.70955595479,-43.5172622072941],[172.709615687149,-43.5172948273466],[172.710599152383,-43.51784246608],[172.710813260373,-43.5179616780561],[172.71101556412296,-43.5180743344578],[172.711217880882,-43.518186981631],[172.711404482699,-43.5182908853226],[172.71159108514897,-43.518394788704],[172.711777688233,-43.5184986917753],[172.711964291951,-43.5186025945363],[172.71218432654,-43.5187251039255],[172.712383662198,-43.5188361033747],[172.71259609947498,-43.518954380603],[172.712606629933,-43.5189585742205],[172.714972104734,-43.5198995337641],[172.714602615579,-43.5204394691163],[172.71660455842598,-43.521165051481],[172.71697934608,-43.5206201120098],[172.720379183705,-43.521840497983995],[172.72046371897,-43.5218708458394],[172.720408682484,-43.5216914754115],[172.720403185104,-43.5216557593653],[172.720362473352,-43.5214791643974],[172.720207763402,-43.5210070059886],[172.720169536522,-43.5208664895646],[172.720197825567,-43.520752401024694]]]]}}]}