{"type":"FeatureCollection","features":[{"type":"Feature","properties":{"gml_id":"vwPark.1223","ParkID":1223,"GreenspaceParkID":1558,"ParkName":"Wigram Road Landscape Reserve","ParkTypeDescription":"Local/Community Park","Area":4733,"Perimeter":1431},"geometry":{"type":"MultiPolygon","coordinates":[[[[172.561761399047,-43.55669701263349],[172.56182737489198,-43.5566573656124],[172.561866475669,-43.5566363830717],[172.561899866388,-43.5566650392213],[172.561935224107,-43.5566676735064],[172.561791401591,-43.5567527438241],[172.56158392396,-43.5568754652359],[172.56160735087596,-43.5568964128808],[172.561399104297,-43.5570195882317],[172.561207082593,-43.5571331657299],[172.56118365572198,-43.55711221800449],[172.56098299227997,-43.5572309062266],[172.561006419129,-43.55725185399229],[172.560811515597,-43.5573671347886],[172.560609890821,-43.5574863902618],[172.560586464018,-43.55746544215659],[172.560382245952,-43.5575862304703],[172.560196869683,-43.5576958736562],[172.560140944539,-43.5576444546324],[172.560187818283,-43.5576151452314],[172.561678741621,-43.5567384969368],[172.561756987316,-43.5566989684295],[172.561761399047,-43.55669701263349]]],[[[172.559953722484,-43.5577576468884],[172.560140942898,-43.5576446821831],[172.560163013849,-43.5576647914295],[172.56013810765197,-43.5576786892703],[172.560157145883,-43.5576960573449],[172.560172859238,-43.5577100748079],[172.559976298988,-43.5578263433664],[172.559999725722,-43.5578472915943],[172.55978993604597,-43.5579713725701],[172.559586386975,-43.55809176203739],[172.559562960286,-43.5580708137266],[172.559357489781,-43.5581923385627],[172.558974911679,-43.558418695236796],[172.558969587115,-43.5584567055199],[172.558933061007,-43.5584945824048],[172.558922268536,-43.5584815859218],[172.558911528119,-43.5584613923153],[172.558907694436,-43.5584441040707],[172.55890682970397,-43.558426827188995],[172.558913902984,-43.5584067017596],[172.55892984666596,-43.5583916484035],[172.558959045033,-43.5583708826521],[172.558975530924,-43.55836096092229],[172.559011131725,-43.5583423431475],[172.55913459869396,-43.5582700773663],[172.559299587301,-43.5581728248172],[172.559597754073,-43.5579976302323],[172.559606723214,-43.5579890277207],[172.559815550558,-43.5578509172235],[172.55985435945996,-43.5578215564303],[172.559889371212,-43.5577995080844],[172.559904847852,-43.5577861195392],[172.559953722484,-43.5577576468884]]],[[[172.558237508666,-43.5587758690373],[172.558411072669,-43.5586695480991],[172.558437414655,-43.5586519339196],[172.558455156691,-43.558643154226594],[172.558483598876,-43.558629521562494],[172.558617012015,-43.5585647598519],[172.558690827224,-43.5585292161391],[172.558734119006,-43.5585151495023],[172.558769209911,-43.5585152838532],[172.558791881034,-43.5585187088045],[172.55882400165,-43.558532220581895],[172.558842314792,-43.558545679498],[172.558807662909,-43.5585639564701],[172.558787092648,-43.5585645300272],[172.55851987076798,-43.5587230010813],[172.558485099043,-43.5587083406496],[172.558302527906,-43.5588162628742],[172.558075382176,-43.55895052144399],[172.558098795795,-43.5589714752027],[172.557885297046,-43.5590976760867],[172.55786185837,-43.559076731026096],[172.557617892099,-43.559221014119],[172.557373042041,-43.5593658154797],[172.557396455583,-43.5593867691195],[172.55706523753298,-43.5595828036579],[172.557338249394,-43.5597309530773],[172.557585693386,-43.5598652231994],[172.55783599023098,-43.559969765166],[172.558043259375,-43.5600563378677],[172.558094550096,-43.5600716559233],[172.55833988934,-43.5601449358604],[172.558367126791,-43.56015062972159],[172.558636043921,-43.5602069337967],[172.558934982228,-43.5602623621035],[172.558603745221,-43.5602284390158],[172.558327622162,-43.5601707660869],[172.558026854426,-43.560080973218795],[172.556968578819,-43.55964001941479],[172.556911014485,-43.5596160360794],[172.55686679369,-43.5595777122636],[172.557077494479,-43.5594557922436],[172.558031356814,-43.558886150471],[172.558196673672,-43.558797557972596],[172.558237508666,-43.5587758690373]]]]}}]}