{"type":"FeatureCollection","features":[{"type":"Feature","properties":{"gml_id":"vwPark.2019","ParkID":2019,"GreenspaceParkID":null,"ParkName":"Greenwich 1 Drainage Reserve","ParkTypeDescription":"Local/Community Park","Area":327,"Perimeter":121},"geometry":{"type":"MultiPolygon","coordinates":[[[[172.54276900250298,-43.5710857239567],[172.542969549526,-43.5709143174492],[172.54296964904898,-43.5709143793181],[172.54320565155,-43.5707127404532],[172.543262134957,-43.5707478303767],[172.543026116704,-43.5709494826996],[172.542825456987,-43.571120819119],[172.54276900250298,-43.5710857239567]]]]}}]}