{"type":"FeatureCollection","features":[{"type":"Feature","properties":{"gml_id":"vwPark.52","ParkID":52,"GreenspaceParkID":1280,"ParkName":"Apsley Landscape Reserve","ParkTypeDescription":"Local/Community Park","Area":287,"Perimeter":269},"geometry":{"type":"MultiPolygon","coordinates":[[[[172.550874810361,-43.5137793164235],[172.550865408573,-43.513810905088796],[172.551152484035,-43.513861756011],[172.55116380143397,-43.5138284917698],[172.551145347513,-43.5138068625239],[172.551067084086,-43.5137935416912],[172.55090452978,-43.5137658769932],[172.550874810361,-43.5137793164235]]],[[[172.550075576097,-43.5138329880811],[172.550083306009,-43.5137987623982],[172.549780633097,-43.51376936553039],[172.549775232735,-43.5138038464991],[172.549796491781,-43.5138240828333],[172.549900688722,-43.5138341937628],[172.549937443725,-43.5138377580546],[172.550047770772,-43.5138484598554],[172.550075576097,-43.5138329880811]]],[[[172.55254181616397,-43.5139364100052],[172.552539533231,-43.5139357170641],[172.552604296126,-43.5138237182095],[172.552606579057,-43.5138244111494],[172.55254181616397,-43.5139364100052]]],[[[172.551397833255,-43.51406563483889],[172.551274792195,-43.51405654990489],[172.55127505272,-43.51405475980519],[172.551398093776,-43.51406384473889],[172.551397833255,-43.51406563483889]]],[[[172.55206226091,-43.514114705851796],[172.551902309633,-43.514102894483],[172.551902557985,-43.5141010952987],[172.552062509062,-43.5141129066664],[172.55206226091,-43.514114705851796]]],[[[172.55099569399397,-43.5141148307687],[172.550993234251,-43.5141146500439],[172.55100435985798,-43.5140347651626],[172.551176609826,-43.51404748986019],[172.55117636171397,-43.5140492800081],[172.551006571415,-43.51403674492939],[172.55099569399397,-43.5141148307687]]],[[[172.55224203927696,-43.5141279803891],[172.552185302388,-43.5141237899426],[172.552185550471,-43.5141219997927],[172.55224128636496,-43.5141261051581],[172.55224203927696,-43.5141279803891]]],[[[172.552295353079,-43.5141318242758],[172.55229462387996,-43.5141300482518],[172.552417886715,-43.5140769904385],[172.55241914911,-43.514078543623995],[172.552295353079,-43.5141318242758]]]]}}]}