{"type":"FeatureCollection","features":[{"type":"Feature","properties":{"gml_id":"vwPark.1723","ParkID":1723,"GreenspaceParkID":null,"ParkName":"Neathwest Reserve","ParkTypeDescription":"Local/Community Park","Area":20817,"Perimeter":1782},"geometry":{"type":"MultiPolygon","coordinates":[[[[172.530683605367,-43.5220435083651],[172.53066852295888,-43.522042220069125],[172.5306535647287,-43.52203989849113],[172.5306388013705,-43.5220365546047],[172.53062430265703,-43.52203220421324],[172.53061013712795,-43.522026867878594],[172.5305963717401,-43.522020570830136],[172.53058307157397,-43.52201334283159],[172.5305857764033,-43.52200838838704],[172.53058847786812,-43.52200343210825],[172.5305911759787,-43.52199847399969],[172.53059387070968,-43.521993514059425],[172.53059656207552,-43.52198855228744],[172.53059925007256,-43.52198358869296],[172.530601934707,-43.521978623275196],[172.53056402140646,-43.521963790302834],[172.5305259030829,-43.52194949245677],[172.5304875872825,-43.521935732573176],[172.53044908159788,-43.521922513373276],[172.5304103936469,-43.52190983747641],[172.53037153111654,-43.52189770739823],[172.530332501695,-43.521886125539595],[172.53028763695326,-43.5218726443254],[172.53024255860143,-43.521859895554364],[172.53019727861098,-43.52184788260819],[172.5301518089836,-43.52183660867376],[172.5301061617756,-43.521826076739664],[172.5300603491123,-43.521816289601695],[172.530014383128,-43.5218072498547],[172.52997182923716,-43.521799266915004],[172.52992919528697,-43.52179172324759],[172.52988648581226,-43.5217846196574],[172.52984370534244,-43.52177795689385],[172.52980085843228,-43.521771735666334],[172.52975794964732,-43.52176595664063],[172.52971498355396,-43.521760620431],[172.52969737045348,-43.521758619584965],[172.52967974168496,-43.521756761887445],[172.5296620984154,-43.521755047459],[172.52964444179085,-43.52175347640877],[172.52962677298274,-43.521752048842245],[172.52960909316607,-43.521750764857664],[172.529591403503,-43.5217496245378],[172.52958628109627,-43.521749299961996],[172.52958115948059,-43.52174896312681],[172.5295760386943,-43.52174861403727],[172.52957091874848,-43.52174825269139],[172.5295657996794,-43.52174787908916],[172.5295606815198,-43.52174749323804],[172.529555564309,-43.5217470951392],[172.52954795095863,-43.521746515074256],[172.52954033427156,-43.521745980544424],[172.52953271452859,-43.52174549156552],[172.52952509199528,-43.52174504815775],[172.52951746694086,-43.52174465033567],[172.5295098396527,-43.521744298115436],[172.52950221039,-43.521743991505694],[172.52948860867764,-43.52174367531564],[172.52947500825758,-43.521743308087025],[172.52946140930723,-43.52174288982496],[172.52944781201947,-43.52174242053296],[172.52943421659074,-43.52174190021833],[172.52942062320653,-43.52174132888844],[172.529407032066,-43.5217407065548],[172.52912437785,-43.5217323656895],[172.528924173004,-43.5217269364058],[172.52892531547,-43.5217186578121],[172.52892181532658,-43.52171863869426],[172.5289183200475,-43.52171845298652],[172.52891483758137,-43.5217181011103],[172.5289113758117,-43.521717583864294],[172.52890794258198,-43.52171690241993],[172.5289045456884,-43.521716058321374],[172.528901192819,-43.5217150534829],[172.52889850181234,-43.52171433463944],[172.52889584150032,-43.521713509393514],[172.5288932160983,-43.52171257904773],[172.52889062975734,-43.521711545072314],[172.5288880865591,-43.52171040910434],[172.52888559053096,-43.521709172936866],[172.52888314561,-43.521707838525],[172.52888126831382,-43.52170679414832],[172.52887942633603,-43.521705688663125],[172.5288776216766,-43.52170452326389],[172.52887585626738,-43.52170329920954],[172.52887413202183,-43.52170201782063],[172.52887245080632,-43.52170068047946],[172.528870814428,-43.5216992886307],[172.52886848803607,-43.52169708058672],[172.5288662843195,-43.52169475009031],[172.52886420972206,-43.52169230394792],[172.528862270301,-43.521689749304635],[172.52886047170247,-43.521687093621935],[172.52885881921245,-43.521684344654105],[172.52885731762598,-43.5216815104302],[172.52885629113734,-43.52167799764723],[172.52885550492283,-43.52167442341124],[172.5288549625838,-43.521670804137095],[172.52885466660513,-43.52166715643942],[172.528854618351,-43.521663497071124],[172.52885481803966,-43.521659842836],[172.52885526475802,-43.52165621051608],[172.52885595645785,-43.5216526167915],[172.528856889964,-43.5216490781657],[172.5288588191324,-43.521645408129366],[172.5288609924428,-43.52164187717426],[172.52886339989342,-43.52163850151736],[172.52886603043586,-43.5216352966563],[172.52886887199563,-43.52163227731034],[172.52887191151237,-43.5216294573438],[172.52887513503447,-43.52162684970426],[172.52887852775893,-43.52162446637175],[172.528882074114,-43.52162231828629],[172.52888497216185,-43.52162061267328],[172.5288877760431,-43.52161875633282],[172.52889047793718,-43.52161675444949],[172.52889307029542,-43.52161461261493],[172.52889554587088,-43.5216123368118],[172.52889789776233,-43.52160993339741],[172.528900119379,-43.5216074090827],[172.52890170676983,-43.52160525203565],[172.52890319128707,-43.52160302293305],[172.52890456964812,-43.52160072667902],[172.5289058388298,-43.52159836832106],[172.52890699603083,-43.52159595304511],[172.5289080387156,-43.521593486168264],[172.528908964592,-43.5215909731177],[172.52890933216983,-43.52158933597994],[172.5289096488959,-43.521587688252104],[172.52890991448655,-43.52158603150927],[172.5289101286762,-43.52158436734316],[172.52891029125382,-43.52158269734353],[172.52891040207757,-43.52158102311287],[172.528910461034,-43.5215793462538],[172.5289101670423,-43.52156615247985],[172.5289097970635,-43.52155296061755],[172.52890935113098,-43.521539771105374],[172.5289088292338,-43.52152658437989],[172.52890823140112,-43.52151340087947],[172.52890755765836,-43.52150022103886],[172.528906808011,-43.5214870452972],[172.52890556785857,-43.52147165472888],[172.52890422424025,-43.52145627285063],[172.52890277722324,-43.52144090035653],[172.5289012268549,-43.52142553793782],[172.5288995732153,-43.52141018629118],[172.52889781638075,-43.52139484611325],[172.528895956432,-43.521379518097895],[172.52889544220665,-43.52137572932769],[172.52889492168103,-43.52137194141505],[172.52889439486168,-43.52136815437369],[172.52889386175954,-43.52136436821274],[172.5288933223528,-43.52136058294308],[172.52889277666688,-43.52135679857564],[172.528892224692,-43.5213530151174],[172.5288913031545,-43.52134944280434],[172.52889015068283,-43.521345938166625],[172.5288887721981,-43.52134251611641],[172.5288871735465,-43.52133919121114],[172.52888536154566,-43.52133597759711],[172.52888334389715,-43.52133288894576],[172.528881129185,-43.521329938399],[172.52887822457706,-43.52132684391313],[172.52887512441885,-43.52132394536784],[172.528871841896,-43.52132125509706],[172.52886839096024,-43.52131878454201],[172.528864786309,-43.52131654421282],[172.52886104327627,-43.52131454364667],[172.528857177786,-43.5213127913524],[172.52885557114493,-43.52131207848716],[172.5288539835492,-43.5213113241698],[172.52885241606413,-43.521310528911265],[172.52885086974123,-43.521309693243886],[172.5288493456137,-43.52130881772973],[172.52884784472553,-43.52130790296243],[172.528846368083,-43.5213069495566],[172.52884497756892,-43.52130603069373],[172.5288436113587,-43.52130507605579],[172.52884227038882,-43.521304086287266],[172.52884095555052,-43.52130306205435],[172.5288396677315,-43.52130200404462],[172.52883840780848,-43.52130091297249],[172.52883717661697,-43.521299789574],[172.528963262907,-43.5212852661655],[172.52899991553,-43.5212810441234],[172.52901775349,-43.5212789894508],[172.52903050512393,-43.52127731891768],[172.5290433077134,-43.521276098879746],[172.52905614535118,-43.52127533084966],[172.5290690020847,-43.52127501578615],[172.5290818619287,-43.52127515407845],[172.52909470891606,-43.52127574555551],[172.529107527061,-43.521276789480396],[172.52912023916718,-43.521277429761426],[172.5291329207939,-43.521278517704545],[172.52914555621098,-43.52128005195845],[172.5291581296842,-43.52128203061692],[172.52917062560658,-43.52128445122252],[172.52918302845498,-43.521287310764706],[172.52919532279498,-43.5212906056911],[172.52951562626,-43.5213720854476],[172.52952446077686,-43.52137436684291],[172.5295333207505,-43.52137654731814],[172.5295422050185,-43.52137862659037],[172.52955111242042,-43.521380604384824],[172.5295600417994,-43.52138248044503],[172.52956899200217,-43.52138425453097],[172.529577961861,-43.5213859264108],[172.5295870022237,-43.521387692251864],[172.52959606214063,-43.521389354858904],[172.5296051404366,-43.52139091401476],[172.529614235922,-43.52139236951551],[172.5296233474182,-43.52139372117199],[172.52963247373555,-43.521394968807925],[172.52964161369997,-43.521396112264796],[172.5296455349162,-43.52139642858868],[172.5296494254835,-43.5213970113291],[172.52965326730188,-43.52139785777944],[172.52965704252708,-43.521398963999665],[172.5296607336131,-43.52140032485475],[172.52966432340324,-43.52140193401827],[172.52966779522828,-43.52140378401236],[172.52967113294287,-43.52140586624227],[172.5296743210456,-43.52140817102735],[172.52967734471164,-43.52141068766299],[172.529680189902,-43.5214134044528],[172.5296822329619,-43.52141581818613],[172.52968410683022,-43.521418365502534],[172.52968580279406,-43.52142103456571],[172.52968731298458,-43.52142381297016],[172.52968863036946,-43.52142668780834],[172.52968974883694,-43.52142964571794],[172.52969066318468,-43.52143267295468],[172.52969136916357,-43.52143575545232],[172.52969186348852,-43.5214388788845],[172.52969214387846,-43.521442028737496],[172.529692209016,-43.521445190375],[172.529754521336,-43.5214484035266],[172.52975516516744,-43.521445190095655],[172.52975602644074,-43.52144202799536],[172.52975710113964,-43.52143893192078],[172.52975838427662,-43.521435916254624],[172.52975986988164,-43.52143299501585],[172.52976155105713,-43.52143018177593],[172.52976341998144,-43.52142748960977],[172.52976546798888,-43.52142493102473],[172.52976768553708,-43.52142251791156],[172.5297700623414,-43.52142026148616],[172.529772587357,-43.5214181722346],[172.5297758216838,-43.52141572615775],[172.5297792151359,-43.521413506116],[172.52978275196799,-43.52141152242802],[172.52978641571823,-43.521409784309064],[172.5297901893791,-43.52140829983727],[172.52979405540097,-43.52140707591024],[172.52979799582678,-43.521406118217776],[172.52980199235023,-43.52140543120912],[172.52980602638488,-43.521405018076614],[172.52981007919877,-43.52140488073902],[172.529814131947,-43.521405019835896],[172.52982373040862,-43.52140483270302],[172.5298333259961,-43.521404532564695],[172.5298429173926,-43.52140411946129],[172.5298525032558,-43.52140359345321],[172.52986208226136,-43.521402954611396],[172.52987165308147,-43.5214022030246],[172.529881214383,-43.5214013387976],[172.5298907397009,-43.52140056891932],[172.52990025528192,-43.52139968693699],[172.52990975983263,-43.52139869297206],[172.52991925201056,-43.52139758716293],[172.52992873051332,-43.52139636966421],[172.5299381940276,-43.521395040644904],[172.529947641227,-43.52139360028569],[172.530361399525,-43.5213325501632],[172.530470954919,-43.5212907632027],[172.53055584101597,-43.521225299144696],[172.530606415267,-43.5211431627951],[172.530618579808,-43.5210769686419],[172.5306267412525,-43.521073627371244],[172.53063486489918,-43.521070195210996],[172.53064294972862,-43.521066672588844],[172.53065099473312,-43.52106305994129],[172.53065899890862,-43.521059357717604],[172.5306669612619,-43.52105556638172],[172.53067488080197,-43.521051686407894],[172.5306826462038,-43.52104788670122],[172.53069036871238,-43.52104400055396],[172.53069804736148,-43.52104002845225],[172.53070568119435,-43.52103597088534],[172.53071326925783,-43.52103182836072],[172.53072081060964,-43.521027601396874],[172.530728304317,-43.5210232905203],[172.53073562128696,-43.52101905066764],[172.53074289045978,-43.52101472940557],[172.5307501109564,-43.52101032727477],[172.53075728186374,-43.52100584482103],[172.53076440228685,-43.5210012826028],[172.53077147134897,-43.52099664119112],[172.530778488158,-43.52099192116199],[172.53118196150297,-43.520542866635594],[172.531203349627,-43.5205190616744],[172.531437877168,-43.5202580353036],[172.531467387511,-43.5202251903425],[172.531481059728,-43.520209973377],[172.531681525311,-43.5198805399738],[172.528260319962,-43.5188300489184],[172.528356512915,-43.5186639588491],[172.52988579182,-43.5191005881053],[172.530037951902,-43.5191454678992],[172.530369660219,-43.5192606948406],[172.53069952961596,-43.5193680759529],[172.530908094594,-43.5194325475644],[172.532189823979,-43.5198296350066],[172.532353515864,-43.51988055185309],[172.53277712444,-43.5200213619804],[172.532752254015,-43.5200628635258],[172.53268120914296,-43.5201875310328],[172.532447673699,-43.5201158910067],[172.532195348555,-43.5200384142523],[172.531922478646,-43.51995454792969],[172.5317339556,-43.5201902435906],[172.53196568590798,-43.520281861952],[172.531988150864,-43.520290743830195],[172.531993066929,-43.5203050476266],[172.531965613416,-43.5203172127045],[172.53194055628597,-43.5203303819417],[172.53192734583297,-43.520342435240295],[172.531922612106,-43.5203395477942],[172.531906843834,-43.5203606651463],[172.531939258638,-43.5203743811436],[172.531926956155,-43.520393190147296],[172.531903451731,-43.5203851929015],[172.531891930171,-43.5203806376993],[172.53165617819,-43.5202874292636],[172.53153845882198,-43.5204346025362],[172.531428640996,-43.5205718968575],[172.531319238108,-43.52069362250379],[172.531203809369,-43.5208220517846],[172.531081948327,-43.5209576365859],[172.530960357662,-43.5210929203343],[172.530838495896,-43.5212285051371],[172.530716836424,-43.5213638637268],[172.53071047877893,-43.521371831560906],[172.5307045790723,-43.52138014416596],[172.53069915594818,-43.52138877525976],[172.53069422656694,-43.521397697544664],[172.53068980649914,-43.52140688280633],[172.53068590974,-43.52141630200284],[172.53068254860597,-43.5214259253497],[172.53068107814758,-43.52143542920747],[172.53068014422382,-43.52144500069516],[172.5306797498051,-43.52145460954488],[172.5306798961246,-43.52146422537407],[172.53068058273126,-43.52147381777467],[172.53068180745316,-43.52148335641504],[172.530683566403,-43.521492811128894],[172.53068721117597,-43.52150239944068],[172.53069138915816,-43.52151176771804],[172.53069608713847,-43.52152088633738],[172.53070129024852,-43.52152972645853],[172.53070698204462,-43.52153826012909],[172.53071314452973,-43.52154646036808],[172.530719758215,-43.5215543012425],[172.530917394656,-43.5217637205486],[172.530961235754,-43.5217856097475],[172.530865496882,-43.5218914884513],[172.530763108491,-43.522007435517295],[172.5307584472175,-43.52201257486188],[172.5307534473504,-43.52201738544681],[172.53074813204142,-43.522021845019474],[172.53074252586518,-43.52202593294713],[172.53073665476398,-43.52202963031595],[172.5307305458991,-43.52203292002195],[172.53072422753755,-43.52203578684383],[172.53071772890684,-43.52203821751936],[172.5307110800786,-43.522040200801705],[172.5307043118082,-43.52204172751589],[172.53069745540773,-43.52204279059878],[172.5306905426041,-43.52204338513359],[172.530683605367,-43.5220435083651]]],[[[172.528823965124,-43.5219471404827],[172.528824943176,-43.52194317159595],[172.52882620477976,-43.52193928353153],[172.52882774334282,-43.52193549651928],[172.52882955087983,-43.52193183025701],[172.5288316179758,-43.52192830381682],[172.52883393388038,-43.5219249355487],[172.528836486553,-43.5219217429751],[172.52883986010417,-43.5219183675344],[172.52884346818243,-43.521915244038595],[172.52884729201466,-43.521912388740006],[172.528851311712,-43.52190981649072],[172.52885550636344,-43.52190754067122],[172.52885985414466,-43.52190557312309],[172.528864332434,-43.5219039240823],[172.52886925878553,-43.52190198369989],[172.52887431217457,-43.52190040345703],[172.5288794663356,-43.52189919157535],[172.52888469443857,-43.52189835436001],[172.52888996927865,-43.52189789616386],[172.52889526344367,-43.521897819372846],[172.52890054935597,-43.5218981243873],[172.528902057006,-43.5218871991529],[172.529362069759,-43.52189839499229],[172.529361124009,-43.5219102021094],[172.529360158286,-43.5219299908245],[172.529258263164,-43.5219488605106],[172.529074750943,-43.52199983874979],[172.52906319422615,-43.52200325516967],[172.52905167977946,-43.52200681149042],[172.52904020932326,-43.52201050718758],[172.52902878452,-43.522014341720926],[172.52901740705778,-43.52201831452293],[172.529006078621,-43.52202242501151],[172.528994800854,-43.5220266725811],[172.52898370704492,-43.52203079770149],[172.52897266406578,-43.52203505705619],[172.5289616735608,-43.522039450019285],[172.5289507371344,-43.52204397594323],[172.52893985640182,-43.522048634164086],[172.52892903296012,-43.522053423994265],[172.528918268401,-43.5220583447325],[172.52890964112882,-43.52206227270663],[172.52890105315964,-43.52206628586645],[172.5288925053246,-43.522070383818566],[172.52888399845685,-43.522074566159056],[172.52887553339315,-43.52207883247683],[172.52886711095925,-43.52208318236089],[172.528858731996,-43.5220876153804],[172.52885049665198,-43.52209196471263],[172.52884230476408,-43.522096395357934],[172.5288341571431,-43.522100906882756],[172.5288260545785,-43.522105498845114],[172.5288179978706,-43.52211017079389],[172.52880998781617,-43.52211492227065],[172.528802025179,-43.5221197528118],[172.528823965124,-43.5219471404827]]]]}}]}