{"type":"FeatureCollection","features":[{"type":"Feature","properties":{"gml_id":"vwPark.1559","ParkID":1559,"GreenspaceParkID":1209,"ParkName":"Carlton Mill Riverbank","ParkTypeDescription":"Local/Community Park","Area":6594,"Perimeter":1528},"geometry":{"type":"MultiPolygon","coordinates":[[[[172.619779098414,-43.5222651620168],[172.619803339014,-43.5222564835628],[172.619923074592,-43.5222136166954],[172.620101341004,-43.522155789803],[172.62010285941,-43.522158252161],[172.620125452077,-43.5221591996644],[172.620170080332,-43.5221929019534],[172.620185631061,-43.5221984437806],[172.620201181793,-43.5222039856057],[172.620601172761,-43.5221847104605],[172.620895675729,-43.5221600734363],[172.621077104237,-43.52214454112249],[172.62108273255197,-43.522145491315],[172.621545497283,-43.5222207527371],[172.62150682726497,-43.5221576558207],[172.621608828219,-43.52217280656989],[172.621748782955,-43.5221553008352],[172.621757163307,-43.5221542481585],[172.621918537944,-43.5221811505775],[172.621934374686,-43.522182489687],[172.621970963797,-43.5222421952589],[172.622132025668,-43.52225575721229],[172.622095436448,-43.5221960425961],[172.622274126914,-43.5222111835023],[172.622440107077,-43.5222094775968],[172.622476215823,-43.5222689113746],[172.622634512367,-43.5222576842309],[172.622595418699,-43.5221928492876],[172.62274589742898,-43.5221736398251],[172.622880183086,-43.5221186888789],[172.62291833962297,-43.5221030892197],[172.62294895060296,-43.5219674664295],[172.622961134705,-43.5218673813386],[172.623001007217,-43.521762256440894],[172.623131390292,-43.5215980766157],[172.623258220223,-43.5215344149652],[172.623309389514,-43.521600729398195],[172.62344437766097,-43.521541918534],[172.623521384319,-43.5215083634071],[172.623642740233,-43.5214817936837],[172.623649539776,-43.5214803039823],[172.623714867388,-43.5214492036586],[172.62382231589297,-43.5213651541931],[172.623879093783,-43.5212963125879],[172.623931357693,-43.5210328045336],[172.624088718845,-43.52092795513549],[172.624168445079,-43.5208362632302],[172.624179598909,-43.5208257847736],[172.624195223788,-43.5208151094018],[172.624243227565,-43.5207991765286],[172.624311714381,-43.5207815227529],[172.624382641284,-43.5207665584933],[172.624480611429,-43.5207484049033],[172.62459247497998,-43.5207347658626],[172.624676858276,-43.5207287839528],[172.62476079727497,-43.5207284616774],[172.624863539378,-43.52073326584979],[172.624952344019,-43.5207407061189],[172.625024036456,-43.52073438465379],[172.62505063544197,-43.5207368549304],[172.625094005011,-43.5207420614127],[172.625180714866,-43.5207572415118],[172.625268631113,-43.5207760009313],[172.625317283181,-43.5207877795327],[172.625368358962,-43.5208049291894],[172.62546841765,-43.5208466704978],[172.625523958952,-43.5208700916655],[172.625569710288,-43.5208875218661],[172.625606466737,-43.5209028371111],[172.625632981668,-43.5209190129044],[172.625667625091,-43.5209450476344],[172.62564502711797,-43.5209577862125],[172.625592819771,-43.5209248413911],[172.625546273304,-43.5209035352001],[172.62548254496,-43.5208797894547],[172.625428586521,-43.5208653120649],[172.62535292771,-43.52085076403],[172.62526660148498,-43.5208397566807],[172.62515942126,-43.520824212041795],[172.625033030334,-43.5208032415424],[172.624916447749,-43.5207852824107],[172.62478183883,-43.5207690521369],[172.62469832939,-43.5207660983239],[172.624623388866,-43.5207679396712],[172.624523013461,-43.5207777427981],[172.624432413222,-43.5207959204682],[172.624339273676,-43.5208274977553],[172.62427078314397,-43.5208457474455],[172.624241286713,-43.520857183271595],[172.624119353245,-43.5209677088241],[172.624011400853,-43.5210581119824],[172.623961672599,-43.5212571078564],[172.623922927811,-43.5213603419253],[172.62378708885697,-43.5214783846732],[172.62368979251596,-43.5215259655073],[172.62354747546,-43.5215708780624],[172.623391254202,-43.5216233079323],[172.623234814594,-43.5217110307521],[172.623210439693,-43.5217311189074],[172.623150922924,-43.5218317637427],[172.623111927093,-43.5219753325723],[172.62307625518,-43.522141601184096],[172.62303430893698,-43.52220196762529],[172.622902226977,-43.522272122815494],[172.622621223986,-43.5223342268369],[172.622506822045,-43.5223464567403],[172.621357108004,-43.5222695725001],[172.62100371221499,-43.52227345167239],[172.620341925725,-43.5222863971685],[172.619686816048,-43.5223396967933],[172.619683603267,-43.52229935030639],[172.619694813841,-43.5222953368367],[172.619699595967,-43.5222936247505],[172.619699109804,-43.5222942534958],[172.6196980736,-43.522315617999396],[172.61970505465496,-43.5223287282392],[172.619807852741,-43.5223203609954],[172.619878274503,-43.52231462896619],[172.61988723434396,-43.5223139024804],[172.619883734502,-43.5223058622017],[172.619869201278,-43.5222938611398],[172.61984164624897,-43.5222913039336],[172.61982425114198,-43.5222939287351],[172.61981445090998,-43.5222965246096],[172.619805432605,-43.5222927414902],[172.619798550102,-43.5222856441239],[172.619792001225,-43.522278601863896],[172.619783603482,-43.5222724985827],[172.619777493573,-43.5222688642088],[172.619779098414,-43.5222651620168]]],[[[172.619636636607,-43.5223412863902],[172.619559594749,-43.5223443566998],[172.61948063325096,-43.5223412458629],[172.619452604771,-43.5223349784709],[172.61941219831098,-43.5223248703078],[172.61952069228198,-43.5223024298315],[172.619565133608,-43.52229355205769],[172.619581460518,-43.5222921810651],[172.619594500117,-43.5222945990549],[172.619612722964,-43.522303208919],[172.619624418607,-43.5223117972151],[172.619632236438,-43.5223257239478],[172.619636636607,-43.5223412863902]]],[[[172.61801406552198,-43.5222480137541],[172.618087929232,-43.5222716748595],[172.618132915495,-43.5222819710394],[172.618222961371,-43.5222908555612],[172.618273325405,-43.5222988279133],[172.618391401535,-43.5223236503489],[172.61855617442,-43.5223478722092],[172.618663250637,-43.5223588402201],[172.618812972319,-43.522367908316696],[172.618889249599,-43.5223702018599],[172.618881895936,-43.5223799744074],[172.61886952172898,-43.5223852400929],[172.618845377643,-43.5223888339966],[172.618779727886,-43.52239147406059],[172.618671506705,-43.5223841762006],[172.618563846504,-43.5223768800972],[172.618427057478,-43.5223629560942],[172.61839956551898,-43.5223636813821],[172.618359148574,-43.5223680376536],[172.61828951846,-43.5223792365235],[172.618209737431,-43.52239897396989],[172.61814001011098,-43.5224256841726],[172.618064030384,-43.5224654361139],[172.618018987603,-43.522491819927],[172.617974572234,-43.5225075925053],[172.617927285552,-43.5225339688371],[172.617918228378,-43.5225470013018],[172.617900759389,-43.5225595976448],[172.617856820476,-43.52258884248529],[172.61780725658397,-43.5226205178596],[172.617780243578,-43.5226343071129],[172.617762308258,-43.5226404102956],[172.617660698694,-43.5225013660771],[172.617715030633,-43.5224777485292],[172.61785410383,-43.5223957530576],[172.617924494511,-43.5223527170748],[172.61796848693,-43.5223149001054],[172.617994518495,-43.5222786563408],[172.61801406552198,-43.5222480137541]]]]}}]}