{"type":"FeatureCollection","features":[{"type":"Feature","properties":{"gml_id":"vwPark.1134","ParkID":1134,"GreenspaceParkID":1572,"ParkName":"Britomart Reserve","ParkTypeDescription":"Local/Community Park","Area":1112,"Perimeter":149},"geometry":{"type":"MultiPolygon","coordinates":[[[[172.9611230333,-43.809303349057494],[172.961137102031,-43.809270065302],[172.961360952705,-43.8093172819061],[172.961393501473,-43.8093281724254],[172.961424916571,-43.8093435822718],[172.961446447073,-43.809371558517796],[172.961450560402,-43.80939492608659],[172.961447042529,-43.8094163244526],[172.96143551154,-43.8094369950875],[172.961407448392,-43.809465277646],[172.961312236923,-43.8095559252907],[172.96106319224998,-43.8097756494961],[172.960976988193,-43.8097477285202],[172.9609631667,-43.80976019905759],[172.9611230333,-43.809303349057494]]]]}}]}