{"type":"FeatureCollection","features":[{"type":"Feature","properties":{"gml_id":"vwPark.593","ParkID":593,"GreenspaceParkID":1092,"ParkName":"Regents Park Reserve","ParkTypeDescription":"Local/Community Park","Area":6550,"Perimeter":401},"geometry":{"type":"MultiPolygon","coordinates":[[[[172.616110172607,-43.4675529928478],[172.616092268062,-43.4675694301736],[172.616083745695,-43.4675767329299],[172.616082574329,-43.4675944783695],[172.61609303096,-43.4676165071058],[172.616144556149,-43.467678802145],[172.616226842331,-43.4677886233252],[172.616277902941,-43.46787178984649],[172.61630126598396,-43.4678633791113],[172.616321155159,-43.4678505864855],[172.61668237793896,-43.46752613513619],[172.617255690359,-43.4674631771033],[172.617255673166,-43.467463014243],[172.617593088159,-43.4675172314155],[172.617879399085,-43.4670131321316],[172.617895448421,-43.4669848723785],[172.61785489216498,-43.4669477848239],[172.61779012091696,-43.4669155562776],[172.617677471387,-43.4668998706386],[172.61749017285197,-43.4669034223006],[172.617300805977,-43.46693202034909],[172.617159160043,-43.466969128438194],[172.61702315053,-43.4670215656834],[172.616817961497,-43.4671350139802],[172.616539734994,-43.46731502754059],[172.616324901629,-43.4674423614134],[172.616110172607,-43.4675529928478]]]]}}]}