{"type":"FeatureCollection","features":[{"type":"Feature","properties":{"gml_id":"vwPark.587","ParkID":587,"GreenspaceParkID":353,"ParkName":"Paeroa Reserve","ParkTypeDescription":"Local/Community Park","Area":7283,"Perimeter":810},"geometry":{"type":"MultiPolygon","coordinates":[[[[172.58949748551,-43.53232700596669],[172.58950302569897,-43.532361752353],[172.589582491888,-43.5323543593966],[172.589622801977,-43.5326061210982],[172.589627197151,-43.532633524776],[172.589663610981,-43.5326290027201],[172.589697311497,-43.5326262597004],[172.58972167796,-43.5326242819332],[172.589718755427,-43.53259677816569],[172.589677253285,-43.5325723009994],[172.589620812984,-43.532219636136396],[172.589823564855,-43.53220330237309],[172.590135478042,-43.5321781671678],[172.590787166588,-43.5321256527468],[172.59117436169,-43.5320944547026],[172.591161774221,-43.5320067419982],[172.591738604511,-43.5319630382845],[172.591772136608,-43.5319609542565],[172.591764274724,-43.5319063665558],[172.591730826773,-43.5319089067552],[172.591154009552,-43.5319526013741],[172.59113425972896,-43.5318149714779],[172.59111059879297,-43.5316500281312],[172.59108692525,-43.5314850667912],[172.590989911794,-43.5314923189085],[172.590840925977,-43.5312175787468],[172.59081859182896,-43.5311731597245],[172.590779244167,-43.5312077416649],[172.590802758965,-43.5312511063993],[172.590904807608,-43.5314392983562],[172.59091222496698,-43.5314529880109],[172.590991007415,-43.5315982624186],[172.59099150377,-43.5316017026175],[172.59100909312,-43.5317238073413],[172.590872016304,-43.5317926175195],[172.59074698558,-43.531802902093595],[172.590447054087,-43.5318274426953],[172.590352188957,-43.5318352056443],[172.590194703192,-43.5318481014046],[172.590123108404,-43.5318539578786],[172.590148164566,-43.531917764075],[172.590029014873,-43.5319438652404],[172.589940541432,-43.5319632439352],[172.58993430678296,-43.5319208548132],[172.589931869575,-43.5319042936073],[172.589736406737,-43.5318726430549],[172.589675163909,-43.5318608145871],[172.589662443677,-43.5318636376222],[172.589650839099,-43.5318649908567],[172.589634340439,-43.5318656876635],[172.589625376556,-43.531865112991],[172.589629364568,-43.5318919732198],[172.58964633549198,-43.5320062992994],[172.589216213162,-43.532040957303],[172.588789011651,-43.5320753811181],[172.588746139218,-43.5320788412199],[172.588779497796,-43.5322881062069],[172.588822316321,-43.5322843646128],[172.589218958191,-43.5322523517466],[172.58928055956,-43.5323453703547],[172.58949748551,-43.53232700596669]]]]}}]}