{"type":"FeatureCollection","features":[{"type":"Feature","properties":{"gml_id":"vwPark.279","ParkID":279,"GreenspaceParkID":263,"ParkName":"Lancewood Reserve","ParkTypeDescription":"Local/Community Park","Area":1834,"Perimeter":301},"geometry":{"type":"MultiPolygon","coordinates":[[[[172.56048383108197,-43.5698984680655],[172.56043492846,-43.5698837278453],[172.560432220336,-43.5699593258377],[172.560430565036,-43.5699888917119],[172.560428631872,-43.5700169884041],[172.560423524327,-43.5700452827275],[172.560416661942,-43.57007692607],[172.560410696616,-43.5701041684637],[172.560405960624,-43.57012092895369],[172.560395357531,-43.570151299644],[172.560385357008,-43.5701781071898],[172.560428815703,-43.5701874806977],[172.560552410543,-43.5700755138271],[172.560844792814,-43.5701733141607],[172.561142758279,-43.5702729711076],[172.56171134561296,-43.5704637629182],[172.561743133621,-43.5704739634365],[172.561746629609,-43.5704691528928],[172.561751569326,-43.5704641381039],[172.56175592160596,-43.570460589204394],[172.561760847761,-43.570457461949],[172.561766927693,-43.5704543390778],[172.561772720687,-43.5704510053843],[172.561779105635,-43.5704455766227],[172.561783750877,-43.5704413996403],[172.561786657919,-43.57043826471119],[172.561789859431,-43.5704342919741],[172.561826040797,-43.5703767532325],[172.561831297566,-43.5703677547422],[172.561833056852,-43.5703637765241],[172.561834828189,-43.5703581204979],[172.561835444244,-43.5703526698139],[172.56183606481798,-43.5703465899519],[172.56179459655397,-43.5703326318567],[172.561225763014,-43.57014175846119],[172.560995276981,-43.5700901798466],[172.56075264241497,-43.5700358812777],[172.560616481775,-43.5700054078488],[172.56048383108197,-43.5698984680655]]]]}}]}