{"type":"FeatureCollection","features":[{"type":"Feature","properties":{"gml_id":"vwPark.183","ParkID":183,"GreenspaceParkID":155,"ParkName":"English Park","ParkTypeDescription":"Sports Park","Area":29064,"Perimeter":863},"geometry":{"type":"MultiPolygon","coordinates":[[[[172.636279617642,-43.5099529687265],[172.636120850922,-43.5097691381063],[172.635922377371,-43.509659636269],[172.63575421399497,-43.5095668546067],[172.635444287301,-43.5098472656005],[172.63539399049,-43.509820634748294],[172.635706043757,-43.5095382685523],[172.63555516668598,-43.5094583764429],[172.635384787821,-43.5093681524228],[172.635233911644,-43.5092882508465],[172.63512046181,-43.5092281706268],[172.63523504789796,-43.50916241396],[172.63539153913996,-43.5090726228237],[172.635116853982,-43.5087896482321],[172.635285866698,-43.508702723080994],[172.635460188099,-43.5086130783122],[172.635407571732,-43.5085588796455],[172.635381441809,-43.50853196546869],[172.63676239792,-43.507815692089],[172.636769113708,-43.5078196737163],[172.636769956159,-43.5078203060379],[172.636775727367,-43.5078236029634],[172.636775721377,-43.5078246082073],[172.636782720602,-43.5078296102238],[172.636789732979,-43.5078356020786],[172.63686774055697,-43.507793611841],[172.636867889884,-43.5077935217115],[172.636867865555,-43.507793514001094],[172.63716087058398,-43.5076564919935],[172.637410339312,-43.5079363039906],[172.637567185676,-43.5081122332955],[172.6370079422,-43.5083763632777],[172.637143364788,-43.5085282743861],[172.637211076239,-43.5086042298054],[172.637278800221,-43.5086801942568],[172.63730720185498,-43.5087120476438],[172.63729211813,-43.5088008741294],[172.637274701985,-43.5089034196849],[172.637120000592,-43.5089029047171],[172.637119999791,-43.5089029031873],[172.637119992115,-43.5089029031615],[172.637119860338,-43.5089026398311],[172.63711984128898,-43.508902639771],[172.63721865520097,-43.5090841306255],[172.637271942628,-43.50926549331599],[172.637260655542,-43.50944643587119],[172.637349241887,-43.50962781699689],[172.63728091993,-43.5096346527952],[172.637281182507,-43.509634936554896],[172.637085036479,-43.50969712575889],[172.63694241509,-43.5097423368822],[172.63680094554098,-43.50978719144139],[172.63666181773397,-43.5098312973116],[172.63652245413897,-43.5098754831701],[172.636379930999,-43.5099206669467],[172.636345436893,-43.5099316018072],[172.636279617642,-43.5099529687265]]]]}}]}