{"type":"FeatureCollection","features":[{"type":"Feature","properties":{"gml_id":"vwPark.1081","ParkID":1081,"GreenspaceParkID":1223,"ParkName":"Christchurch Railway Station Reserve","ParkTypeDescription":"Garden & Heritage Park","Area":303,"Perimeter":90},"geometry":{"type":"MultiPolygon","coordinates":[[[[172.607523228828,-43.5392746833153],[172.607560929927,-43.5392513645528],[172.607617616835,-43.5393020970742],[172.607665557843,-43.5392737368073],[172.607873307173,-43.5394566288493],[172.607850030738,-43.53947061796539],[172.607764190878,-43.5395222152936],[172.607643673982,-43.5394155417103],[172.60766665181097,-43.539401785705],[172.607627628123,-43.5393671978214],[172.607523228828,-43.5392746833153]]]]}}]}