{"type":"FeatureCollection","features":[{"type":"Feature","properties":{"gml_id":"vwPark.935","ParkID":935,"GreenspaceParkID":1289,"ParkName":"Eastwood Reserve","ParkTypeDescription":"Local/Community Park","Area":11773,"Perimeter":1047},"geometry":{"type":"MultiPolygon","coordinates":[[[[172.719776770052,-43.47926338859969],[172.719795391655,-43.4792589363923],[172.719814469947,-43.4792534976327],[172.71983121695,-43.4792732210522],[172.719840019445,-43.479286149124796],[172.719846603502,-43.4792997171152],[172.71985138548897,-43.479319734009],[172.71985441008,-43.4793288093369],[172.71985569823997,-43.4793820788211],[172.719855953687,-43.479386214138],[172.719850535587,-43.4794081421402],[172.719849132066,-43.4794242719653],[172.719847649582,-43.4794699714174],[172.719808231236,-43.47947732365749],[172.719377921721,-43.4795517444166],[172.719128006133,-43.479594949354],[172.71884223259698,-43.4795471850412],[172.718675057932,-43.4794510975259],[172.71853245189,-43.47933983166109],[172.718391463217,-43.4791810183742],[172.718276358518,-43.4790513769368],[172.71780421944197,-43.479198505590794],[172.71778496198,-43.47920823450549],[172.717763864798,-43.4792196759387],[172.717695033019,-43.4791396432329],[172.717717747579,-43.4791285004869],[172.717736381775,-43.4791194650637],[172.718157933824,-43.4789074251142],[172.71801937788,-43.4787201748728],[172.717891365948,-43.4785568745532],[172.717778119738,-43.478477416387],[172.717766021593,-43.47846892595909],[172.717644472908,-43.4784420749465],[172.717411046714,-43.47838458883259],[172.717144435052,-43.4783189288726],[172.716840139443,-43.478417700713095],[172.716820218322,-43.4784279954999],[172.71679490500898,-43.478436368733],[172.716778155509,-43.4784148548589],[172.716735303653,-43.478344963322],[172.716707180795,-43.4782781756106],[172.716664650309,-43.4781392658569],[172.716693094214,-43.4781370353961],[172.71671792870498,-43.4781374300515],[172.717081923083,-43.4781368512381],[172.717219995621,-43.4781452199703],[172.71745677019598,-43.4778991094106],[172.717465108621,-43.4778798797764],[172.71748516302497,-43.4778692458924],[172.717511238559,-43.4778903122777],[172.71753801924,-43.477903125175196],[172.717515383375,-43.4779306664485],[172.717377728088,-43.478154690025],[172.717664867816,-43.4782127043097],[172.71776988015,-43.4782339200864],[172.71791855596,-43.478263957061294],[172.718158191744,-43.4783123755828],[172.718250169829,-43.4784151020477],[172.71837591509296,-43.4785555255876],[172.718537001281,-43.4787354319152],[172.718699564219,-43.4789169795985],[172.718798179226,-43.47918613725789],[172.718904962487,-43.4793675932653],[172.719008734346,-43.4794196286006],[172.719156258019,-43.4794269740323],[172.71925289985597,-43.4794089747693],[172.719444971103,-43.4793732069842],[172.719776770052,-43.47926338859969]]],[[[172.720003543888,-43.4791667333838],[172.71991626128,-43.4791795796361],[172.719947579377,-43.4793680769342],[172.719949328731,-43.4793734330184],[172.719952846113,-43.479380085232],[172.719965949487,-43.4793963571833],[172.719987637049,-43.4794196627899],[172.719994185349,-43.4794285369371],[172.719998706253,-43.4794374061413],[172.719999806322,-43.4794405538097],[172.720002708428,-43.479448857717],[172.720005181569,-43.4794621510194],[172.720007002922,-43.4796171736415],[172.720032848917,-43.47961797483],[172.720057653613,-43.47961642662949],[172.720310954864,-43.4795759733538],[172.720574027712,-43.479533977053],[172.720442382513,-43.479096849376],[172.720003543888,-43.4791667333838]]]]}}]}