{"type":"FeatureCollection","features":[{"type":"Feature","properties":{"gml_id":"vwPark.82","ParkID":82,"GreenspaceParkID":37,"ParkName":"Beverley Park","ParkTypeDescription":"Local/Community Park","Area":25462,"Perimeter":955},"geometry":{"type":"MultiPolygon","coordinates":[[[[172.654844322716,-43.5263650925737],[172.654843582085,-43.52636796606199],[172.654866873639,-43.5263733995198],[172.654874408134,-43.5263759396234],[172.654884135279,-43.5263800883573],[172.654898245137,-43.526387912075194],[172.654916736416,-43.5263996396371],[172.654922990776,-43.52640606661729],[172.65493110642296,-43.5264170764878],[172.654935130577,-43.52642853182879],[172.654937550996,-43.526445475139695],[172.654937081063,-43.5264729376096],[172.654932880782,-43.5264926074693],[172.654927140217,-43.526506551071996],[172.654916692034,-43.5265186496424],[172.654886039989,-43.5265437330065],[172.654877507479,-43.5265508022702],[172.654913509307,-43.5265808343438],[172.654883581117,-43.5266030590558],[172.654853746435,-43.5266226520854],[172.65483544462697,-43.5266330106172],[172.654817940154,-43.5266414261782],[172.654810012158,-43.5266450194085],[172.654778384303,-43.5266141298085],[172.654702732652,-43.5266428544982],[172.654636724071,-43.5266627967315],[172.654594519689,-43.5266727402397],[172.654571540669,-43.52667587543309],[172.654550772125,-43.526677472409794],[172.654483759196,-43.5266803610522],[172.65448378417,-43.526682120122494],[172.654483367825,-43.5267272126069],[172.65446205778997,-43.5267280609441],[172.654366162168,-43.5267318784307],[172.654331565478,-43.5267332556626],[172.653994108286,-43.526736679842095],[172.653926051879,-43.5267373702909],[172.653885983254,-43.526737776778],[172.653885805514,-43.5267603411758],[172.653916730059,-43.526760487919],[172.654483039792,-43.5267632596145],[172.654481699679,-43.5269081046335],[172.654480283478,-43.5270619951584],[172.65388317463297,-43.527034306869],[172.653882744507,-43.5270795613906],[172.654099584922,-43.5270896277032],[172.654354589745,-43.5271014461919],[172.654599082852,-43.52711279166589],[172.654849920004,-43.5271244255801],[172.655053491136,-43.527133865251],[172.655099285905,-43.5271359826772],[172.655101871415,-43.5271862505354],[172.655228730247,-43.5271813199956],[172.655355589107,-43.5271763802806],[172.655604345307,-43.5271666925717],[172.655850125488,-43.5271582735827],[172.655849151227,-43.527140188231],[172.656547548035,-43.5271306082171],[172.65652249361,-43.5269821562944],[172.656498193351,-43.52683817992099],[172.656473893161,-43.5266942125712],[172.656449592895,-43.5265502452089],[172.656473492039,-43.5265502084984],[172.656473430158,-43.52652826445569],[172.65693756793,-43.5265276860072],[172.656972119677,-43.5265272563527],[172.656971375673,-43.5262132028111],[172.656946544502,-43.5262132284244],[172.6569466269,-43.5261985812722],[172.656946792984,-43.5261690581059],[172.656946383698,-43.5260740776652],[172.656946838177,-43.5259932894625],[172.656946194574,-43.525939961859294],[172.65694310684498,-43.5258738104998],[172.656935807615,-43.5257847637573],[172.656935334396,-43.5255850360259],[172.656925353742,-43.525572130535096],[172.65690377567796,-43.5255473778182],[172.656894972999,-43.5255402098783],[172.656879282726,-43.5255337548884],[172.656856046396,-43.5255268196782],[172.65683531082797,-43.52552263830369],[172.656805121436,-43.5255216328685],[172.656572998305,-43.5255213985448],[172.656359125445,-43.5255198450246],[172.656209413414,-43.5255189404134],[172.656045230585,-43.5255184501155],[172.65594581438796,-43.5255227304294],[172.655862732891,-43.5255307213272],[172.65577710415397,-43.5255441973271],[172.655632578755,-43.5255716868157],[172.655554757491,-43.5255950272242],[172.65547174875397,-43.5256229816691],[172.655473246954,-43.5256318083633],[172.655561627558,-43.5261511458611],[172.655432062002,-43.526208614987],[172.655386319403,-43.5262127354075],[172.65533394305498,-43.52621745717009],[172.65524144087496,-43.5262261809715],[172.655130138004,-43.5262367745865],[172.655140523334,-43.5262946175347],[172.654973030586,-43.5263105691279],[172.654854982267,-43.5263218172748],[172.654854984583,-43.5263218198458],[172.654854981436,-43.5263218201455],[172.654855360071,-43.526322254313],[172.654855131288,-43.5263222768255],[172.654844322716,-43.5263650925737]]]]}}]}