{"type":"FeatureCollection","features":[{"type":"Feature","properties":{"gml_id":"vwPark.639","ParkID":639,"GreenspaceParkID":1354,"ParkName":"Ballymena Reserve","ParkTypeDescription":"Local/Community Park","Area":939,"Perimeter":163},"geometry":{"type":"MultiPolygon","coordinates":[[[[172.631686906345,-43.44945630682329],[172.631659100998,-43.4495010479706],[172.631499427845,-43.44944430136],[172.631530987624,-43.4494021421528],[172.631729937942,-43.4491108524289],[172.631904116296,-43.4489205024054],[172.631910423872,-43.4489130682858],[172.632057500585,-43.4489817675459],[172.632049324177,-43.4489889873597],[172.631879410542,-43.4491746811459],[172.631845706334,-43.4492239883784],[172.631686906345,-43.44945630682329]]]]}}]}