{"type":"FeatureCollection","features":[{"type":"Feature","properties":{"gml_id":"vwPark.1551","ParkID":1551,"GreenspaceParkID":1463,"ParkName":"Milns Reserve","ParkTypeDescription":"Local/Community Park","Area":8997,"Perimeter":521},"geometry":{"type":"MultiPolygon","coordinates":[[[[172.578328551525,-43.578030159262],[172.57834082886257,-43.57803062265167],[172.57835309088478,-43.57803139112002],[172.57836533001677,-43.578032464192795],[172.57837753868804,-43.578033841202334],[172.57838970934608,-43.57803552129917],[172.57840183447843,-43.578037503446566],[172.578413906591,-43.5780397864181],[172.57842033704944,-43.578040687520094],[172.57842673187767,-43.57804181395658],[172.57843308319568,-43.57804316433975],[172.57843938314906,-43.57804473700343],[172.5784456239671,-43.578046530003114],[172.57845179796274,-43.5780485411269],[172.578457897484,-43.5780507678927],[172.578454713089,-43.5780702023656],[172.578486765448,-43.5780808067779],[172.578515168154,-43.57809168856869],[172.57856878145296,-43.5781104592135],[172.578646992303,-43.578139567830895],[172.578662992026,-43.5781191299283],[172.578718670283,-43.5781269503221],[172.57873607658897,-43.5781322718907],[172.578749167403,-43.5781431434775],[172.578755179706,-43.5781655832913],[172.578758753479,-43.578236896364],[172.578766683428,-43.57832074423259],[172.578821695453,-43.5786666342879],[172.578735719326,-43.5786742919469],[172.578679109413,-43.5786786215212],[172.578672633636,-43.5786338823041],[172.578660333024,-43.5786348275169],[172.578666796426,-43.5786795576537],[172.57861018650098,-43.578683887335394],[172.57862701309298,-43.5788002561983],[172.578752583247,-43.5787906609253],[172.578788874198,-43.5788039438319],[172.578845574963,-43.5788486892672],[172.578879595192,-43.57909748648],[172.578939162885,-43.5795362492777],[172.57886137742597,-43.579541656066795],[172.578615113709,-43.5795605586072],[172.57836602555,-43.5795796752095],[172.578376604065,-43.5796272828],[172.578344975586,-43.579626280266396],[172.578306443921,-43.5796166421436],[172.578358646546,-43.5795756885426],[172.578240450797,-43.5795118273737],[172.578185728584,-43.5795553317842],[172.578175114724,-43.57954450058429],[172.578158106315,-43.5795137879925],[172.578151662649,-43.5794809034692],[172.578179300214,-43.5794787876422],[172.57814946796196,-43.5792737858878],[172.57781757473,-43.5791626821403],[172.578405061615,-43.578235474647194],[172.578356984485,-43.5780877069768],[172.578352793585,-43.5780748259821],[172.578328224567,-43.5780723117448],[172.578326287285,-43.5780487814587],[172.578328551525,-43.578030159262]]]]}}]}