{"type":"FeatureCollection","features":[{"type":"Feature","properties":{"gml_id":"vwPark.237","ParkID":237,"GreenspaceParkID":217,"ParkName":"Holliss Reserve","ParkTypeDescription":"Local/Community Park","Area":12685,"Perimeter":495},"geometry":{"type":"MultiPolygon","coordinates":[[[[172.637897557914,-43.5722838144128],[172.637866829515,-43.5722705095968],[172.63783968219298,-43.5722595424984],[172.63848642271196,-43.571265377059],[172.638510506277,-43.5712738446246],[172.63851765142,-43.5712763567916],[172.638553204991,-43.5712886688071],[172.638947299539,-43.5714259378604],[172.63903926024798,-43.5712863732675],[172.639080778375,-43.5712244932555],[172.639295648814,-43.5713000869172],[172.63927693596196,-43.5713291694424],[172.63959477017698,-43.57143996781199],[172.639693339393,-43.5713907176463],[172.63962796049196,-43.57148997099559],[172.63946864843297,-43.5717317531484],[172.63943311082,-43.5717856909844],[172.639263741869,-43.5720427334776],[172.639162599251,-43.5721962294964],[172.638999048877,-43.572444433180294],[172.63887944261,-43.5726259622624],[172.638846247589,-43.57261439162549],[172.638656503965,-43.572548273131],[172.638466760554,-43.57248215445999],[172.638277017694,-43.572416044367],[172.638087275296,-43.57234992506249],[172.637897557914,-43.5722838144128]]]]}}]}