{"type":"FeatureCollection","features":[{"type":"Feature","properties":{"gml_id":"vwPark.1364","ParkID":1364,"GreenspaceParkID":191,"ParkName":"Halswell Domain","ParkTypeDescription":"Sports Park","Area":262305,"Perimeter":2949},"geometry":{"type":"MultiPolygon","coordinates":[[[[172.571588078171,-43.58225687391249],[172.571535739678,-43.5821956394936],[172.571483296045,-43.5821274679698],[172.571431898337,-43.5820606558706],[172.571323459028,-43.5819073268201],[172.571281216067,-43.5818642130673],[172.571254209765,-43.5818391977745],[172.571233054114,-43.58182250919919],[172.571211066334,-43.5818121178614],[172.571185898923,-43.5818057240068],[172.571143370306,-43.5818032749296],[172.57110870423898,-43.5818031460904],[172.571069132979,-43.5818027476079],[172.571060819451,-43.5818010892279],[172.57122335762696,-43.5817404161586],[172.57101362466398,-43.581443440414],[172.570529988712,-43.5807585932458],[172.568485818164,-43.5815230056851],[172.568430773264,-43.5815435913763],[172.567615508467,-43.5803889300964],[172.568602327187,-43.5800135123994],[172.570834824728,-43.5791641568506],[172.570832525863,-43.5791618170485],[172.56695076764697,-43.5791902104325],[172.566970394968,-43.5790240042971],[172.56706259022,-43.578806621965],[172.567242068802,-43.5784479313523],[172.56822861126298,-43.5768933992744],[172.568284871917,-43.5769122703246],[172.56854562371,-43.5764991757117],[172.569789177836,-43.5769160814625],[172.570123938627,-43.5770281751815],[172.570638016565,-43.577200524099],[172.571121761109,-43.576437500819395],[172.571203264737,-43.5763089404623],[172.573607630674,-43.5771152587463],[172.573670697459,-43.5771364000758],[172.57368019693297,-43.5771392411276],[172.573670266289,-43.5771748999033],[172.57366173272,-43.577208552828196],[172.57365601088,-43.577235680352395],[172.573649558872,-43.577268335462094],[172.57364231697,-43.5773150647395],[172.573636482687,-43.5773582799462],[172.57363199630097,-43.5774065276646],[172.573628861326,-43.5774593051546],[172.573627260461,-43.5774904699303],[172.57362631598,-43.5775266646625],[172.573627982995,-43.5775849901812],[172.573633735904,-43.5776523803541],[172.573640970241,-43.5777056989142],[172.573647593871,-43.5777474518958],[172.5736617259,-43.577803309708],[172.573681274223,-43.5778757783817],[172.573695483595,-43.5779205759062],[172.573715899152,-43.5779679101242],[172.573732228811,-43.5780061796874],[172.573749242992,-43.57804545728259],[172.573766983843,-43.5780797100293],[172.573777212746,-43.5781003606909],[172.573793294971,-43.5781294979695],[172.574022603388,-43.5785000925337],[172.574046526499,-43.5785373718525],[172.574153161086,-43.5787179727516],[172.574207922154,-43.5788013474374],[172.574312433908,-43.5789702393628],[172.574393714902,-43.5791015894434],[172.574415942938,-43.5791378899892],[172.574419861423,-43.5791442892516],[172.574436017606,-43.579163961209694],[172.574461209091,-43.579190268671894],[172.57448239954,-43.5792157846452],[172.574501449158,-43.5792418752649],[172.57451596353397,-43.57926717242939],[172.574516511465,-43.5792687432249],[172.574525390863,-43.5792941984698],[172.574530999603,-43.579318792669],[172.57453463204,-43.5793260161222],[172.574541966909,-43.5793407391685],[172.574833436022,-43.579808225121596],[172.574784294661,-43.5798240604761],[172.574473725676,-43.5799257939918],[172.575054077346,-43.5808639460718],[172.575059835623,-43.5808732454542],[172.574292866306,-43.58118150534839],[172.574247535064,-43.5812008537721],[172.574199500724,-43.5812231665429],[172.57415882836997,-43.5812460419388],[172.574135157034,-43.5812604124429],[172.574109257271,-43.5812774520995],[172.57407075719698,-43.5813056902457],[172.574026304659,-43.5813424740279],[172.573968440381,-43.5814011628091],[172.573929869119,-43.581439574697],[172.573891350162,-43.5814704900962],[172.573854330502,-43.581497662685],[172.573819561689,-43.58151895333509],[172.573775942676,-43.581541817715],[172.573737520838,-43.5815588110369],[172.573699839299,-43.5815752716046],[172.573655532261,-43.581591172205094],[172.573613446166,-43.581605474566],[172.573570645924,-43.5816165614144],[172.573520487348,-43.58162655009959],[172.573471084051,-43.5816338641729],[172.57341505526,-43.5816406182562],[172.573291268518,-43.5816460508241],[172.57321240568896,-43.5816527203712],[172.573170371887,-43.5816595260954],[172.57309218941,-43.58167423022319],[172.573046420217,-43.5816885187529],[172.573006551147,-43.5817017581441],[172.57265495955298,-43.58184021597679],[172.572191067561,-43.5820264493544],[172.571701316971,-43.5822232944446],[172.571609731957,-43.582258295938],[172.571595714223,-43.5822614567581],[172.57159204632097,-43.582259301235396],[172.571588078171,-43.58225687391249]]],[[[172.574007666798,-43.582169055434],[172.57402996947798,-43.5822038918981],[172.574222617005,-43.5821264727947],[172.574197288682,-43.5820928439468],[172.573975665423,-43.5818012933748],[172.57384375243998,-43.581627776284],[172.573837187084,-43.58162455360699],[172.573823191393,-43.5816191581894],[172.573811850844,-43.5816163229927],[172.573803830283,-43.581616536267],[172.573791783322,-43.5816191636376],[172.573782229172,-43.5816239347601],[172.57377200580297,-43.5816283206673],[172.573763296639,-43.5816314461571],[172.573749558715,-43.58163698203919],[172.573736861305,-43.581643037918795],[172.573726788509,-43.58165004471769],[172.57370867209698,-43.5816643095928],[172.573693974153,-43.5816754738089],[172.573686610741,-43.5816831224311],[172.573682929033,-43.5816869467421],[172.573681036824,-43.5816915123939],[172.573813906031,-43.5818663383784],[172.57390057157397,-43.5820017414673],[172.574007666798,-43.582169055434]]]]}}]}