{"type":"FeatureCollection","features":[{"type":"Feature","properties":{"gml_id":"vwPark.1285","ParkID":1285,"GreenspaceParkID":1754,"ParkName":"Robinsons Bay Reserve","ParkTypeDescription":"Local/Community Park","Area":7981,"Perimeter":427},"geometry":{"type":"MultiPolygon","coordinates":[[[[172.959552799966,-43.75957778234359],[172.960695999867,-43.7607192490984],[172.960783534935,-43.7607989561408],[172.96066049929,-43.7608148460067],[172.960559437977,-43.760835505224],[172.960403334435,-43.7608783220542],[172.96019785010796,-43.7609900157204],[172.959057383289,-43.759846815728],[172.959552799966,-43.75957778234359]]]]}}]}