{"type":"FeatureCollection","features":[{"type":"Feature","properties":{"gml_id":"vwPark.1902","ParkID":1902,"GreenspaceParkID":null,"ParkName":"Withers Family Park","ParkTypeDescription":"Local/Community Park","Area":670,"Perimeter":118},"geometry":{"type":"MultiPolygon","coordinates":[[[[172.613969200789,-43.4889893961851],[172.614021372213,-43.4890171148179],[172.614031983187,-43.4890069822772],[172.614162287897,-43.4890780377619],[172.614151046816,-43.4890860106092],[172.613992996074,-43.4892103224196],[172.613853631406,-43.48931993524239],[172.613794143125,-43.4893667200605],[172.61366745795397,-43.4892994175078],[172.613969200789,-43.4889893961851]]]]}}]}