{"type":"FeatureCollection","features":[{"type":"Feature","properties":{"gml_id":"vwPark.107","ParkID":107,"GreenspaceParkID":1135,"ParkName":"Buccleugh Reserve","ParkTypeDescription":"Local/Community Park","Area":513,"Perimeter":95},"geometry":{"type":"MultiPolygon","coordinates":[[[[172.662894167308,-43.5332634450244],[172.662873594308,-43.5332876164495],[172.662589241822,-43.5331594173988],[172.66258189245397,-43.5331525953156],[172.66257787190597,-43.5331442996681],[172.66257467445496,-43.53313423131589],[172.662575559746,-43.5331212163964],[172.662585413973,-43.5331040858105],[172.662591965997,-43.5330958211289],[172.662605834215,-43.53308816957939],[172.66262212588796,-43.5330834836512],[172.663011687571,-43.5330840321525],[172.66301181523,-43.5331252681477],[172.662894167308,-43.5332634450244]]]]}}]}