{"type":"FeatureCollection","features":[{"type":"Feature","properties":{"gml_id":"vwPark.494","ParkID":494,"GreenspaceParkID":1118,"ParkName":"Waimairi Cemetery","ParkTypeDescription":"Cemetery","Area":48495,"Perimeter":909},"geometry":{"type":"MultiPolygon","coordinates":[[[[172.577520510885,-43.5009941356218],[172.57749277615298,-43.5010230410935],[172.57748220111,-43.501068788763],[172.57744529272,-43.5011116381039],[172.57741078774797,-43.5010906827647],[172.577070797078,-43.500873625532],[172.576929128739,-43.5007831755489],[172.576787448321,-43.5006927255997],[172.576645768742,-43.5006022663749],[172.57648994487,-43.500502780858994],[172.576319952392,-43.5003942418711],[172.57616411750297,-43.5002947470182],[172.576022451851,-43.5002042958834],[172.575880774477,-43.5001138447838],[172.575739109664,-43.5000233932891],[172.575597445269,-43.4999329418744],[172.575441612738,-43.4998334457521],[172.575280130062,-43.499730346314],[172.575127129592,-43.499632651582495],[172.574985467014,-43.4995421991306],[172.574811171526,-43.4994309148301],[172.576505722925,-43.49834568263879],[172.576988197691,-43.4986537079062],[172.577144042538,-43.4987532020181],[172.577299887475,-43.4988527047479],[172.577455732981,-43.498952198423],[172.577611566918,-43.4990516827387],[172.57776741337898,-43.4991511848153],[172.577923260411,-43.499250677577095],[172.578079107949,-43.4993501703811],[172.578234943856,-43.4994496629228],[172.578390792412,-43.4995491550313],[172.57854664147396,-43.499648647182],[172.578886679847,-43.4998657361911],[172.57892527096,-43.4998902774337],[172.578870661781,-43.49993134295709],[172.578825636827,-43.4999526704591],[172.578797275972,-43.4999551456046],[172.578767728214,-43.49995847609309],[172.577520510885,-43.5009941356218]]]]}}]}