{"type":"FeatureCollection","features":[{"type":"Feature","properties":{"gml_id":"vwPark.47","ParkID":47,"GreenspaceParkID":1181,"ParkName":"Alvaston Reserve","ParkTypeDescription":"Local/Community Park","Area":8461,"Perimeter":1410},"geometry":{"type":"MultiPolygon","coordinates":[[[[172.548148153143,-43.573498722999],[172.54812154645,-43.5735272213102],[172.549123884112,-43.5741483336507],[172.549719549616,-43.5745232589393],[172.550436697635,-43.57496920968029],[172.55077940099596,-43.5751828821403],[172.550986907707,-43.575306321575795],[172.551181879048,-43.5754377752844],[172.551464352823,-43.575610222105],[172.551707257139,-43.5757593320478],[172.552140259491,-43.57601198849779],[172.552208879778,-43.5760441726683],[172.552257236267,-43.5760668708019],[172.55227935105,-43.5760760280048],[172.552299184868,-43.57608114463329],[172.55231950792398,-43.5760825674165],[172.552342628305,-43.576080641288],[172.55235745039698,-43.5760759951401],[172.552372751854,-43.576068999015696],[172.552382038462,-43.5760629874776],[172.552393195701,-43.57605395940999],[172.55235630857297,-43.5760309455823],[172.552356808602,-43.57603044560219],[172.55216780611,-43.5759134404901],[172.552007804049,-43.5758134361293],[172.551762800806,-43.5756614293562],[172.551569798046,-43.5755414241077],[172.55127779419996,-43.5753604161062],[172.551104792106,-43.5752524113518],[172.55093478978898,-43.5751474066922],[172.550765787462,-43.5750414020067],[172.550595785318,-43.5749363975574],[172.550426783097,-43.5748313929074],[172.550256780536,-43.5747253881131],[172.550087778485,-43.5746203834938],[172.549766774121,-43.5744213748535],[172.548202753402,-43.5734493318992],[172.548154752319,-43.5734903330219],[172.548148153143,-43.573498722999]]],[[[172.552544811132,-43.5761474507147],[172.552511430963,-43.57612631710799],[172.552503523302,-43.5761333419352],[172.552496532469,-43.5761413782479],[172.552490456,-43.5761507620131],[172.552486682698,-43.5761611626428],[172.552486070241,-43.576181654827195],[172.55248919412,-43.5761967858848],[172.552500178846,-43.5762112754857],[172.552525420072,-43.5762352277304],[172.552595247277,-43.5762919426211],[172.552695411531,-43.5763709495518],[172.552926690225,-43.5765307629775],[172.553126711113,-43.5766679444164],[172.553237050628,-43.57674598234069],[172.55332250742796,-43.5768141804928],[172.55347129648396,-43.5769427635017],[172.553824419534,-43.57725121214],[172.553875353751,-43.5773007976335],[172.55407649308097,-43.5774752750165],[172.55429324513,-43.5776635873701],[172.554314380096,-43.57768046783279],[172.554345615535,-43.5777064586672],[172.554357571858,-43.577714568283],[172.55437459191697,-43.5777253852675],[172.554396218501,-43.57773823589989],[172.554421532273,-43.577752444674395],[172.554440880153,-43.577760918807],[172.554459795358,-43.5777653595518],[172.554473189608,-43.57776641921019],[172.554488894482,-43.5777674877905],[172.554498144333,-43.5777665155839],[172.554504149492,-43.5777642662286],[172.554605836623,-43.577697516194],[172.55440583442197,-43.577519508968],[172.554245832772,-43.5773775031415],[172.554080830717,-43.57723149710169],[172.553904828862,-43.5770744906216],[172.553739826788,-43.5769284846087],[172.55359282512197,-43.57679847936599],[172.553570825006,-43.5767844787687],[172.553379822156,-43.57666547346],[172.55296681673,-43.5764094622386],[172.552824814782,-43.5763214583376],[172.552544811132,-43.5761474507147]]]]}}]}