{"type":"FeatureCollection","features":[{"type":"Feature","properties":{"gml_id":"vwPark.1128","ParkID":1128,"GreenspaceParkID":1566,"ParkName":"Wackerle Green","ParkTypeDescription":"Local/Community Park","Area":3456,"Perimeter":363},"geometry":{"type":"MultiPolygon","coordinates":[[[[172.97128213329998,-43.8014731157576],[172.971282895994,-43.8014855997942],[172.971369725042,-43.8014869444701],[172.9713703833,-43.801474215757594],[172.9713771,-43.80118626575759],[172.9713779333,-43.8011502657575],[172.97164475,-43.8011745657576],[172.9718763,-43.8012452823576],[172.9718778833,-43.8011786990575],[172.9718829,-43.8009675823576],[172.9719384667,-43.8008444823575],[172.97194775,-43.800823949057595],[172.9718958333,-43.8007782990575],[172.9718837667,-43.8007620490575],[172.971698266549,-43.8006820991186],[172.971448416555,-43.800661999124394],[172.97160326664297,-43.8004394156672],[172.971616200384,-43.8004095087572],[172.97159184245197,-43.800404112646],[172.9715792,-43.8004339156644],[172.971409750051,-43.8006774491512],[172.97124145,-43.8009192990575],[172.9711491667,-43.8010535657575],[172.97105475,-43.8011910157575],[172.9710088667,-43.801257815757594],[172.9712862833,-43.80129639905749],[172.97128213329998,-43.8014731157576]]]]}}]}