{"type":"FeatureCollection","features":[{"type":"Feature","properties":{"gml_id":"vwPark.493","ParkID":493,"GreenspaceParkID":510,"ParkName":"Vista Reserve","ParkTypeDescription":"Local/Community Park","Area":2705,"Perimeter":386},"geometry":{"type":"MultiPolygon","coordinates":[[[[172.654434477511,-43.5721892012025],[172.654490535477,-43.5721885707034],[172.654514367918,-43.5721828738637],[172.65453598500596,-43.57216810615099],[172.65454514019598,-43.5721524771286],[172.65455034507298,-43.57213395221039],[172.65454422605197,-43.5721137453688],[172.65453260365,-43.572064681297],[172.654525355985,-43.572043647055],[172.65447904568296,-43.572048740279],[172.654480586243,-43.5720608958376],[172.654478715721,-43.5720720418926],[172.654473753398,-43.5720826838475],[172.65447018469,-43.5720876685187],[172.654461034775,-43.5720967137225],[172.654449553878,-43.5721042219452],[172.654436201703,-43.572109870404994],[172.65442156171997,-43.5721134267652],[172.654406216355,-43.5721147400084],[172.65389537099898,-43.572082463645],[172.65383082426,-43.5720783548468],[172.653291579167,-43.5717348211043],[172.653030691688,-43.5715686237732],[172.65279104562,-43.5714159457624],[172.65273857499898,-43.5713825216047],[172.65291359359497,-43.5717108058251],[172.653029917878,-43.5719290876185],[172.653619801729,-43.5721382512659],[172.654420797936,-43.5721893087151],[172.654430626097,-43.5721894642068],[172.654434477511,-43.5721892012025]]]]}}]}