{"type":"FeatureCollection","features":[{"type":"Feature","properties":{"gml_id":"vwPark.631","ParkID":631,"GreenspaceParkID":204,"ParkName":"Harold Henry Park","ParkTypeDescription":"Local/Community Park","Area":4933,"Perimeter":488},"geometry":{"type":"MultiPolygon","coordinates":[[[[172.721588821959,-43.5152517811158],[172.721608592746,-43.51524749945779],[172.721617340222,-43.5152569136377],[172.721626980644,-43.5152675137149],[172.72163477519,-43.5152743125403],[172.721645929718,-43.5152797634939],[172.721664533398,-43.5152860460544],[172.72168091608,-43.51528906885309],[172.721691717781,-43.5152901797636],[172.721709228299,-43.5152910356919],[172.721724136505,-43.5152905293317],[172.72174427038098,-43.5152881372069],[172.72176217706,-43.5152838413018],[172.721783841111,-43.51527277449719],[172.72181077042197,-43.5152511436474],[172.721817518834,-43.51524221038449],[172.72182392059,-43.5152275811025],[172.721826957421,-43.515215384480996],[172.721827406788,-43.5151985712224],[172.721847065485,-43.51519573715],[172.721940597924,-43.5154350929504],[172.722024497873,-43.5156497816979],[172.722094425167,-43.5158287399191],[172.722064714547,-43.5158348786034],[172.722072465272,-43.5158547348171],[172.721796528119,-43.515920061195],[172.721666514569,-43.5156202946325],[172.72153962462897,-43.5152624449253],[172.721588821959,-43.5152517811158]]],[[[172.72176935218,-43.5160971288216],[172.721767513564,-43.5160900902559],[172.721786156142,-43.51608544431],[172.72205574156,-43.5160214639337],[172.722148704858,-43.5159993843714],[172.722151370384,-43.516006838522],[172.72225423808996,-43.5162663062143],[172.72224579212596,-43.5163012985127],[172.722178274685,-43.516581200421896],[172.722137847062,-43.516748830429],[172.722026662708,-43.51704387400469],[172.722024370446,-43.5170493963295],[172.722024046268,-43.5170504618335],[172.721961039454,-43.517038096648],[172.721954475383,-43.5170374739367],[172.721857616747,-43.5170259384688],[172.721815516073,-43.5170228611553],[172.72178229244,-43.5170212620287],[172.721783475803,-43.51701321538389],[172.721838409488,-43.5166401442972],[172.721865276775,-43.516457594604596],[172.721878907992,-43.5163649925345],[172.72176935218,-43.5160971288216]]]]}}]}